<?xml version="1.0" encoding="utf-8" standalone="no"?>
<gpx version="1.1" creator="KML2GPX from gpstraces.net" xmlns:xsi="http://www.w3.org/2001/XMLSchema-instance" xmlns="http://www.topografix.com/GPX/1/1" xsi:schemaLocation="http://www.topografix.com/GPX/1/1 http://www.topografix.com/GPX/1/1/gpx.xsd">
  <metadata>
    <author>
      <name>GPStraces</name>
    </author>
    <link href="https://gpstraces.net/affichage-conversion-trace-kml-gpx-kml2gpx-on-line">
      <text>Fichier créé avec le convertisseur KML2GPX de Gpstraces.net, un site de  partage de traces GPS de randonnées, de photos - Cartes GPS routables avec lignes de niveau gratuites - Création en ligne d'un parcours aux formats GPX/KML avec suivi de route, calcul de l'IBP, horodatage et altitude.</text>
    </link>
    <bounds maxlat="38.966968" maxlon="23.799043" minlat="38.339092" minlon="22.826992"/>
  </metadata>
  <wpt lat="38.939807" lon="23.081608">
    <ele>0</ele>
    <name><![CDATA[Chantier Dimstef]]></name>
    <sym>Pin, Green</sym>
    <extensions>
      <gpxx:WaypointExtension xmlns:gpxx="http://www.garmin.com/xmlschemas/GpxExtensions/v3">
        <gpxx:DisplayMode>SymbolAndName</gpxx:DisplayMode>
      </gpxx:WaypointExtension>
    </extensions>
  </wpt>
  <wpt lat="38.949235" lon="23.086747">
    <ele>0</ele>
    <name><![CDATA[Orei]]></name>
    <sym>Pin, Green</sym>
    <extensions>
      <gpxx:WaypointExtension xmlns:gpxx="http://www.garmin.com/xmlschemas/GpxExtensions/v3">
        <gpxx:DisplayMode>SymbolAndName</gpxx:DisplayMode>
      </gpxx:WaypointExtension>
    </extensions>
  </wpt>
  <wpt lat="38.835317" lon="22.93317">
    <ele>0</ele>
    <name><![CDATA[Gregolimano]]></name>
    <sym>Pin, Green</sym>
    <extensions>
      <gpxx:WaypointExtension xmlns:gpxx="http://www.garmin.com/xmlschemas/GpxExtensions/v3">
        <gpxx:DisplayMode>SymbolAndName</gpxx:DisplayMode>
      </gpxx:WaypointExtension>
    </extensions>
  </wpt>
  <wpt lat="38.672265" lon="23.087832">
    <ele>0</ele>
    <name><![CDATA[Atalantonisi]]></name>
    <sym>Pin, Green</sym>
    <extensions>
      <gpxx:WaypointExtension xmlns:gpxx="http://www.garmin.com/xmlschemas/GpxExtensions/v3">
        <gpxx:DisplayMode>SymbolAndName</gpxx:DisplayMode>
      </gpxx:WaypointExtension>
    </extensions>
  </wpt>
  <wpt lat="38.465855" lon="23.592797">
    <ele>0</ele>
    <name><![CDATA[Chalkida 1]]></name>
    <sym>Pin, Green</sym>
    <extensions>
      <gpxx:WaypointExtension xmlns:gpxx="http://www.garmin.com/xmlschemas/GpxExtensions/v3">
        <gpxx:DisplayMode>SymbolAndName</gpxx:DisplayMode>
      </gpxx:WaypointExtension>
    </extensions>
  </wpt>
  <wpt lat="38.461787" lon="23.584843">
    <ele>0</ele>
    <name><![CDATA[Chalkida 2]]></name>
    <sym>Pin, Green</sym>
    <extensions>
      <gpxx:WaypointExtension xmlns:gpxx="http://www.garmin.com/xmlschemas/GpxExtensions/v3">
        <gpxx:DisplayMode>SymbolAndName</gpxx:DisplayMode>
      </gpxx:WaypointExtension>
    </extensions>
  </wpt>
  <wpt lat="38.388648" lon="23.79844">
    <ele>0</ele>
    <name><![CDATA[Eretria]]></name>
    <sym>Pin, Green</sym>
    <extensions>
      <gpxx:WaypointExtension xmlns:gpxx="http://www.garmin.com/xmlschemas/GpxExtensions/v3">
        <gpxx:DisplayMode>SymbolAndName</gpxx:DisplayMode>
      </gpxx:WaypointExtension>
    </extensions>
  </wpt>
  <wpt lat="38.339213" lon="23.726072">
    <ele>0</ele>
    <name><![CDATA[Chantier Boatclub]]></name>
    <sym>Pin, Green</sym>
    <extensions>
      <gpxx:WaypointExtension xmlns:gpxx="http://www.garmin.com/xmlschemas/GpxExtensions/v3">
        <gpxx:DisplayMode>SymbolAndName</gpxx:DisplayMode>
      </gpxx:WaypointExtension>
    </extensions>
  </wpt>
  <trk>
    <name><![CDATA[2022-04-28]]></name>
    <desc><![CDATA[Statistics computed from imported data
			
			Wednesday, April 27, 2022 9:13 AM EEST
			Distance: 5.0 miles
			Duration: 23 hours, 14 minutes, and 41 seconds
			Average Speed: 0.2 mph
			https://cocody81.blogspot.com/2023/10/test.html]]></desc>
    <extensions xmlns:gpxx="http://www.garmin.com/xmlschemas/GpxExtensions/v3">
      <gpxx:TrackExtension>
        <gpxx:DisplayColor>Blue</gpxx:DisplayColor>
      </gpxx:TrackExtension>
    </extensions>
    <trkseg>
      <trkpt lat="38.939807000" lon="23.081608000">
        <ele>0.000</ele>
      </trkpt>
      <trkpt lat="38.939792000" lon="23.081148000">
        <ele>0.000</ele>
      </trkpt>
      <trkpt lat="38.939170000" lon="23.080015000">
        <ele>0.000</ele>
      </trkpt>
      <trkpt lat="38.940518000" lon="23.079052000">
        <ele>0.000</ele>
      </trkpt>
      <trkpt lat="38.941337000" lon="23.078933000">
        <ele>0.000</ele>
      </trkpt>
      <trkpt lat="38.942867000" lon="23.078098000">
        <ele>0.000</ele>
      </trkpt>
      <trkpt lat="38.944005000" lon="23.077100000">
        <ele>0.000</ele>
      </trkpt>
      <trkpt lat="38.944938000" lon="23.077160000">
        <ele>0.000</ele>
      </trkpt>
      <trkpt lat="38.944982000" lon="23.076907000">
        <ele>0.000</ele>
      </trkpt>
      <trkpt lat="38.944788000" lon="23.076905000">
        <ele>0.000</ele>
      </trkpt>
      <trkpt lat="38.944762000" lon="23.077250000">
        <ele>0.000</ele>
      </trkpt>
      <trkpt lat="38.945063000" lon="23.077407000">
        <ele>0.000</ele>
      </trkpt>
      <trkpt lat="38.945463000" lon="23.076928000">
        <ele>0.000</ele>
      </trkpt>
      <trkpt lat="38.946492000" lon="23.077033000">
        <ele>0.000</ele>
      </trkpt>
      <trkpt lat="38.947415000" lon="23.076162000">
        <ele>0.000</ele>
      </trkpt>
      <trkpt lat="38.948780000" lon="23.075393000">
        <ele>0.000</ele>
      </trkpt>
      <trkpt lat="38.949348000" lon="23.075247000">
        <ele>0.000</ele>
      </trkpt>
      <trkpt lat="38.951738000" lon="23.075778000">
        <ele>0.000</ele>
      </trkpt>
      <trkpt lat="38.952332000" lon="23.075667000">
        <ele>0.000</ele>
      </trkpt>
      <trkpt lat="38.953390000" lon="23.076060000">
        <ele>0.000</ele>
      </trkpt>
      <trkpt lat="38.954492000" lon="23.075985000">
        <ele>0.000</ele>
      </trkpt>
      <trkpt lat="38.955192000" lon="23.074350000">
        <ele>0.000</ele>
      </trkpt>
      <trkpt lat="38.956125000" lon="23.073002000">
        <ele>0.000</ele>
      </trkpt>
      <trkpt lat="38.956528000" lon="23.071932000">
        <ele>0.000</ele>
      </trkpt>
      <trkpt lat="38.959123000" lon="23.068557000">
        <ele>0.000</ele>
      </trkpt>
      <trkpt lat="38.960208000" lon="23.066535000">
        <ele>0.000</ele>
      </trkpt>
      <trkpt lat="38.961842000" lon="23.064408000">
        <ele>0.000</ele>
      </trkpt>
      <trkpt lat="38.966867000" lon="23.059428000">
        <ele>0.000</ele>
      </trkpt>
      <trkpt lat="38.966968000" lon="23.061768000">
        <ele>0.000</ele>
      </trkpt>
      <trkpt lat="38.966705000" lon="23.065825000">
        <ele>0.000</ele>
      </trkpt>
      <trkpt lat="38.965237000" lon="23.068827000">
        <ele>0.000</ele>
      </trkpt>
      <trkpt lat="38.963923000" lon="23.069740000">
        <ele>0.000</ele>
      </trkpt>
      <trkpt lat="38.963030000" lon="23.071013000">
        <ele>0.000</ele>
      </trkpt>
      <trkpt lat="38.960747000" lon="23.073548000">
        <ele>0.000</ele>
      </trkpt>
      <trkpt lat="38.950882000" lon="23.080035000">
        <ele>0.000</ele>
      </trkpt>
      <trkpt lat="38.950765000" lon="23.080375000">
        <ele>0.000</ele>
      </trkpt>
      <trkpt lat="38.950930000" lon="23.080638000">
        <ele>0.000</ele>
      </trkpt>
      <trkpt lat="38.950845000" lon="23.081418000">
        <ele>0.000</ele>
      </trkpt>
      <trkpt lat="38.949842000" lon="23.082118000">
        <ele>0.000</ele>
      </trkpt>
      <trkpt lat="38.949615000" lon="23.082423000">
        <ele>0.000</ele>
      </trkpt>
      <trkpt lat="38.949640000" lon="23.082847000">
        <ele>0.000</ele>
      </trkpt>
      <trkpt lat="38.950037000" lon="23.083302000">
        <ele>0.000</ele>
      </trkpt>
      <trkpt lat="38.947940000" lon="23.084227000">
        <ele>0.000</ele>
      </trkpt>
      <trkpt lat="38.947003000" lon="23.083905000">
        <ele>0.000</ele>
      </trkpt>
      <trkpt lat="38.946978000" lon="23.083627000">
        <ele>0.000</ele>
      </trkpt>
      <trkpt lat="38.947145000" lon="23.083487000">
        <ele>0.000</ele>
      </trkpt>
      <trkpt lat="38.947345000" lon="23.084875000">
        <ele>0.000</ele>
      </trkpt>
      <trkpt lat="38.948640000" lon="23.086847000">
        <ele>0.000</ele>
      </trkpt>
      <trkpt lat="38.948988000" lon="23.086880000">
        <ele>0.000</ele>
      </trkpt>
      <trkpt lat="38.948838000" lon="23.086863000">
        <ele>0.000</ele>
      </trkpt>
      <trkpt lat="38.949198000" lon="23.086797000">
        <ele>0.000</ele>
      </trkpt>
    </trkseg>
  </trk>
  <trk>
    <name><![CDATA[2022-04-29]]></name>
    <desc><![CDATA[Statistics computed from imported data
			
			Friday, April 29, 2022 12:03 PM EEST
			Distance: 24.3 miles
			Duration: 5 hours, 26 minutes, and 11 seconds
			Average Speed: 4.5 mph
			https://cocody81.blogspot.com/2023/10/test.html]]></desc>
    <extensions xmlns:gpxx="http://www.garmin.com/xmlschemas/GpxExtensions/v3">
      <gpxx:TrackExtension>
        <gpxx:DisplayColor>Red</gpxx:DisplayColor>
      </gpxx:TrackExtension>
    </extensions>
    <trkseg>
      <trkpt lat="38.949235000" lon="23.086747000">
        <ele>0.000</ele>
      </trkpt>
      <trkpt lat="38.948755000" lon="23.086667000">
        <ele>0.000</ele>
      </trkpt>
      <trkpt lat="38.947968000" lon="23.085603000">
        <ele>0.000</ele>
      </trkpt>
      <trkpt lat="38.947755000" lon="23.084957000">
        <ele>0.000</ele>
      </trkpt>
      <trkpt lat="38.947710000" lon="23.075028000">
        <ele>0.000</ele>
      </trkpt>
      <trkpt lat="38.947975000" lon="23.074437000">
        <ele>0.000</ele>
      </trkpt>
      <trkpt lat="38.948728000" lon="23.073752000">
        <ele>0.000</ele>
      </trkpt>
      <trkpt lat="38.949925000" lon="23.075468000">
        <ele>0.000</ele>
      </trkpt>
      <trkpt lat="38.950175000" lon="23.075435000">
        <ele>0.000</ele>
      </trkpt>
      <trkpt lat="38.949755000" lon="23.072545000">
        <ele>0.000</ele>
      </trkpt>
      <trkpt lat="38.949832000" lon="23.070602000">
        <ele>0.000</ele>
      </trkpt>
      <trkpt lat="38.949482000" lon="23.066355000">
        <ele>0.000</ele>
      </trkpt>
      <trkpt lat="38.948982000" lon="23.063518000">
        <ele>0.000</ele>
      </trkpt>
      <trkpt lat="38.941855000" lon="23.033482000">
        <ele>0.000</ele>
      </trkpt>
      <trkpt lat="38.939223000" lon="23.023782000">
        <ele>0.000</ele>
      </trkpt>
      <trkpt lat="38.935757000" lon="23.014022000">
        <ele>0.000</ele>
      </trkpt>
      <trkpt lat="38.931858000" lon="23.003973000">
        <ele>0.000</ele>
      </trkpt>
      <trkpt lat="38.925155000" lon="22.985175000">
        <ele>0.000</ele>
      </trkpt>
      <trkpt lat="38.916435000" lon="22.959208000">
        <ele>0.000</ele>
      </trkpt>
      <trkpt lat="38.909397000" lon="22.940350000">
        <ele>0.000</ele>
      </trkpt>
      <trkpt lat="38.905765000" lon="22.929065000">
        <ele>0.000</ele>
      </trkpt>
      <trkpt lat="38.903165000" lon="22.916133000">
        <ele>0.000</ele>
      </trkpt>
      <trkpt lat="38.900960000" lon="22.906872000">
        <ele>0.000</ele>
      </trkpt>
      <trkpt lat="38.899207000" lon="22.897202000">
        <ele>0.000</ele>
      </trkpt>
      <trkpt lat="38.897728000" lon="22.885802000">
        <ele>0.000</ele>
      </trkpt>
      <trkpt lat="38.891777000" lon="22.871302000">
        <ele>0.000</ele>
      </trkpt>
      <trkpt lat="38.887972000" lon="22.865343000">
        <ele>0.000</ele>
      </trkpt>
      <trkpt lat="38.879257000" lon="22.848760000">
        <ele>0.000</ele>
      </trkpt>
      <trkpt lat="38.875658000" lon="22.842995000">
        <ele>0.000</ele>
      </trkpt>
      <trkpt lat="38.870078000" lon="22.836490000">
        <ele>0.000</ele>
      </trkpt>
      <trkpt lat="38.868517000" lon="22.835287000">
        <ele>0.000</ele>
      </trkpt>
      <trkpt lat="38.866050000" lon="22.833743000">
        <ele>0.000</ele>
      </trkpt>
      <trkpt lat="38.862795000" lon="22.832125000">
        <ele>0.000</ele>
      </trkpt>
      <trkpt lat="38.851038000" lon="22.827448000">
        <ele>0.000</ele>
      </trkpt>
      <trkpt lat="38.848492000" lon="22.827162000">
        <ele>0.000</ele>
      </trkpt>
      <trkpt lat="38.840608000" lon="22.827412000">
        <ele>0.000</ele>
      </trkpt>
      <trkpt lat="38.824198000" lon="22.826992000">
        <ele>0.000</ele>
      </trkpt>
      <trkpt lat="38.823738000" lon="22.827447000">
        <ele>0.000</ele>
      </trkpt>
      <trkpt lat="38.821092000" lon="22.836898000">
        <ele>0.000</ele>
      </trkpt>
      <trkpt lat="38.821210000" lon="22.856785000">
        <ele>0.000</ele>
      </trkpt>
      <trkpt lat="38.821802000" lon="22.879263000">
        <ele>0.000</ele>
      </trkpt>
      <trkpt lat="38.828558000" lon="22.916332000">
        <ele>0.000</ele>
      </trkpt>
      <trkpt lat="38.829955000" lon="22.922478000">
        <ele>0.000</ele>
      </trkpt>
      <trkpt lat="38.830808000" lon="22.925053000">
        <ele>0.000</ele>
      </trkpt>
      <trkpt lat="38.833408000" lon="22.931392000">
        <ele>0.000</ele>
      </trkpt>
      <trkpt lat="38.834137000" lon="22.932388000">
        <ele>0.000</ele>
      </trkpt>
      <trkpt lat="38.835413000" lon="22.933103000">
        <ele>0.000</ele>
      </trkpt>
      <trkpt lat="38.835228000" lon="22.932967000">
        <ele>0.000</ele>
      </trkpt>
    </trkseg>
  </trk>
  <trk>
    <name><![CDATA[2022-04-30]]></name>
    <desc><![CDATA[Statistics computed from imported data
			
			Saturday, April 30, 2022 9:44 AM EEST
			Distance: 16.3 miles
			Duration: 8 hours, 11 minutes, and 8 seconds
			Average Speed: 2.0 mph
			https://cocody81.blogspot.com/2023/10/test.html]]></desc>
    <extensions xmlns:gpxx="http://www.garmin.com/xmlschemas/GpxExtensions/v3">
      <gpxx:TrackExtension>
        <gpxx:DisplayColor>DarkGreen</gpxx:DisplayColor>
      </gpxx:TrackExtension>
    </extensions>
    <trkseg>
      <trkpt lat="38.835317000" lon="22.933170000">
        <ele>0.000</ele>
      </trkpt>
      <trkpt lat="38.835427000" lon="22.933062000">
        <ele>0.000</ele>
      </trkpt>
      <trkpt lat="38.834008000" lon="22.933473000">
        <ele>0.000</ele>
      </trkpt>
      <trkpt lat="38.832265000" lon="22.934670000">
        <ele>0.000</ele>
      </trkpt>
      <trkpt lat="38.831622000" lon="22.935672000">
        <ele>0.000</ele>
      </trkpt>
      <trkpt lat="38.831032000" lon="22.938092000">
        <ele>0.000</ele>
      </trkpt>
      <trkpt lat="38.830863000" lon="22.939550000">
        <ele>0.000</ele>
      </trkpt>
      <trkpt lat="38.830915000" lon="22.942420000">
        <ele>0.000</ele>
      </trkpt>
      <trkpt lat="38.831173000" lon="22.943433000">
        <ele>0.000</ele>
      </trkpt>
      <trkpt lat="38.832170000" lon="22.944965000">
        <ele>0.000</ele>
      </trkpt>
      <trkpt lat="38.832458000" lon="22.948597000">
        <ele>0.000</ele>
      </trkpt>
      <trkpt lat="38.833027000" lon="22.951620000">
        <ele>0.000</ele>
      </trkpt>
      <trkpt lat="38.834153000" lon="22.954437000">
        <ele>0.000</ele>
      </trkpt>
      <trkpt lat="38.834775000" lon="22.955343000">
        <ele>0.000</ele>
      </trkpt>
      <trkpt lat="38.834678000" lon="22.955193000">
        <ele>0.000</ele>
      </trkpt>
      <trkpt lat="38.834862000" lon="22.955487000">
        <ele>0.000</ele>
      </trkpt>
      <trkpt lat="38.833775000" lon="22.955375000">
        <ele>0.000</ele>
      </trkpt>
      <trkpt lat="38.833223000" lon="22.955738000">
        <ele>0.000</ele>
      </trkpt>
      <trkpt lat="38.829233000" lon="22.962818000">
        <ele>0.000</ele>
      </trkpt>
      <trkpt lat="38.820885000" lon="22.973480000">
        <ele>0.000</ele>
      </trkpt>
      <trkpt lat="38.820162000" lon="22.973900000">
        <ele>0.000</ele>
      </trkpt>
      <trkpt lat="38.819382000" lon="22.975022000">
        <ele>0.000</ele>
      </trkpt>
      <trkpt lat="38.799192000" lon="23.036037000">
        <ele>0.000</ele>
      </trkpt>
      <trkpt lat="38.795700000" lon="23.045565000">
        <ele>0.000</ele>
      </trkpt>
      <trkpt lat="38.792772000" lon="23.051690000">
        <ele>0.000</ele>
      </trkpt>
      <trkpt lat="38.790800000" lon="23.056610000">
        <ele>0.000</ele>
      </trkpt>
      <trkpt lat="38.790393000" lon="23.058497000">
        <ele>0.000</ele>
      </trkpt>
      <trkpt lat="38.790165000" lon="23.063407000">
        <ele>0.000</ele>
      </trkpt>
      <trkpt lat="38.787082000" lon="23.062807000">
        <ele>0.000</ele>
      </trkpt>
      <trkpt lat="38.780278000" lon="23.063388000">
        <ele>0.000</ele>
      </trkpt>
      <trkpt lat="38.778157000" lon="23.063155000">
        <ele>0.000</ele>
      </trkpt>
      <trkpt lat="38.776067000" lon="23.063323000">
        <ele>0.000</ele>
      </trkpt>
      <trkpt lat="38.761880000" lon="23.066653000">
        <ele>0.000</ele>
      </trkpt>
      <trkpt lat="38.749192000" lon="23.071158000">
        <ele>0.000</ele>
      </trkpt>
      <trkpt lat="38.739498000" lon="23.074987000">
        <ele>0.000</ele>
      </trkpt>
      <trkpt lat="38.734158000" lon="23.076563000">
        <ele>0.000</ele>
      </trkpt>
      <trkpt lat="38.730848000" lon="23.077102000">
        <ele>0.000</ele>
      </trkpt>
      <trkpt lat="38.727565000" lon="23.076993000">
        <ele>0.000</ele>
      </trkpt>
      <trkpt lat="38.723412000" lon="23.077510000">
        <ele>0.000</ele>
      </trkpt>
      <trkpt lat="38.715413000" lon="23.079755000">
        <ele>0.000</ele>
      </trkpt>
      <trkpt lat="38.710717000" lon="23.080605000">
        <ele>0.000</ele>
      </trkpt>
      <trkpt lat="38.699550000" lon="23.081143000">
        <ele>0.000</ele>
      </trkpt>
      <trkpt lat="38.696438000" lon="23.080987000">
        <ele>0.000</ele>
      </trkpt>
      <trkpt lat="38.695183000" lon="23.081303000">
        <ele>0.000</ele>
      </trkpt>
      <trkpt lat="38.691293000" lon="23.083103000">
        <ele>0.000</ele>
      </trkpt>
      <trkpt lat="38.689118000" lon="23.083873000">
        <ele>0.000</ele>
      </trkpt>
      <trkpt lat="38.685665000" lon="23.084550000">
        <ele>0.000</ele>
      </trkpt>
      <trkpt lat="38.685583000" lon="23.085450000">
        <ele>0.000</ele>
      </trkpt>
      <trkpt lat="38.684643000" lon="23.085532000">
        <ele>0.000</ele>
      </trkpt>
      <trkpt lat="38.682835000" lon="23.086537000">
        <ele>0.000</ele>
      </trkpt>
      <trkpt lat="38.681923000" lon="23.087852000">
        <ele>0.000</ele>
      </trkpt>
      <trkpt lat="38.679305000" lon="23.088588000">
        <ele>0.000</ele>
      </trkpt>
      <trkpt lat="38.678117000" lon="23.090012000">
        <ele>0.000</ele>
      </trkpt>
      <trkpt lat="38.677680000" lon="23.090083000">
        <ele>0.000</ele>
      </trkpt>
      <trkpt lat="38.677917000" lon="23.090105000">
        <ele>0.000</ele>
      </trkpt>
      <trkpt lat="38.677795000" lon="23.089912000">
        <ele>0.000</ele>
      </trkpt>
    </trkseg>
  </trk>
  <trk>
    <name><![CDATA[2022-05-01]]></name>
    <desc><![CDATA[Statistics computed from imported data
			
			Sunday, May 1, 2022 12:43 PM EEST
			Distance: 35.3 miles
			Duration: 6 hours, 30 minutes, and 26 seconds
			Average Speed: 5.4 mph
			https://cocody81.blogspot.com/2023/10/test.html]]></desc>
    <extensions xmlns:gpxx="http://www.garmin.com/xmlschemas/GpxExtensions/v3">
      <gpxx:TrackExtension>
        <gpxx:DisplayColor>DarkRed</gpxx:DisplayColor>
      </gpxx:TrackExtension>
    </extensions>
    <trkseg>
      <trkpt lat="38.672265000" lon="23.087832000">
        <ele>0.000</ele>
      </trkpt>
      <trkpt lat="38.672043000" lon="23.088128000">
        <ele>0.000</ele>
      </trkpt>
      <trkpt lat="38.671893000" lon="23.088053000">
        <ele>0.000</ele>
      </trkpt>
      <trkpt lat="38.672520000" lon="23.086572000">
        <ele>0.000</ele>
      </trkpt>
      <trkpt lat="38.673365000" lon="23.085855000">
        <ele>0.000</ele>
      </trkpt>
      <trkpt lat="38.674057000" lon="23.085603000">
        <ele>0.000</ele>
      </trkpt>
      <trkpt lat="38.676228000" lon="23.085525000">
        <ele>0.000</ele>
      </trkpt>
      <trkpt lat="38.678260000" lon="23.085822000">
        <ele>0.000</ele>
      </trkpt>
      <trkpt lat="38.683995000" lon="23.087632000">
        <ele>0.000</ele>
      </trkpt>
      <trkpt lat="38.686282000" lon="23.088740000">
        <ele>0.000</ele>
      </trkpt>
      <trkpt lat="38.689957000" lon="23.089542000">
        <ele>0.000</ele>
      </trkpt>
      <trkpt lat="38.691722000" lon="23.090203000">
        <ele>0.000</ele>
      </trkpt>
      <trkpt lat="38.693035000" lon="23.091413000">
        <ele>0.000</ele>
      </trkpt>
      <trkpt lat="38.693663000" lon="23.091268000">
        <ele>0.000</ele>
      </trkpt>
      <trkpt lat="38.693927000" lon="23.091590000">
        <ele>0.000</ele>
      </trkpt>
      <trkpt lat="38.694970000" lon="23.104927000">
        <ele>0.000</ele>
      </trkpt>
      <trkpt lat="38.696550000" lon="23.133780000">
        <ele>0.000</ele>
      </trkpt>
      <trkpt lat="38.696460000" lon="23.146617000">
        <ele>0.000</ele>
      </trkpt>
      <trkpt lat="38.695948000" lon="23.161468000">
        <ele>0.000</ele>
      </trkpt>
      <trkpt lat="38.694810000" lon="23.176885000">
        <ele>0.000</ele>
      </trkpt>
      <trkpt lat="38.693513000" lon="23.203985000">
        <ele>0.000</ele>
      </trkpt>
      <trkpt lat="38.691117000" lon="23.214152000">
        <ele>0.000</ele>
      </trkpt>
      <trkpt lat="38.690345000" lon="23.218618000">
        <ele>0.000</ele>
      </trkpt>
      <trkpt lat="38.688898000" lon="23.224558000">
        <ele>0.000</ele>
      </trkpt>
      <trkpt lat="38.688397000" lon="23.227862000">
        <ele>0.000</ele>
      </trkpt>
      <trkpt lat="38.687333000" lon="23.231795000">
        <ele>0.000</ele>
      </trkpt>
      <trkpt lat="38.686753000" lon="23.234678000">
        <ele>0.000</ele>
      </trkpt>
      <trkpt lat="38.686188000" lon="23.240395000">
        <ele>0.000</ele>
      </trkpt>
      <trkpt lat="38.686225000" lon="23.243795000">
        <ele>0.000</ele>
      </trkpt>
      <trkpt lat="38.685465000" lon="23.248017000">
        <ele>0.000</ele>
      </trkpt>
      <trkpt lat="38.683273000" lon="23.257585000">
        <ele>0.000</ele>
      </trkpt>
      <trkpt lat="38.682078000" lon="23.261415000">
        <ele>0.000</ele>
      </trkpt>
      <trkpt lat="38.681187000" lon="23.266037000">
        <ele>0.000</ele>
      </trkpt>
      <trkpt lat="38.679570000" lon="23.272262000">
        <ele>0.000</ele>
      </trkpt>
      <trkpt lat="38.677995000" lon="23.275767000">
        <ele>0.000</ele>
      </trkpt>
      <trkpt lat="38.676765000" lon="23.280093000">
        <ele>0.000</ele>
      </trkpt>
      <trkpt lat="38.674663000" lon="23.286173000">
        <ele>0.000</ele>
      </trkpt>
      <trkpt lat="38.673808000" lon="23.289307000">
        <ele>0.000</ele>
      </trkpt>
      <trkpt lat="38.673070000" lon="23.290840000">
        <ele>0.000</ele>
      </trkpt>
      <trkpt lat="38.670423000" lon="23.298568000">
        <ele>0.000</ele>
      </trkpt>
      <trkpt lat="38.669940000" lon="23.300968000">
        <ele>0.000</ele>
      </trkpt>
      <trkpt lat="38.667217000" lon="23.308435000">
        <ele>0.000</ele>
      </trkpt>
      <trkpt lat="38.665270000" lon="23.311967000">
        <ele>0.000</ele>
      </trkpt>
      <trkpt lat="38.664230000" lon="23.314657000">
        <ele>0.000</ele>
      </trkpt>
      <trkpt lat="38.661050000" lon="23.320982000">
        <ele>0.000</ele>
      </trkpt>
      <trkpt lat="38.657882000" lon="23.328043000">
        <ele>0.000</ele>
      </trkpt>
      <trkpt lat="38.655567000" lon="23.331878000">
        <ele>0.000</ele>
      </trkpt>
      <trkpt lat="38.651145000" lon="23.337745000">
        <ele>0.000</ele>
      </trkpt>
      <trkpt lat="38.648353000" lon="23.342907000">
        <ele>0.000</ele>
      </trkpt>
      <trkpt lat="38.646463000" lon="23.344822000">
        <ele>0.000</ele>
      </trkpt>
      <trkpt lat="38.645167000" lon="23.346410000">
        <ele>0.000</ele>
      </trkpt>
      <trkpt lat="38.642890000" lon="23.350465000">
        <ele>0.000</ele>
      </trkpt>
      <trkpt lat="38.640895000" lon="23.353053000">
        <ele>0.000</ele>
      </trkpt>
      <trkpt lat="38.636012000" lon="23.361627000">
        <ele>0.000</ele>
      </trkpt>
      <trkpt lat="38.633460000" lon="23.366935000">
        <ele>0.000</ele>
      </trkpt>
      <trkpt lat="38.631492000" lon="23.370275000">
        <ele>0.000</ele>
      </trkpt>
      <trkpt lat="38.629840000" lon="23.374207000">
        <ele>0.000</ele>
      </trkpt>
      <trkpt lat="38.629055000" lon="23.376873000">
        <ele>0.000</ele>
      </trkpt>
      <trkpt lat="38.627580000" lon="23.379858000">
        <ele>0.000</ele>
      </trkpt>
      <trkpt lat="38.626278000" lon="23.383295000">
        <ele>0.000</ele>
      </trkpt>
      <trkpt lat="38.624385000" lon="23.387282000">
        <ele>0.000</ele>
      </trkpt>
      <trkpt lat="38.606060000" lon="23.420460000">
        <ele>0.000</ele>
      </trkpt>
      <trkpt lat="38.593752000" lon="23.439085000">
        <ele>0.000</ele>
      </trkpt>
      <trkpt lat="38.578533000" lon="23.460502000">
        <ele>0.000</ele>
      </trkpt>
      <trkpt lat="38.576213000" lon="23.464402000">
        <ele>0.000</ele>
      </trkpt>
      <trkpt lat="38.576320000" lon="23.465208000">
        <ele>0.000</ele>
      </trkpt>
      <trkpt lat="38.574985000" lon="23.467705000">
        <ele>0.000</ele>
      </trkpt>
      <trkpt lat="38.570248000" lon="23.474348000">
        <ele>0.000</ele>
      </trkpt>
      <trkpt lat="38.563748000" lon="23.484897000">
        <ele>0.000</ele>
      </trkpt>
      <trkpt lat="38.557978000" lon="23.493452000">
        <ele>0.000</ele>
      </trkpt>
      <trkpt lat="38.554792000" lon="23.500643000">
        <ele>0.000</ele>
      </trkpt>
      <trkpt lat="38.549367000" lon="23.509850000">
        <ele>0.000</ele>
      </trkpt>
      <trkpt lat="38.547567000" lon="23.513373000">
        <ele>0.000</ele>
      </trkpt>
      <trkpt lat="38.547522000" lon="23.514045000">
        <ele>0.000</ele>
      </trkpt>
      <trkpt lat="38.548645000" lon="23.516167000">
        <ele>0.000</ele>
      </trkpt>
      <trkpt lat="38.548332000" lon="23.517273000">
        <ele>0.000</ele>
      </trkpt>
      <trkpt lat="38.544748000" lon="23.522718000">
        <ele>0.000</ele>
      </trkpt>
      <trkpt lat="38.535307000" lon="23.535468000">
        <ele>0.000</ele>
      </trkpt>
      <trkpt lat="38.521322000" lon="23.556547000">
        <ele>0.000</ele>
      </trkpt>
      <trkpt lat="38.507972000" lon="23.574397000">
        <ele>0.000</ele>
      </trkpt>
      <trkpt lat="38.501968000" lon="23.580895000">
        <ele>0.000</ele>
      </trkpt>
      <trkpt lat="38.500460000" lon="23.582252000">
        <ele>0.000</ele>
      </trkpt>
      <trkpt lat="38.494703000" lon="23.586312000">
        <ele>0.000</ele>
      </trkpt>
      <trkpt lat="38.489313000" lon="23.589552000">
        <ele>0.000</ele>
      </trkpt>
      <trkpt lat="38.484202000" lon="23.591948000">
        <ele>0.000</ele>
      </trkpt>
      <trkpt lat="38.480178000" lon="23.593435000">
        <ele>0.000</ele>
      </trkpt>
      <trkpt lat="38.477917000" lon="23.593890000">
        <ele>0.000</ele>
      </trkpt>
      <trkpt lat="38.476822000" lon="23.595335000">
        <ele>0.000</ele>
      </trkpt>
      <trkpt lat="38.476310000" lon="23.595610000">
        <ele>0.000</ele>
      </trkpt>
      <trkpt lat="38.474222000" lon="23.594968000">
        <ele>0.000</ele>
      </trkpt>
      <trkpt lat="38.468883000" lon="23.592415000">
        <ele>0.000</ele>
      </trkpt>
      <trkpt lat="38.465850000" lon="23.591640000">
        <ele>0.000</ele>
      </trkpt>
      <trkpt lat="38.465527000" lon="23.591747000">
        <ele>0.000</ele>
      </trkpt>
      <trkpt lat="38.465383000" lon="23.592117000">
        <ele>0.000</ele>
      </trkpt>
      <trkpt lat="38.465738000" lon="23.592730000">
        <ele>0.000</ele>
      </trkpt>
    </trkseg>
  </trk>
  <trk>
    <name><![CDATA[2022-05-02]]></name>
    <desc><![CDATA[Statistics computed from imported data
			
			Monday, May 2, 2022 8:07 PM EEST
			Distance: 0.7 miles
			Duration: 2 hours, 38 minutes, and 39 seconds
			Average Speed: 0.3 mph
			https://cocody81.blogspot.com/2023/10/test.html]]></desc>
    <extensions xmlns:gpxx="http://www.garmin.com/xmlschemas/GpxExtensions/v3">
      <gpxx:TrackExtension>
        <gpxx:DisplayColor>Black</gpxx:DisplayColor>
      </gpxx:TrackExtension>
    </extensions>
    <trkseg>
      <trkpt lat="38.465855000" lon="23.592797000">
        <ele>0.000</ele>
      </trkpt>
      <trkpt lat="38.464988000" lon="23.591343000">
        <ele>0.000</ele>
      </trkpt>
      <trkpt lat="38.463923000" lon="23.590095000">
        <ele>0.000</ele>
      </trkpt>
      <trkpt lat="38.462482000" lon="23.589192000">
        <ele>0.000</ele>
      </trkpt>
      <trkpt lat="38.461720000" lon="23.588452000">
        <ele>0.000</ele>
      </trkpt>
      <trkpt lat="38.461360000" lon="23.587488000">
        <ele>0.000</ele>
      </trkpt>
      <trkpt lat="38.461427000" lon="23.585752000">
        <ele>0.000</ele>
      </trkpt>
      <trkpt lat="38.461897000" lon="23.584885000">
        <ele>0.000</ele>
      </trkpt>
      <trkpt lat="38.461533000" lon="23.584992000">
        <ele>0.000</ele>
      </trkpt>
      <trkpt lat="38.461435000" lon="23.584838000">
        <ele>0.000</ele>
      </trkpt>
      <trkpt lat="38.461617000" lon="23.584750000">
        <ele>0.000</ele>
      </trkpt>
      <trkpt lat="38.461485000" lon="23.584900000">
        <ele>0.000</ele>
      </trkpt>
      <trkpt lat="38.461807000" lon="23.584647000">
        <ele>0.000</ele>
      </trkpt>
      <trkpt lat="38.461750000" lon="23.584842000">
        <ele>0.000</ele>
      </trkpt>
    </trkseg>
  </trk>
  <trk>
    <name><![CDATA[2022-05-03]]></name>
    <desc><![CDATA[Statistics computed from imported data
			
			Tuesday, May 3, 2022 11:20 AM EEST
			Distance: 15.6 miles
			Duration: 3 hours, 24 minutes, and 51 seconds
			Average Speed: 4.6 mph
			https://cocody81.blogspot.com/2023/10/test.html]]></desc>
    <extensions xmlns:gpxx="http://www.garmin.com/xmlschemas/GpxExtensions/v3">
      <gpxx:TrackExtension>
        <gpxx:DisplayColor>DarkMagenta</gpxx:DisplayColor>
      </gpxx:TrackExtension>
    </extensions>
    <trkseg>
      <trkpt lat="38.461787000" lon="23.584843000">
        <ele>0.000</ele>
      </trkpt>
      <trkpt lat="38.461328000" lon="23.584583000">
        <ele>0.000</ele>
      </trkpt>
      <trkpt lat="38.456273000" lon="23.584202000">
        <ele>0.000</ele>
      </trkpt>
      <trkpt lat="38.451033000" lon="23.583468000">
        <ele>0.000</ele>
      </trkpt>
      <trkpt lat="38.450335000" lon="23.583733000">
        <ele>0.000</ele>
      </trkpt>
      <trkpt lat="38.449282000" lon="23.584510000">
        <ele>0.000</ele>
      </trkpt>
      <trkpt lat="38.446727000" lon="23.587458000">
        <ele>0.000</ele>
      </trkpt>
      <trkpt lat="38.445740000" lon="23.589030000">
        <ele>0.000</ele>
      </trkpt>
      <trkpt lat="38.444592000" lon="23.591682000">
        <ele>0.000</ele>
      </trkpt>
      <trkpt lat="38.443347000" lon="23.597370000">
        <ele>0.000</ele>
      </trkpt>
      <trkpt lat="38.442435000" lon="23.600037000">
        <ele>0.000</ele>
      </trkpt>
      <trkpt lat="38.441888000" lon="23.601073000">
        <ele>0.000</ele>
      </trkpt>
      <trkpt lat="38.436317000" lon="23.607050000">
        <ele>0.000</ele>
      </trkpt>
      <trkpt lat="38.433927000" lon="23.609255000">
        <ele>0.000</ele>
      </trkpt>
      <trkpt lat="38.430188000" lon="23.612058000">
        <ele>0.000</ele>
      </trkpt>
      <trkpt lat="38.425170000" lon="23.617240000">
        <ele>0.000</ele>
      </trkpt>
      <trkpt lat="38.422285000" lon="23.621210000">
        <ele>0.000</ele>
      </trkpt>
      <trkpt lat="38.415173000" lon="23.632043000">
        <ele>0.000</ele>
      </trkpt>
      <trkpt lat="38.413150000" lon="23.634325000">
        <ele>0.000</ele>
      </trkpt>
      <trkpt lat="38.412598000" lon="23.634753000">
        <ele>0.000</ele>
      </trkpt>
      <trkpt lat="38.409032000" lon="23.635577000">
        <ele>0.000</ele>
      </trkpt>
      <trkpt lat="38.406140000" lon="23.635680000">
        <ele>0.000</ele>
      </trkpt>
      <trkpt lat="38.405138000" lon="23.635902000">
        <ele>0.000</ele>
      </trkpt>
      <trkpt lat="38.399462000" lon="23.640115000">
        <ele>0.000</ele>
      </trkpt>
      <trkpt lat="38.395712000" lon="23.645788000">
        <ele>0.000</ele>
      </trkpt>
      <trkpt lat="38.390590000" lon="23.665360000">
        <ele>0.000</ele>
      </trkpt>
      <trkpt lat="38.388080000" lon="23.678078000">
        <ele>0.000</ele>
      </trkpt>
      <trkpt lat="38.377240000" lon="23.727220000">
        <ele>0.000</ele>
      </trkpt>
      <trkpt lat="38.375060000" lon="23.735168000">
        <ele>0.000</ele>
      </trkpt>
      <trkpt lat="38.375608000" lon="23.736680000">
        <ele>0.000</ele>
      </trkpt>
      <trkpt lat="38.375830000" lon="23.738192000">
        <ele>0.000</ele>
      </trkpt>
      <trkpt lat="38.375305000" lon="23.740120000">
        <ele>0.000</ele>
      </trkpt>
      <trkpt lat="38.373123000" lon="23.742588000">
        <ele>0.000</ele>
      </trkpt>
      <trkpt lat="38.371263000" lon="23.744220000">
        <ele>0.000</ele>
      </trkpt>
      <trkpt lat="38.370792000" lon="23.745945000">
        <ele>0.000</ele>
      </trkpt>
      <trkpt lat="38.370158000" lon="23.746823000">
        <ele>0.000</ele>
      </trkpt>
      <trkpt lat="38.368613000" lon="23.747882000">
        <ele>0.000</ele>
      </trkpt>
      <trkpt lat="38.366392000" lon="23.749818000">
        <ele>0.000</ele>
      </trkpt>
      <trkpt lat="38.367190000" lon="23.751158000">
        <ele>0.000</ele>
      </trkpt>
      <trkpt lat="38.367967000" lon="23.753380000">
        <ele>0.000</ele>
      </trkpt>
      <trkpt lat="38.369013000" lon="23.758643000">
        <ele>0.000</ele>
      </trkpt>
      <trkpt lat="38.371072000" lon="23.765818000">
        <ele>0.000</ele>
      </trkpt>
      <trkpt lat="38.372250000" lon="23.769188000">
        <ele>0.000</ele>
      </trkpt>
      <trkpt lat="38.374908000" lon="23.778592000">
        <ele>0.000</ele>
      </trkpt>
      <trkpt lat="38.375845000" lon="23.780540000">
        <ele>0.000</ele>
      </trkpt>
      <trkpt lat="38.375862000" lon="23.780807000">
        <ele>0.000</ele>
      </trkpt>
      <trkpt lat="38.375420000" lon="23.781300000">
        <ele>0.000</ele>
      </trkpt>
      <trkpt lat="38.377942000" lon="23.785545000">
        <ele>0.000</ele>
      </trkpt>
      <trkpt lat="38.380120000" lon="23.789817000">
        <ele>0.000</ele>
      </trkpt>
      <trkpt lat="38.384043000" lon="23.796220000">
        <ele>0.000</ele>
      </trkpt>
      <trkpt lat="38.384937000" lon="23.797338000">
        <ele>0.000</ele>
      </trkpt>
      <trkpt lat="38.385803000" lon="23.797932000">
        <ele>0.000</ele>
      </trkpt>
      <trkpt lat="38.387510000" lon="23.798302000">
        <ele>0.000</ele>
      </trkpt>
      <trkpt lat="38.387512000" lon="23.798773000">
        <ele>0.000</ele>
      </trkpt>
      <trkpt lat="38.387748000" lon="23.798018000">
        <ele>0.000</ele>
      </trkpt>
      <trkpt lat="38.387555000" lon="23.798420000">
        <ele>0.000</ele>
      </trkpt>
      <trkpt lat="38.387672000" lon="23.798885000">
        <ele>0.000</ele>
      </trkpt>
      <trkpt lat="38.387918000" lon="23.799043000">
        <ele>0.000</ele>
      </trkpt>
      <trkpt lat="38.388392000" lon="23.798572000">
        <ele>0.000</ele>
      </trkpt>
      <trkpt lat="38.388443000" lon="23.797968000">
        <ele>0.000</ele>
      </trkpt>
      <trkpt lat="38.388642000" lon="23.797910000">
        <ele>0.000</ele>
      </trkpt>
      <trkpt lat="38.388637000" lon="23.798287000">
        <ele>0.000</ele>
      </trkpt>
      <trkpt lat="38.388705000" lon="23.798137000">
        <ele>0.000</ele>
      </trkpt>
    </trkseg>
  </trk>
  <trk>
    <name><![CDATA[2022-05-06]]></name>
    <desc><![CDATA[Statistics computed from imported data
			
			Thursday, May 5, 2022 6:45 AM EEST
			Distance: 5.4 miles
			Duration: 25 hours, 43 minutes, and 21 seconds
			Average Speed: 0.2 mph
			https://cocody81.blogspot.com/2023/10/test.html]]></desc>
    <extensions xmlns:gpxx="http://www.garmin.com/xmlschemas/GpxExtensions/v3">
      <gpxx:TrackExtension>
        <gpxx:DisplayColor>Magenta</gpxx:DisplayColor>
      </gpxx:TrackExtension>
    </extensions>
    <trkseg>
      <trkpt lat="38.388648000" lon="23.798440000">
        <ele>0.000</ele>
      </trkpt>
      <trkpt lat="38.384528000" lon="23.795723000">
        <ele>0.000</ele>
      </trkpt>
      <trkpt lat="38.380687000" lon="23.792452000">
        <ele>0.000</ele>
      </trkpt>
      <trkpt lat="38.373603000" lon="23.778058000">
        <ele>0.000</ele>
      </trkpt>
      <trkpt lat="38.366252000" lon="23.763965000">
        <ele>0.000</ele>
      </trkpt>
      <trkpt lat="38.357870000" lon="23.748710000">
        <ele>0.000</ele>
      </trkpt>
      <trkpt lat="38.353907000" lon="23.742170000">
        <ele>0.000</ele>
      </trkpt>
      <trkpt lat="38.344118000" lon="23.727293000">
        <ele>0.000</ele>
      </trkpt>
      <trkpt lat="38.343297000" lon="23.726368000">
        <ele>0.000</ele>
      </trkpt>
      <trkpt lat="38.340370000" lon="23.724300000">
        <ele>0.000</ele>
      </trkpt>
      <trkpt lat="38.339458000" lon="23.724920000">
        <ele>0.000</ele>
      </trkpt>
      <trkpt lat="38.339232000" lon="23.725217000">
        <ele>0.000</ele>
      </trkpt>
      <trkpt lat="38.339362000" lon="23.725492000">
        <ele>0.000</ele>
      </trkpt>
      <trkpt lat="38.339092000" lon="23.725972000">
        <ele>0.000</ele>
      </trkpt>
      <trkpt lat="38.339213000" lon="23.726072000">
        <ele>0.000</ele>
      </trkpt>
    </trkseg>
  </trk>
</gpx>
		