<?xml version="1.0" encoding="UTF-8"?>
<gpx version="1.1" creator="OpenCPN" schemaLocation="http://www.topografix.com/GPX/1/1 http://www.topografix.com/GPX/1/1/gpx.xsd http://www.garmin.com/xmlschemas/GpxExtensions/v3 http://www8.garmin.com/xmlschemas/GpxExtensionsv3.xsd" xmlns="http://www.topografix.com/GPX/1/1" xmlns:xsi="http://www.w3.org/2001/XMLSchema-instance" xsi:schemaLocation="http://www.topografix.com/GPX/1/1 http://www.topografix.com/GPX/1/1/gpx.xsd http://www.garmin.com/xmlschemas/GpxExtensions/v3 http://www.garmin.com/xmlschemas/GpxExtensionsv3.xsd http://www.garmin.com/xmlschemas/TrackPointExtension/v1 http://www.garmin.com/xmlschemas/TrackPointExtensionv1.xsd http://www.garmin.com/xmlschemas/PowerExtension/v1 http://www.garmin.com/xmlschemas/PowerExtensionv1.xsd http://www.topografix.com/GPX/gpx_style/0/2 http://www.topografix.com/GPX/gpx_style/0/2/gpx_style.xsd" xmlns:gpxtpx="http://www.garmin.com/xmlschemas/TrackPointExtension/v1" xmlns:gpxx="http://www.garmin.com/xmlschemas/GpxExtensions/v3" xmlns:gpxpx="http://www.garmin.com/xmlschemas/PowerExtension/v1" xmlns:gpx_style="http://www.topografix.com/GPX/gpx_style/0/2">
  <metadata>
    <name>2023</name>
    <author>
      <name>gpx.studio</name>
      <link href="https://gpx.studio"/>
    </author>
  </metadata>

  <trk>
    <name>2023-08-06</name>
    <trkseg>
      <trkpt lat="43.4029" lon="4.9841">
        <time>2023-08-06T10:04:47.000Z</time>
      </trkpt>
      <trkpt lat="43.402335167" lon="4.9834195">
        <time>2023-08-06T10:27:03.000Z</time>
      </trkpt>
      <trkpt lat="43.402372167" lon="4.983393">
        <time>2023-08-06T10:42:51.000Z</time>
      </trkpt>
    </trkseg>
  </trk>
  <trk>
    <name>2023-08-11</name>
    <trkseg>
      <trkpt lat="43.4024" lon="4.9834">
        <time>2023-08-11T16:36:28.000Z</time>
      </trkpt>
      <trkpt lat="43.402414333" lon="4.9833665">
        <time>2023-08-11T16:57:41.000Z</time>
      </trkpt>
    </trkseg>
  </trk>
  <trk>
    <name>2023-08-12</name>
    <trkseg>
      <trkpt lat="43.402473833" lon="4.9834065">
        <time>2023-08-12T12:07:53.000Z</time>
      </trkpt>
      <trkpt lat="43.402378333" lon="4.983949333">
        <time>2023-08-12T12:12:46.000Z</time>
      </trkpt>
      <trkpt lat="43.400259333" lon="4.985088">
        <time>2023-08-12T12:14:47.000Z</time>
      </trkpt>
      <trkpt lat="43.3967165" lon="4.9855365">
        <time>2023-08-12T12:17:30.000Z</time>
      </trkpt>
      <trkpt lat="43.3957085" lon="4.984971667">
        <time>2023-08-12T12:18:19.000Z</time>
      </trkpt>
      <trkpt lat="43.3935585" lon="4.981889333">
        <time>2023-08-12T12:20:39.000Z</time>
      </trkpt>
      <trkpt lat="43.387410667" lon="4.9831205">
        <time>2023-08-12T12:25:27.000Z</time>
      </trkpt>
      <trkpt lat="43.381602167" lon="4.985920667">
        <time>2023-08-12T12:29:38.000Z</time>
      </trkpt>
      <trkpt lat="43.375698333" lon="4.9897855">
        <time>2023-08-12T12:33:43.000Z</time>
      </trkpt>
      <trkpt lat="43.369294167" lon="4.991717">
        <time>2023-08-12T12:37:50.000Z</time>
      </trkpt>
      <trkpt lat="43.366367167" lon="4.9933015">
        <time>2023-08-12T12:39:46.000Z</time>
      </trkpt>
      <trkpt lat="43.330927833" lon="5.013834833">
        <time>2023-08-12T13:04:13.000Z</time>
      </trkpt>
      <trkpt lat="43.322652" lon="5.016841667">
        <time>2023-08-12T13:11:57.000Z</time>
      </trkpt>
      <trkpt lat="43.306733333" lon="5.0292645">
        <time>2023-08-12T13:42:56.000Z</time>
      </trkpt>
      <trkpt lat="43.305537667" lon="5.031704833">
        <time>2023-08-12T13:44:49.000Z</time>
      </trkpt>
      <trkpt lat="43.301427" lon="5.045585333">
        <time>2023-08-12T13:52:11.000Z</time>
      </trkpt>
      <trkpt lat="43.291381667" lon="5.0850445">
        <time>2023-08-12T14:10:46.000Z</time>
      </trkpt>
      <trkpt lat="43.284673833" lon="5.109337167">
        <time>2023-08-12T14:22:48.000Z</time>
      </trkpt>
      <trkpt lat="43.272349333" lon="5.159815167">
        <time>2023-08-12T14:47:40.000Z</time>
      </trkpt>
      <trkpt lat="43.261713833" lon="5.200059">
        <time>2023-08-12T15:06:33.000Z</time>
      </trkpt>
      <trkpt lat="43.260390167" lon="5.206528333">
        <time>2023-08-12T15:09:26.000Z</time>
      </trkpt>
      <trkpt lat="43.256476333" lon="5.256259833">
        <time>2023-08-12T15:29:47.000Z</time>
      </trkpt>
      <trkpt lat="43.257003167" lon="5.284268667">
        <time>2023-08-12T15:41:18.000Z</time>
      </trkpt>
      <trkpt lat="43.257772667" lon="5.289041">
        <time>2023-08-12T15:43:08.000Z</time>
      </trkpt>
      <trkpt lat="43.259242333" lon="5.292261">
        <time>2023-08-12T15:44:34.000Z</time>
      </trkpt>
      <trkpt lat="43.260092833" lon="5.293546333">
        <time>2023-08-12T15:45:20.000Z</time>
      </trkpt>
      <trkpt lat="43.260478" lon="5.293097">
        <time>2023-08-12T15:46:16.000Z</time>
      </trkpt>
      <trkpt lat="43.2685865" lon="5.306573333">
        <time>2023-08-12T15:54:05.000Z</time>
      </trkpt>
      <trkpt lat="43.2707075" lon="5.306191833">
        <time>2023-08-12T15:55:49.000Z</time>
      </trkpt>
      <trkpt lat="43.271336167" lon="5.302161833">
        <time>2023-08-12T16:03:15.000Z</time>
      </trkpt>
      <trkpt lat="43.270398" lon="5.303243333">
        <time>2023-08-12T16:06:38.000Z</time>
      </trkpt>
      <trkpt lat="43.2719175" lon="5.304610333">
        <time>2023-08-12T16:09:44.000Z</time>
      </trkpt>
      <trkpt lat="43.2722225" lon="5.303808667">
        <time>2023-08-12T16:14:35.000Z</time>
      </trkpt>
      <trkpt lat="43.272605" lon="5.304228833">
        <time>2023-08-12T16:20:42.000Z</time>
      </trkpt>
      <trkpt lat="43.271751167" lon="5.303992333">
        <time>2023-08-12T16:22:42.000Z</time>
      </trkpt>
      <trkpt lat="43.271689167" lon="5.304509667">
        <time>2023-08-13T09:52:14.000Z</time>
      </trkpt>
      <trkpt lat="43.2720385" lon="5.304401333">
        <time>2023-08-13T13:52:46.000Z</time>
      </trkpt>
      <trkpt lat="43.270594667" lon="5.304640167">
        <time>2023-08-13T14:02:50.000Z</time>
      </trkpt>
      <trkpt lat="43.260838333" lon="5.315254167">
        <time>2023-08-13T14:14:37.000Z</time>
      </trkpt>
      <trkpt lat="43.259925167" lon="5.3167655">
        <time>2023-08-13T14:15:53.000Z</time>
      </trkpt>
      <trkpt lat="43.259366667" lon="5.319217833">
        <time>2023-08-13T14:17:09.000Z</time>
      </trkpt>
      <trkpt lat="43.259647167" lon="5.321948833">
        <time>2023-08-13T14:18:39.000Z</time>
      </trkpt>
      <trkpt lat="43.270872167" lon="5.341911">
        <time>2023-08-13T14:40:13.000Z</time>
      </trkpt>
      <trkpt lat="43.280279333" lon="5.341367333">
        <time>2023-08-13T14:49:39.000Z</time>
      </trkpt>
      <trkpt lat="43.289084167" lon="5.342483">
        <time>2023-08-13T15:01:09.000Z</time>
      </trkpt>
      <trkpt lat="43.288076333" lon="5.341767333">
        <time>2023-08-13T15:03:30.000Z</time>
      </trkpt>
      <trkpt lat="43.291533" lon="5.344288833">
        <time>2023-08-13T15:06:20.000Z</time>
      </trkpt>
      <trkpt lat="43.295449333" lon="5.3533525">
        <time>2023-08-13T15:10:59.000Z</time>
      </trkpt>
      <trkpt lat="43.296078333" lon="5.3558585">
        <time>2023-08-13T15:12:05.000Z</time>
      </trkpt>
      <trkpt lat="43.2958315" lon="5.357998667">
        <time>2023-08-13T15:13:03.000Z</time>
      </trkpt>
      <trkpt lat="43.294304167" lon="5.361827333">
        <time>2023-08-13T15:15:23.000Z</time>
      </trkpt>
      <trkpt lat="43.294052167" lon="5.364867333">
        <time>2023-08-13T15:18:49.000Z</time>
      </trkpt>
      <trkpt lat="43.293457333" lon="5.364889833">
        <time>2023-08-13T15:33:47.000Z</time>
      </trkpt>
    </trkseg>
  </trk>
  <trk>
    <name>2023-08-17</name>
    <trkseg>
      <trkpt lat="43.083100667" lon="5.783291">
        <time>2023-08-16T20:00:00.000Z</time>
      </trkpt>
      <trkpt lat="43.082951833" lon="5.783666667">
        <time>2023-08-17T06:21:01.000Z</time>
      </trkpt>
      <trkpt lat="43.083487833" lon="5.783717833">
        <time>2023-08-17T06:21:36.000Z</time>
      </trkpt>
      <trkpt lat="43.0843745" lon="5.783009333">
        <time>2023-08-17T06:22:27.000Z</time>
      </trkpt>
      <trkpt lat="43.086196667" lon="5.779619667">
        <time>2023-08-17T06:24:39.000Z</time>
      </trkpt>
      <trkpt lat="43.086293667" lon="5.7765715">
        <time>2023-08-17T06:26:12.000Z</time>
      </trkpt>
      <trkpt lat="43.085826" lon="5.775809667">
        <time>2023-08-17T06:26:45.000Z</time>
      </trkpt>
      <trkpt lat="43.075372333" lon="5.771591167">
        <time>2023-08-17T06:34:45.000Z</time>
      </trkpt>
      <trkpt lat="43.073512833" lon="5.7714355">
        <time>2023-08-17T06:35:54.000Z</time>
      </trkpt>
      <trkpt lat="43.072110833" lon="5.772318167">
        <time>2023-08-17T06:36:50.000Z</time>
      </trkpt>
      <trkpt lat="43.053477" lon="5.801727167">
        <time>2023-08-17T06:54:19.000Z</time>
      </trkpt>
      <trkpt lat="43.046660667" lon="5.8143715">
        <time>2023-08-17T07:02:00.000Z</time>
      </trkpt>
      <trkpt lat="43.0437365" lon="5.821006">
        <time>2023-08-17T07:05:54.000Z</time>
      </trkpt>
      <trkpt lat="43.0391955" lon="5.8622715">
        <time>2023-08-17T07:24:13.000Z</time>
      </trkpt>
      <trkpt lat="43.046457667" lon="5.887587667">
        <time>2023-08-17T07:36:55.000Z</time>
      </trkpt>
      <trkpt lat="43.045695333" lon="5.890056">
        <time>2023-08-17T07:38:58.000Z</time>
      </trkpt>
      <trkpt lat="43.044346333" lon="5.902838667">
        <time>2023-08-17T07:51:41.000Z</time>
      </trkpt>
      <trkpt lat="43.043834" lon="5.916966667">
        <time>2023-08-17T07:57:29.000Z</time>
      </trkpt>
      <trkpt lat="43.039495667" lon="5.930011833">
        <time>2023-08-17T08:03:55.000Z</time>
      </trkpt>
      <trkpt lat="43.0410935" lon="5.934995667">
        <time>2023-08-17T08:08:08.000Z</time>
      </trkpt>
      <trkpt lat="43.0460165" lon="5.944514333">
        <time>2023-08-17T08:15:21.000Z</time>
      </trkpt>
      <trkpt lat="43.0511395" lon="5.957710833">
        <time>2023-08-17T08:23:38.000Z</time>
      </trkpt>
      <trkpt lat="43.0542115" lon="5.9634795">
        <time>2023-08-17T08:30:19.000Z</time>
      </trkpt>
      <trkpt lat="43.052605" lon="5.9651755">
        <time>2023-08-17T08:32:45.000Z</time>
      </trkpt>
      <trkpt lat="43.049933167" lon="5.971173">
        <time>2023-08-17T08:38:36.000Z</time>
      </trkpt>
      <trkpt lat="43.047337167" lon="5.974775667">
        <time>2023-08-17T08:44:24.000Z</time>
      </trkpt>
      <trkpt lat="43.046034" lon="5.978576833">
        <time>2023-08-17T08:46:14.000Z</time>
      </trkpt>
      <trkpt lat="43.021223667" lon="6.0844935">
        <time>2023-08-17T09:32:02.000Z</time>
      </trkpt>
      <trkpt lat="43.0206725" lon="6.089931667">
        <time>2023-08-17T09:34:17.000Z</time>
      </trkpt>
      <trkpt lat="43.01111" lon="6.1441955">
        <time>2023-08-17T09:57:51.000Z</time>
      </trkpt>
      <trkpt lat="43.010898167" lon="6.159343833">
        <time>2023-08-17T10:04:02.000Z</time>
      </trkpt>
      <trkpt lat="43.011932" lon="6.177313833">
        <time>2023-08-17T10:11:25.000Z</time>
      </trkpt>
      <trkpt lat="43.011669167" lon="6.184756833">
        <time>2023-08-17T10:14:34.000Z</time>
      </trkpt>
      <trkpt lat="43.008093667" lon="6.199727833">
        <time>2023-08-17T10:22:13.000Z</time>
      </trkpt>
      <trkpt lat="43.007988333" lon="6.201698333">
        <time>2023-08-17T10:23:25.000Z</time>
      </trkpt>
      <trkpt lat="43.005696" lon="6.209639">
        <time>2023-08-17T10:28:16.000Z</time>
      </trkpt>
      <trkpt lat="43.004664333" lon="6.21008">
        <time>2023-08-17T19:00:00.000Z</time>
      </trkpt>
    </trkseg>
  </trk>
  <trk>
    <name>2023-08-18</name>
    <trkseg>
      <trkpt lat="43.004664333" lon="6.21008">
        <time>2023-08-17T19:00:00.000Z</time>
      </trkpt>
      <trkpt lat="43.004279333" lon="6.209901667">
        <time>2023-08-18T05:58:36.000Z</time>
      </trkpt>
      <trkpt lat="43.005314" lon="6.210212">
        <time>2023-08-18T06:00:25.000Z</time>
      </trkpt>
      <trkpt lat="43.007234833" lon="6.209322">
        <time>2023-08-18T06:02:36.000Z</time>
      </trkpt>
      <trkpt lat="43.007982333" lon="6.207514833">
        <time>2023-08-18T06:03:58.000Z</time>
      </trkpt>
      <trkpt lat="43.009264167" lon="6.208177333">
        <time>2023-08-18T06:05:48.000Z</time>
      </trkpt>
      <trkpt lat="43.009781667" lon="6.207140667">
        <time>2023-08-18T06:06:55.000Z</time>
      </trkpt>
      <trkpt lat="43.0119715" lon="6.177111167">
        <time>2023-08-18T06:22:58.000Z</time>
      </trkpt>
      <trkpt lat="43.014448" lon="6.114926167">
        <time>2023-08-18T06:55:28.000Z</time>
      </trkpt>
      <trkpt lat="43.018939167" lon="6.055209833">
        <time>2023-08-18T07:40:12.000Z</time>
      </trkpt>
      <trkpt lat="43.0169575" lon="6.030915667">
        <time>2023-08-18T07:56:38.000Z</time>
      </trkpt>
      <trkpt lat="43.017255667" lon="6.021078333">
        <time>2023-08-18T08:03:04.000Z</time>
      </trkpt>
      <trkpt lat="43.016939167" lon="6.0179845">
        <time>2023-08-18T08:05:28.000Z</time>
      </trkpt>
      <trkpt lat="43.023408667" lon="5.9957745">
        <time>2023-08-18T08:24:37.000Z</time>
      </trkpt>
      <trkpt lat="43.023960333" lon="5.981518833">
        <time>2023-08-18T08:38:02.000Z</time>
      </trkpt>
      <trkpt lat="43.037508333" lon="5.953979667">
        <time>2023-08-18T09:06:03.000Z</time>
      </trkpt>
      <trkpt lat="43.038156167" lon="5.932408">
        <time>2023-08-18T09:15:09.000Z</time>
      </trkpt>
      <trkpt lat="43.041396833" lon="5.885680333">
        <time>2023-08-18T09:34:31.000Z</time>
      </trkpt>
      <trkpt lat="43.041670333" lon="5.838347333">
        <time>2023-08-18T09:54:16.000Z</time>
      </trkpt>
      <trkpt lat="43.0415975" lon="5.839422">
        <time>2023-08-18T09:56:03.000Z</time>
      </trkpt>
      <trkpt lat="43.042519167" lon="5.834380167">
        <time>2023-08-18T09:59:28.000Z</time>
      </trkpt>
      <trkpt lat="43.047316833" lon="5.8169745">
        <time>2023-08-18T10:10:26.000Z</time>
      </trkpt>
      <trkpt lat="43.0542865" lon="5.798907833">
        <time>2023-08-18T10:20:42.000Z</time>
      </trkpt>
      <trkpt lat="43.063363167" lon="5.784272167">
        <time>2023-08-18T10:30:29.000Z</time>
      </trkpt>
      <trkpt lat="43.065603667" lon="5.777124833">
        <time>2023-08-18T10:34:49.000Z</time>
      </trkpt>
      <trkpt lat="43.065779" lon="5.773035">
        <time>2023-08-18T10:37:00.000Z</time>
      </trkpt>
      <trkpt lat="43.0680705" lon="5.767279333">
        <time>2023-08-18T10:40:47.000Z</time>
      </trkpt>
      <trkpt lat="43.068305667" lon="5.764995333">
        <time>2023-08-18T10:42:03.000Z</time>
      </trkpt>
      <trkpt lat="43.071016" lon="5.759511667">
        <time>2023-08-18T10:46:07.000Z</time>
      </trkpt>
      <trkpt lat="43.084879833" lon="5.716215167">
        <time>2023-08-18T11:13:27.000Z</time>
      </trkpt>
      <trkpt lat="43.105731833" lon="5.656757667">
        <time>2023-08-18T11:50:51.000Z</time>
      </trkpt>
      <trkpt lat="43.111533667" lon="5.639148167">
        <time>2023-08-18T12:01:14.000Z</time>
      </trkpt>
      <trkpt lat="43.124571" lon="5.595105">
        <time>2023-08-18T12:25:20.000Z</time>
      </trkpt>
      <trkpt lat="43.132902833" lon="5.570162833">
        <time>2023-08-18T12:39:52.000Z</time>
      </trkpt>
      <trkpt lat="43.152889667" lon="5.456645333">
        <time>2023-08-18T13:43:34.000Z</time>
      </trkpt>
    </trkseg>
  </trk>
  <trk>
    <name>2023-08-18</name>
    <trkseg>
      <trkpt lat="43.153116667" lon="5.4554925">
        <time>2023-08-18T13:44:21.000Z</time>
      </trkpt>
      <trkpt lat="43.155831333" lon="5.4448065">
        <time>2023-08-18T13:52:02.000Z</time>
      </trkpt>
      <trkpt lat="43.160343667" lon="5.419353333">
        <time>2023-08-18T14:03:29.000Z</time>
      </trkpt>
      <trkpt lat="43.170876" lon="5.374525833">
        <time>2023-08-18T14:23:53.000Z</time>
      </trkpt>
      <trkpt lat="43.1734805" lon="5.3673375">
        <time>2023-08-18T14:27:17.000Z</time>
      </trkpt>
      <trkpt lat="43.194227" lon="5.338697167">
        <time>2023-08-18T14:44:27.000Z</time>
      </trkpt>
      <trkpt lat="43.207624333" lon="5.323492833">
        <time>2023-08-18T14:56:02.000Z</time>
      </trkpt>
      <trkpt lat="43.221836" lon="5.308461667">
        <time>2023-08-18T15:06:03.000Z</time>
      </trkpt>
      <trkpt lat="43.237858333" lon="5.297235833">
        <time>2023-08-18T15:17:31.000Z</time>
      </trkpt>
      <trkpt lat="43.271472333" lon="5.285914167">
        <time>2023-08-18T15:41:25.000Z</time>
      </trkpt>
      <trkpt lat="43.280481833" lon="5.289753833">
        <time>2023-08-18T15:46:23.000Z</time>
      </trkpt>
      <trkpt lat="43.282443833" lon="5.291320833">
        <time>2023-08-18T15:47:35.000Z</time>
      </trkpt>
      <trkpt lat="43.2833575" lon="5.293384167">
        <time>2023-08-18T15:48:33.000Z</time>
      </trkpt>
      <trkpt lat="43.2839085" lon="5.296778333">
        <time>2023-08-18T15:50:00.000Z</time>
      </trkpt>
      <trkpt lat="43.283713" lon="5.2987335">
        <time>2023-08-18T15:51:04.000Z</time>
      </trkpt>
      <trkpt lat="43.2820795" lon="5.303655333">
        <time>2023-08-18T15:57:41.000Z</time>
      </trkpt>
      <trkpt lat="43.2827155" lon="5.3004535">
        <time>2023-08-18T16:04:49.000Z</time>
      </trkpt>
      <trkpt lat="43.282030833" lon="5.2989885">
        <time>2023-08-18T16:08:50.000Z</time>
      </trkpt>
      <trkpt lat="43.282427667" lon="5.299188667">
        <time>2023-08-18T16:10:12.000Z</time>
      </trkpt>
      <trkpt lat="43.282400667" lon="5.298535333">
        <time>2023-08-18T16:35:26.000Z</time>
      </trkpt>
      <trkpt lat="43.2827885" lon="5.299959333">
        <time>2023-08-18T16:41:49.000Z</time>
      </trkpt>
      <trkpt lat="43.283233" lon="5.299863833">
        <time>2023-08-18T17:15:33.000Z</time>
      </trkpt>
      <trkpt lat="43.2826705" lon="5.301634833">
        <time>2023-08-18T17:50:33.000Z</time>
      </trkpt>
      <trkpt lat="43.282447833" lon="5.3016725">
        <time>2023-08-19T20:00:00.000Z</time>
      </trkpt>
    </trkseg>
  </trk>
  <trk>
    <name>2023-08-15</name>
    <trkseg>
      <trkpt lat="43.2935" lon="5.3649">
        <time>2023-08-15T08:53:43.000Z</time>
      </trkpt>
      <trkpt lat="43.231285333" lon="5.305210333">
        <time>2023-08-15T10:14:29.000Z</time>
      </trkpt>
      <trkpt lat="43.220886333" lon="5.284433333">
        <time>2023-08-15T10:26:44.000Z</time>
      </trkpt>
      <trkpt lat="43.220528167" lon="5.288691667">
        <time>2023-08-15T10:29:36.000Z</time>
      </trkpt>
      <trkpt lat="43.215475167" lon="5.319042167">
        <time>2023-08-15T10:51:26.000Z</time>
      </trkpt>
      <trkpt lat="43.210677667" lon="5.3249725">
        <time>2023-08-15T10:55:53.000Z</time>
      </trkpt>
      <trkpt lat="43.2041255" lon="5.338177167">
        <time>2023-08-15T11:03:08.000Z</time>
      </trkpt>
      <trkpt lat="43.202957" lon="5.355572333">
        <time>2023-08-15T11:10:58.000Z</time>
      </trkpt>
      <trkpt lat="43.201879333" lon="5.3600925">
        <time>2023-08-15T11:13:44.000Z</time>
      </trkpt>
      <trkpt lat="43.200744" lon="5.360611667">
        <time>2023-08-15T12:51:24.000Z</time>
      </trkpt>
      <trkpt lat="43.198161" lon="5.3804645">
        <time>2023-08-15T13:17:36.000Z</time>
      </trkpt>
      <trkpt lat="43.1971635" lon="5.398219">
        <time>2023-08-15T13:25:04.000Z</time>
      </trkpt>
      <trkpt lat="43.196836833" lon="5.444834167">
        <time>2023-08-15T13:44:21.000Z</time>
      </trkpt>
      <trkpt lat="43.194658" lon="5.511416333">
        <time>2023-08-15T14:10:33.000Z</time>
      </trkpt>
      <trkpt lat="43.203567833" lon="5.544224333">
        <time>2023-08-15T14:24:28.000Z</time>
      </trkpt>
      <trkpt lat="43.204942167" lon="5.545486667">
        <time>2023-08-15T14:26:00.000Z</time>
      </trkpt>
      <trkpt lat="43.2072335" lon="5.543531">
        <time>2023-08-15T14:28:21.000Z</time>
      </trkpt>
      <trkpt lat="43.208748833" lon="5.543268167">
        <time>2023-08-15T16:37:07.000Z</time>
      </trkpt>
      <trkpt lat="43.204618" lon="5.541901167">
        <time>2023-08-16T07:30:55.000Z</time>
      </trkpt>
      <trkpt lat="43.199549667" lon="5.539823833">
        <time>2023-08-16T07:34:20.000Z</time>
      </trkpt>
      <trkpt lat="43.191212167" lon="5.540082167">
        <time>2023-08-16T07:39:35.000Z</time>
      </trkpt>
      <trkpt lat="43.189843167" lon="5.540822167">
        <time>2023-08-16T07:40:31.000Z</time>
      </trkpt>
      <trkpt lat="43.167485667" lon="5.5666565">
        <time>2023-08-16T08:00:31.000Z</time>
      </trkpt>
      <trkpt lat="43.160668" lon="5.585759833">
        <time>2023-08-16T08:10:48.000Z</time>
      </trkpt>
      <trkpt lat="43.158008333" lon="5.598759667">
        <time>2023-08-16T08:16:48.000Z</time>
      </trkpt>
      <trkpt lat="43.154280167" lon="5.612891333">
        <time>2023-08-16T08:23:27.000Z</time>
      </trkpt>
      <trkpt lat="43.154777167" lon="5.618424667">
        <time>2023-08-16T08:28:01.000Z</time>
      </trkpt>
      <trkpt lat="43.156884167" lon="5.625007167">
        <time>2023-08-16T08:32:08.000Z</time>
      </trkpt>
      <trkpt lat="43.157953167" lon="5.635037">
        <time>2023-08-16T08:37:45.000Z</time>
      </trkpt>
      <trkpt lat="43.158205833" lon="5.642494333">
        <time>2023-08-16T08:41:50.000Z</time>
      </trkpt>
      <trkpt lat="43.1602835" lon="5.652535167">
        <time>2023-08-16T08:46:45.000Z</time>
      </trkpt>
      <trkpt lat="43.161661333" lon="5.665011667">
        <time>2023-08-16T08:52:35.000Z</time>
      </trkpt>
      <trkpt lat="43.163649333" lon="5.674391333">
        <time>2023-08-16T08:57:15.000Z</time>
      </trkpt>
      <trkpt lat="43.168600333" lon="5.689129167">
        <time>2023-08-16T09:05:59.000Z</time>
      </trkpt>
      <trkpt lat="43.1681015" lon="5.6893785">
        <time>2023-08-16T09:07:28.000Z</time>
      </trkpt>
      <trkpt lat="43.169427333" lon="5.692349833">
        <time>2023-08-16T09:09:53.000Z</time>
      </trkpt>
      <trkpt lat="43.165938167" lon="5.685265667">
        <time>2023-08-16T11:06:11.000Z</time>
      </trkpt>
      <trkpt lat="43.1617285" lon="5.680393333">
        <time>2023-08-16T11:09:48.000Z</time>
      </trkpt>
      <trkpt lat="43.160525333" lon="5.679571333">
        <time>2023-08-16T11:10:41.000Z</time>
      </trkpt>
      <trkpt lat="43.158656333" lon="5.679400333">
        <time>2023-08-16T11:11:56.000Z</time>
      </trkpt>
      <trkpt lat="43.153566333" lon="5.680608667">
        <time>2023-08-16T11:15:19.000Z</time>
      </trkpt>
      <trkpt lat="43.142579167" lon="5.6919725">
        <time>2023-08-16T11:24:00.000Z</time>
      </trkpt>
      <trkpt lat="43.1357135" lon="5.699411833">
        <time>2023-08-16T11:29:54.000Z</time>
      </trkpt>
      <trkpt lat="43.134763833" lon="5.703568">
        <time>2023-08-16T11:33:59.000Z</time>
      </trkpt>
      <trkpt lat="43.1282995" lon="5.721230667">
        <time>2023-08-16T11:47:04.000Z</time>
      </trkpt>
      <trkpt lat="43.116767167" lon="5.747484">
        <time>2023-08-16T12:06:34.000Z</time>
      </trkpt>
      <trkpt lat="43.108204" lon="5.7645235">
        <time>2023-08-16T12:18:16.000Z</time>
      </trkpt>
      <trkpt lat="43.102439667" lon="5.779359167">
        <time>2023-08-16T12:27:25.000Z</time>
      </trkpt>
      <trkpt lat="43.100601333" lon="5.780948167">
        <time>2023-08-16T12:29:48.000Z</time>
      </trkpt>
      <trkpt lat="43.094494333" lon="5.782672333">
        <time>2023-08-16T12:34:06.000Z</time>
      </trkpt>
      <trkpt lat="43.0921315" lon="5.7827155">
        <time>2023-08-16T12:35:40.000Z</time>
      </trkpt>
      <trkpt lat="43.084988333" lon="5.780829667">
        <time>2023-08-16T12:40:40.000Z</time>
      </trkpt>
      <trkpt lat="43.083611833" lon="5.781641667">
        <time>2023-08-16T12:42:30.000Z</time>
      </trkpt>
      <trkpt lat="43.0829735" lon="5.782515833">
        <time>2023-08-16T12:43:58.000Z</time>
      </trkpt>
      <trkpt lat="43.083444167" lon="5.782309167">
        <time>2023-08-16T12:56:53.000Z</time>
      </trkpt>
      <trkpt lat="43.083633833" lon="5.783225333">
        <time>2023-08-16T12:57:37.000Z</time>
      </trkpt>
      <trkpt lat="43.0829955" lon="5.783977833">
        <time>2023-08-16T13:00:14.000Z</time>
      </trkpt>
      <trkpt lat="43.083100667" lon="5.783291">
        <time>2023-08-16T20:00:00.000Z</time>
      </trkpt>
    </trkseg>
  </trk>
  <trk>
    <name>2023-08-20</name>
    <trkseg>
      <trkpt lat="43.282447833" lon="5.3016725">
        <time>2023-08-19T20:00:00.000Z</time>
      </trkpt>
      <trkpt lat="43.2824955" lon="5.301504333">
        <time>2023-08-20T00:01:48.000Z</time>
      </trkpt>
    </trkseg>
  </trk>
</gpx>
