<?xml version="1.0" encoding="UTF-8"?>
<gpx version="1.1" creator="OpenCPN" schemaLocation="http://www.topografix.com/GPX/1/1 http://www.topografix.com/GPX/1/1/gpx.xsd http://www.garmin.com/xmlschemas/GpxExtensions/v3 http://www8.garmin.com/xmlschemas/GpxExtensionsv3.xsd" xmlns="http://www.topografix.com/GPX/1/1" xmlns:xsi="http://www.w3.org/2001/XMLSchema-instance" xsi:schemaLocation="http://www.topografix.com/GPX/1/1 http://www.topografix.com/GPX/1/1/gpx.xsd http://www.garmin.com/xmlschemas/GpxExtensions/v3 http://www.garmin.com/xmlschemas/GpxExtensionsv3.xsd http://www.garmin.com/xmlschemas/TrackPointExtension/v1 http://www.garmin.com/xmlschemas/TrackPointExtensionv1.xsd http://www.garmin.com/xmlschemas/PowerExtension/v1 http://www.garmin.com/xmlschemas/PowerExtensionv1.xsd http://www.topografix.com/GPX/gpx_style/0/2 http://www.topografix.com/GPX/gpx_style/0/2/gpx_style.xsd" xmlns:gpxtpx="http://www.garmin.com/xmlschemas/TrackPointExtension/v1" xmlns:gpxx="http://www.garmin.com/xmlschemas/GpxExtensions/v3" xmlns:gpxpx="http://www.garmin.com/xmlschemas/PowerExtension/v1" xmlns:gpx_style="http://www.topografix.com/GPX/gpx_style/0/2">
  <metadata>
    <name>2024</name>
    <author>
      <name>gpx.studio</name>
      <link href="https://gpx.studio"/>
    </author>
  </metadata>

  <trk>
    <trkseg>
      <trkpt lat="43.409800833" lon="5.074490833">
        <time>2024-08-05T17:26:49.000Z</time>
      </trkpt>
      <trkpt lat="43.4416615" lon="5.079459667">
        <time>2024-08-05T17:54:19.000Z</time>
      </trkpt>
      <trkpt lat="43.445194833" lon="5.079210333">
        <time>2024-08-05T17:57:23.000Z</time>
      </trkpt>
      <trkpt lat="43.460619667" lon="5.0736355">
        <time>2024-08-05T18:09:55.000Z</time>
      </trkpt>
      <trkpt lat="43.472410333" lon="5.066254667">
        <time>2024-08-05T18:20:54.000Z</time>
      </trkpt>
      <trkpt lat="43.473805167" lon="5.064565333">
        <time>2024-08-05T18:22:07.000Z</time>
      </trkpt>
      <trkpt lat="43.476983" lon="5.058666">
        <time>2024-08-05T18:25:21.000Z</time>
      </trkpt>
      <trkpt lat="43.481207833" lon="5.053129333">
        <time>2024-08-05T18:29:46.000Z</time>
      </trkpt>
      <trkpt lat="43.483438667" lon="5.048652167">
        <time>2024-08-05T18:32:26.000Z</time>
      </trkpt>
      <trkpt lat="43.483497" lon="5.047514167">
        <time>2024-08-05T18:33:47.000Z</time>
      </trkpt>
      <trkpt lat="43.4814795" lon="5.041364667">
        <time>2024-08-05T18:37:56.000Z</time>
      </trkpt>
      <trkpt lat="43.479663667" lon="5.029825833">
        <time>2024-08-05T18:44:05.000Z</time>
      </trkpt>
      <trkpt lat="43.4791895" lon="5.0227925">
        <time>2024-08-05T18:47:27.000Z</time>
      </trkpt>
      <trkpt lat="43.482329667" lon="5.007494167">
        <time>2024-08-05T18:55:21.000Z</time>
      </trkpt>
      <trkpt lat="43.482687333" lon="5.0066895">
        <time>2024-08-05T18:56:25.000Z</time>
      </trkpt>
      <trkpt lat="43.4830785" lon="5.006917333">
        <time>2024-08-05T19:09:11.000Z</time>
      </trkpt>
    </trkseg>
  </trk>
  <trk>
    <trkseg>
      <trkpt lat="43.482762167" lon="5.006837333">
        <time>2024-08-07T09:28:50.000Z</time>
      </trkpt>
      <trkpt lat="43.481390333" lon="5.010875667">
        <time>2024-08-07T10:05:15.000Z</time>
      </trkpt>
      <trkpt lat="43.472488833" lon="5.0463275">
        <time>2024-08-07T10:21:26.000Z</time>
      </trkpt>
      <trkpt lat="43.466268167" lon="5.057919667">
        <time>2024-08-07T10:29:28.000Z</time>
      </trkpt>
      <trkpt lat="43.4652445" lon="5.061552833">
        <time>2024-08-07T10:33:04.000Z</time>
      </trkpt>
      <trkpt lat="43.463295167" lon="5.065653667">
        <time>2024-08-07T10:36:08.000Z</time>
      </trkpt>
      <trkpt lat="43.4592745" lon="5.070429833">
        <time>2024-08-07T10:40:25.000Z</time>
      </trkpt>
      <trkpt lat="43.452431" lon="5.075164667">
        <time>2024-08-07T10:47:39.000Z</time>
      </trkpt>
      <trkpt lat="43.442071667" lon="5.0841635">
        <time>2024-08-07T10:57:49.000Z</time>
      </trkpt>
      <trkpt lat="43.4376995" lon="5.086027667">
        <time>2024-08-07T11:02:22.000Z</time>
      </trkpt>
      <trkpt lat="43.434254833" lon="5.086151167">
        <time>2024-08-07T11:06:46.000Z</time>
      </trkpt>
      <trkpt lat="43.428581833" lon="5.088887333">
        <time>2024-08-07T11:13:20.000Z</time>
      </trkpt>
      <trkpt lat="43.4201945" lon="5.088884333">
        <time>2024-08-07T11:20:02.000Z</time>
      </trkpt>
      <trkpt lat="43.414336167" lon="5.087672333">
        <time>2024-08-07T11:24:19.000Z</time>
      </trkpt>
      <trkpt lat="43.409959333" lon="5.085290833">
        <time>2024-08-07T11:28:43.000Z</time>
      </trkpt>
      <trkpt lat="43.408421" lon="5.081708833">
        <time>2024-08-07T11:32:11.000Z</time>
      </trkpt>
      <trkpt lat="43.4076515" lon="5.079250167">
        <time>2024-08-07T11:33:47.000Z</time>
      </trkpt>
      <trkpt lat="43.405557" lon="5.063877167">
        <time>2024-08-07T11:42:28.000Z</time>
      </trkpt>
      <trkpt lat="43.405032333" lon="5.062718667">
        <time>2024-08-07T11:44:37.000Z</time>
      </trkpt>
      <trkpt lat="43.40462" lon="5.064397167">
        <time>2024-08-07T11:48:45.000Z</time>
      </trkpt>
      <trkpt lat="43.405468167" lon="5.0674125">
        <time>2024-08-07T11:53:19.000Z</time>
      </trkpt>
      <trkpt lat="43.405217167" lon="5.061042">
        <time>2024-08-07T12:09:16.000Z</time>
      </trkpt>
      <trkpt lat="43.402010667" lon="5.038210167">
        <time>2024-08-07T12:20:47.000Z</time>
      </trkpt>
      <trkpt lat="43.403251667" lon="4.999162167">
        <time>2024-08-07T12:37:46.000Z</time>
      </trkpt>
      <trkpt lat="43.402959" lon="4.994746167">
        <time>2024-08-07T12:39:46.000Z</time>
      </trkpt>
      <trkpt lat="43.400978167" lon="4.991487">
        <time>2024-08-07T12:41:39.000Z</time>
      </trkpt>
      <trkpt lat="43.392466833" lon="4.9813555">
        <time>2024-08-07T12:48:28.000Z</time>
      </trkpt>
      <trkpt lat="43.387061667" lon="4.982047667">
        <time>2024-08-07T12:51:41.000Z</time>
      </trkpt>
      <trkpt lat="43.385773333" lon="4.981901167">
        <time>2024-08-07T12:52:29.000Z</time>
      </trkpt>
      <trkpt lat="43.383655167" lon="4.980749">
        <time>2024-08-07T12:54:22.000Z</time>
      </trkpt>
      <trkpt lat="43.364992667" lon="4.9952075">
        <time>2024-08-07T13:05:43.000Z</time>
      </trkpt>
      <trkpt lat="43.3334375" lon="5.016356333">
        <time>2024-08-07T13:22:17.000Z</time>
      </trkpt>
      <trkpt lat="43.330220667" lon="5.0190415">
        <time>2024-08-07T13:24:01.000Z</time>
      </trkpt>
      <trkpt lat="43.323762667" lon="5.027381167">
        <time>2024-08-07T13:28:17.000Z</time>
      </trkpt>
      <trkpt lat="43.3217585" lon="5.031389">
        <time>2024-08-07T13:30:10.000Z</time>
      </trkpt>
      <trkpt lat="43.316926667" lon="5.0455435">
        <time>2024-08-07T13:36:45.000Z</time>
      </trkpt>
      <trkpt lat="43.301036" lon="5.102554167">
        <time>2024-08-07T14:02:27.000Z</time>
      </trkpt>
      <trkpt lat="43.295571833" lon="5.124825">
        <time>2024-08-07T14:12:53.000Z</time>
      </trkpt>
      <trkpt lat="43.281050167" lon="5.188739">
        <time>2024-08-07T14:43:22.000Z</time>
      </trkpt>
      <trkpt lat="43.2779315" lon="5.204381167">
        <time>2024-08-07T14:50:43.000Z</time>
      </trkpt>
      <trkpt lat="43.275028" lon="5.222423333">
        <time>2024-08-07T14:59:23.000Z</time>
      </trkpt>
      <trkpt lat="43.267259833" lon="5.259863333">
        <time>2024-08-07T15:16:46.000Z</time>
      </trkpt>
      <trkpt lat="43.258912667" lon="5.289001333">
        <time>2024-08-07T15:29:26.000Z</time>
      </trkpt>
      <trkpt lat="43.258863833" lon="5.289919333">
        <time>2024-08-07T15:29:50.000Z</time>
      </trkpt>
      <trkpt lat="43.2598105" lon="5.291875833">
        <time>2024-08-07T15:30:54.000Z</time>
      </trkpt>
      <trkpt lat="43.259266833" lon="5.2925525">
        <time>2024-08-07T15:31:26.000Z</time>
      </trkpt>
      <trkpt lat="43.2377555" lon="5.300183167">
        <time>2024-08-07T15:43:58.000Z</time>
      </trkpt>
      <trkpt lat="43.227652333" lon="5.305847333">
        <time>2024-08-07T15:49:51.000Z</time>
      </trkpt>
      <trkpt lat="43.2159505" lon="5.314786167">
        <time>2024-08-07T15:57:53.000Z</time>
      </trkpt>
      <trkpt lat="43.208021833" lon="5.3251195">
        <time>2024-08-07T16:08:33.000Z</time>
      </trkpt>
      <trkpt lat="43.192608167" lon="5.3603995">
        <time>2024-08-07T16:28:51.000Z</time>
      </trkpt>
      <trkpt lat="43.1918995" lon="5.365997333">
        <time>2024-08-07T16:31:39.000Z</time>
      </trkpt>
      <trkpt lat="43.189738833" lon="5.375636833">
        <time>2024-08-07T16:36:20.000Z</time>
      </trkpt>
      <trkpt lat="43.191182167" lon="5.382556333">
        <time>2024-08-07T16:39:40.000Z</time>
      </trkpt>
      <trkpt lat="43.189912" lon="5.385759333">
        <time>2024-08-07T16:41:24.000Z</time>
      </trkpt>
      <trkpt lat="43.189413333" lon="5.386239333">
        <time>2024-08-07T16:41:56.000Z</time>
      </trkpt>
      <trkpt lat="43.188397" lon="5.385452833">
        <time>2024-08-07T16:45:40.000Z</time>
      </trkpt>
      <trkpt lat="43.188973" lon="5.386657">
        <time>2024-08-07T16:57:03.000Z</time>
      </trkpt>
      <trkpt lat="43.189167167" lon="5.3888915">
        <time>2024-08-07T16:58:00.000Z</time>
      </trkpt>
      <trkpt lat="43.189388833" lon="5.408839333">
        <time>2024-08-07T17:05:53.000Z</time>
      </trkpt>
      <trkpt lat="43.193015667" lon="5.438333667">
        <time>2024-08-07T17:17:45.000Z</time>
      </trkpt>
      <trkpt lat="43.193760333" lon="5.441923333">
        <time>2024-08-07T17:19:13.000Z</time>
      </trkpt>
      <trkpt lat="43.199452667" lon="5.454787333">
        <time>2024-08-07T17:25:05.000Z</time>
      </trkpt>
      <trkpt lat="43.200241833" lon="5.455627333">
        <time>2024-08-07T17:25:37.000Z</time>
      </trkpt>
      <trkpt lat="43.201162833" lon="5.456151333">
        <time>2024-08-07T17:26:09.000Z</time>
      </trkpt>
      <trkpt lat="43.203095167" lon="5.455969333">
        <time>2024-08-07T17:27:13.000Z</time>
      </trkpt>
      <trkpt lat="43.2062955" lon="5.451658">
        <time>2024-08-07T17:29:46.000Z</time>
      </trkpt>
      <trkpt lat="43.2075115" lon="5.448460833">
        <time>2024-08-07T17:32:42.000Z</time>
      </trkpt>
      <trkpt lat="43.207501667" lon="5.449048333">
        <time>2024-08-07T17:50:16.000Z</time>
      </trkpt>
    </trkseg>
  </trk>
  <trk>
    <trkseg>
      <trkpt lat="43.2075" lon="5.449">
        <time>2024-08-07T19:48:19.000Z</time>
      </trkpt>
      <trkpt lat="43.207304667" lon="5.449383833">
        <time>2024-08-08T06:35:27.000Z</time>
      </trkpt>
    </trkseg>
  </trk>
  <trk>
    <trkseg>
      <trkpt lat="43.2073" lon="5.4494">
        <time>2024-08-08T15:55:12.000Z</time>
      </trkpt>
      <trkpt lat="43.2071885" lon="5.449633833">
        <time>2024-08-09T06:32:47.000Z</time>
      </trkpt>
    </trkseg>
  </trk>
  <trk>
    <trkseg>
      <trkpt lat="43.2072" lon="5.4496">
        <time>2024-08-09T15:57:59.000Z</time>
      </trkpt>
      <trkpt lat="43.203716667" lon="5.45555">
        <time>2024-08-09T16:10:08.000Z</time>
      </trkpt>
      <trkpt lat="43.202333333" lon="5.455733333">
        <time>2024-08-09T16:11:12.000Z</time>
      </trkpt>
      <trkpt lat="43.200833333" lon="5.45395">
        <time>2024-08-09T16:12:49.000Z</time>
      </trkpt>
      <trkpt lat="43.200433333" lon="5.4521">
        <time>2024-08-09T16:13:53.000Z</time>
      </trkpt>
      <trkpt lat="43.200066667" lon="5.425983333">
        <time>2024-08-09T16:26:45.000Z</time>
      </trkpt>
      <trkpt lat="43.200266667" lon="5.402066667">
        <time>2024-08-09T16:38:44.000Z</time>
      </trkpt>
      <trkpt lat="43.20375" lon="5.368816667">
        <time>2024-08-09T16:53:56.000Z</time>
      </trkpt>
      <trkpt lat="43.204866667" lon="5.339566667">
        <time>2024-08-09T17:08:25.000Z</time>
      </trkpt>
      <trkpt lat="43.20655" lon="5.330316667">
        <time>2024-08-09T17:13:37.000Z</time>
      </trkpt>
      <trkpt lat="43.209133333" lon="5.324333333">
        <time>2024-08-09T17:17:22.000Z</time>
      </trkpt>
      <trkpt lat="43.210866667" lon="5.3216">
        <time>2024-08-09T17:19:14.000Z</time>
      </trkpt>
      <trkpt lat="43.213933333" lon="5.319216667">
        <time>2024-08-09T17:21:30.000Z</time>
      </trkpt>
      <trkpt lat="43.215116667" lon="5.317166667">
        <time>2024-08-09T17:23:40.000Z</time>
      </trkpt>
      <trkpt lat="43.2209" lon="5.3158">
        <time>2024-08-09T17:29:02.000Z</time>
      </trkpt>
      <trkpt lat="43.223566667" lon="5.317616667">
        <time>2024-08-09T17:31:18.000Z</time>
      </trkpt>
      <trkpt lat="43.22775" lon="5.323466667">
        <time>2024-08-09T17:36:23.000Z</time>
      </trkpt>
      <trkpt lat="43.243116667" lon="5.353783333">
        <time>2024-08-09T17:59:29.000Z</time>
      </trkpt>
      <trkpt lat="43.24705" lon="5.3611">
        <time>2024-08-09T18:07:26.000Z</time>
      </trkpt>
      <trkpt lat="43.2476" lon="5.3593">
        <time>2024-08-09T18:09:20.000Z</time>
      </trkpt>
      <trkpt lat="43.24795" lon="5.361">
        <time>2024-08-09T18:10:25.000Z</time>
      </trkpt>
      <trkpt lat="43.2472" lon="5.363983333">
        <time>2024-08-09T18:12:17.000Z</time>
      </trkpt>
      <trkpt lat="43.246866667" lon="5.3644">
        <time>2024-08-09T18:12:41.000Z</time>
      </trkpt>
      <trkpt lat="43.245033333" lon="5.364016667">
        <time>2024-08-09T18:15:46.000Z</time>
      </trkpt>
      <trkpt lat="43.247083333" lon="5.364383333">
        <time>2024-08-09T18:20:04.000Z</time>
      </trkpt>
      <trkpt lat="43.24795" lon="5.363033333">
        <time>2024-08-09T18:20:53.000Z</time>
      </trkpt>
      <trkpt lat="43.2529" lon="5.345216667">
        <time>2024-08-09T18:28:48.000Z</time>
      </trkpt>
      <trkpt lat="43.256766667" lon="5.336233333">
        <time>2024-08-09T18:33:13.000Z</time>
      </trkpt>
      <trkpt lat="43.27045" lon="5.307866667">
        <time>2024-08-09T18:47:10.000Z</time>
      </trkpt>
      <trkpt lat="43.271" lon="5.304583333">
        <time>2024-08-09T18:48:46.000Z</time>
      </trkpt>
      <trkpt lat="43.271683333" lon="5.303916667">
        <time>2024-08-09T18:52:15.000Z</time>
      </trkpt>
      <trkpt lat="43.271425833" lon="5.3036805">
        <time>2024-08-10T05:48:56.000Z</time>
      </trkpt>
    </trkseg>
  </trk>
  <trk>
    <trkseg>
      <trkpt lat="43.2076" lon="5.4249">
        <time>2024-08-11T11:33:22.000Z</time>
      </trkpt>
      <trkpt lat="43.207134333" lon="5.426474667">
        <time>2024-08-11T14:53:48.000Z</time>
      </trkpt>
      <trkpt lat="43.204405833" lon="5.429777167">
        <time>2024-08-11T14:56:20.000Z</time>
      </trkpt>
      <trkpt lat="43.202511" lon="5.430452">
        <time>2024-08-11T14:57:41.000Z</time>
      </trkpt>
      <trkpt lat="43.2019845" lon="5.426638">
        <time>2024-08-11T14:59:33.000Z</time>
      </trkpt>
      <trkpt lat="43.200663667" lon="5.392898333">
        <time>2024-08-11T15:30:54.000Z</time>
      </trkpt>
      <trkpt lat="43.2015325" lon="5.3808375">
        <time>2024-08-11T15:36:06.000Z</time>
      </trkpt>
      <trkpt lat="43.207405667" lon="5.3541335">
        <time>2024-08-11T15:47:15.000Z</time>
      </trkpt>
      <trkpt lat="43.212911333" lon="5.3401505">
        <time>2024-08-11T15:53:39.000Z</time>
      </trkpt>
      <trkpt lat="43.213650667" lon="5.336413333">
        <time>2024-08-11T15:55:24.000Z</time>
      </trkpt>
      <trkpt lat="43.2167035" lon="5.3334215">
        <time>2024-08-11T15:57:48.000Z</time>
      </trkpt>
      <trkpt lat="43.217399833" lon="5.3353095">
        <time>2024-08-11T15:59:08.000Z</time>
      </trkpt>
      <trkpt lat="43.2165585" lon="5.3385735">
        <time>2024-08-11T16:02:52.000Z</time>
      </trkpt>
      <trkpt lat="43.2154535" lon="5.339006167">
        <time>2024-08-11T16:04:45.000Z</time>
      </trkpt>
      <trkpt lat="43.215833833" lon="5.339562">
        <time>2024-08-11T16:06:45.000Z</time>
      </trkpt>
      <trkpt lat="43.215591167" lon="5.3402925">
        <time>2024-08-11T16:09:25.000Z</time>
      </trkpt>
      <trkpt lat="43.2157945" lon="5.339902167">
        <time>2024-08-11T16:22:49.000Z</time>
      </trkpt>
    </trkseg>
  </trk>
  <trk>
    <trkseg>
      <trkpt lat="43.2158" lon="5.3399">
        <time>2024-08-12T16:31:00.000Z</time>
      </trkpt>
      <trkpt lat="43.215520667" lon="5.3406455">
        <time>2024-08-12T16:35:48.000Z</time>
      </trkpt>
      <trkpt lat="43.216335333" lon="5.340908167">
        <time>2024-08-12T16:36:36.000Z</time>
      </trkpt>
      <trkpt lat="43.223006" lon="5.340372667">
        <time>2024-08-12T16:41:17.000Z</time>
      </trkpt>
      <trkpt lat="43.229613667" lon="5.343180667">
        <time>2024-08-12T16:45:33.000Z</time>
      </trkpt>
      <trkpt lat="43.233996667" lon="5.346211667">
        <time>2024-08-12T16:48:37.000Z</time>
      </trkpt>
      <trkpt lat="43.242619167" lon="5.357894167">
        <time>2024-08-12T16:56:22.000Z</time>
      </trkpt>
      <trkpt lat="43.246555667" lon="5.361861167">
        <time>2024-08-12T16:59:34.000Z</time>
      </trkpt>
      <trkpt lat="43.247121667" lon="5.362937333">
        <time>2024-08-12T17:00:14.000Z</time>
      </trkpt>
      <trkpt lat="43.246889167" lon="5.364287">
        <time>2024-08-12T17:01:02.000Z</time>
      </trkpt>
      <trkpt lat="43.244730167" lon="5.363930667">
        <time>2024-08-12T17:03:58.000Z</time>
      </trkpt>
      <trkpt lat="43.246162667" lon="5.364684167">
        <time>2024-08-12T17:06:30.000Z</time>
      </trkpt>
      <trkpt lat="43.246557667" lon="5.3665545">
        <time>2024-08-12T17:07:50.000Z</time>
      </trkpt>
      <trkpt lat="43.2461015" lon="5.367267167">
        <time>2024-08-12T17:10:38.000Z</time>
      </trkpt>
      <trkpt lat="43.246336667" lon="5.364893167">
        <time>2024-08-12T18:41:14.000Z</time>
      </trkpt>
      <trkpt lat="43.2452245" lon="5.363946333">
        <time>2024-08-12T18:42:18.000Z</time>
      </trkpt>
      <trkpt lat="43.2461695" lon="5.3647255">
        <time>2024-08-12T19:15:33.000Z</time>
      </trkpt>
      <trkpt lat="43.247509" lon="5.369182833">
        <time>2024-08-12T19:18:45.000Z</time>
      </trkpt>
      <trkpt lat="43.247053833" lon="5.368865167">
        <time>2024-08-12T19:19:25.000Z</time>
      </trkpt>
      <trkpt lat="43.247447167" lon="5.367914833">
        <time>2024-08-12T19:20:21.000Z</time>
      </trkpt>
      <trkpt lat="43.247239333" lon="5.367187333">
        <time>2024-08-13T06:32:59.000Z</time>
      </trkpt>
    </trkseg>
  </trk>
  <trk>
    <trkseg>
      <trkpt lat="43.2472" lon="5.3672">
        <time>2024-08-13T19:53:15.000Z</time>
      </trkpt>
      <trkpt lat="43.248091167" lon="5.367142167">
        <time>2024-08-13T20:03:48.000Z</time>
      </trkpt>
      <trkpt lat="43.248413667" lon="5.366426833">
        <time>2024-08-13T20:04:20.000Z</time>
      </trkpt>
      <trkpt lat="43.249904833" lon="5.360118167">
        <time>2024-08-13T20:07:34.000Z</time>
      </trkpt>
      <trkpt lat="43.25495" lon="5.347433333">
        <time>2024-08-13T20:14:31.000Z</time>
      </trkpt>
      <trkpt lat="43.2579" lon="5.3358">
        <time>2024-08-13T20:20:24.000Z</time>
      </trkpt>
      <trkpt lat="43.25835" lon="5.331983333">
        <time>2024-08-13T20:22:16.000Z</time>
      </trkpt>
      <trkpt lat="43.262183333" lon="5.318616667">
        <time>2024-08-13T20:28:57.000Z</time>
      </trkpt>
      <trkpt lat="43.264316667" lon="5.314183333">
        <time>2024-08-13T20:31:23.000Z</time>
      </trkpt>
      <trkpt lat="43.27095" lon="5.303083333">
        <time>2024-08-13T20:43:00.000Z</time>
      </trkpt>
      <trkpt lat="43.271383333" lon="5.304316667">
        <time>2024-08-13T20:47:41.000Z</time>
      </trkpt>
      <trkpt lat="43.27135" lon="5.303916667">
        <time>2024-08-13T20:52:43.000Z</time>
      </trkpt>
    </trkseg>
  </trk>
  <trk>
    <trkseg>
      <trkpt lat="43.2713" lon="5.3039">
        <time>2024-08-13T20:56:44.000Z</time>
      </trkpt>
      <trkpt lat="43.271308" lon="5.304663333">
        <time>2024-08-14T01:25:22.000Z</time>
      </trkpt>
      <trkpt lat="43.271313833" lon="5.304229167">
        <time>2024-08-14T05:19:38.000Z</time>
      </trkpt>
    </trkseg>
  </trk>
  <trk>
    <trkseg>
      <trkpt lat="43.2934" lon="5.3684">
        <time>2024-08-19T07:58:31.000Z</time>
      </trkpt>
      <trkpt lat="43.294430167" lon="5.367526667">
        <time>2024-08-19T08:32:52.000Z</time>
      </trkpt>
      <trkpt lat="43.294301" lon="5.3624195">
        <time>2024-08-19T08:35:41.000Z</time>
      </trkpt>
      <trkpt lat="43.296182333" lon="5.358208333">
        <time>2024-08-19T08:39:09.000Z</time>
      </trkpt>
      <trkpt lat="43.296562333" lon="5.351268833">
        <time>2024-08-19T08:41:41.000Z</time>
      </trkpt>
      <trkpt lat="43.2999925" lon="5.332086333">
        <time>2024-08-19T08:49:58.000Z</time>
      </trkpt>
      <trkpt lat="43.300645167" lon="5.317287">
        <time>2024-08-19T08:59:03.000Z</time>
      </trkpt>
      <trkpt lat="43.302075" lon="5.300483833">
        <time>2024-08-19T09:06:24.000Z</time>
      </trkpt>
      <trkpt lat="43.302643333" lon="5.290946">
        <time>2024-08-19T09:10:18.000Z</time>
      </trkpt>
      <trkpt lat="43.302315" lon="5.2683575">
        <time>2024-08-19T09:19:49.000Z</time>
      </trkpt>
      <trkpt lat="43.303464333" lon="5.251636667">
        <time>2024-08-19T09:26:31.000Z</time>
      </trkpt>
      <trkpt lat="43.303293333" lon="5.208483167">
        <time>2024-08-19T09:45:40.000Z</time>
      </trkpt>
      <trkpt lat="43.3059985" lon="5.184613833">
        <time>2024-08-19T09:55:44.000Z</time>
      </trkpt>
      <trkpt lat="43.307601" lon="5.145740167">
        <time>2024-08-19T10:12:37.000Z</time>
      </trkpt>
      <trkpt lat="43.309606333" lon="5.132277">
        <time>2024-08-19T10:18:14.000Z</time>
      </trkpt>
      <trkpt lat="43.3109095" lon="5.128445333">
        <time>2024-08-19T10:19:51.000Z</time>
      </trkpt>
      <trkpt lat="43.312000667" lon="5.122873833">
        <time>2024-08-19T10:22:07.000Z</time>
      </trkpt>
      <trkpt lat="43.31631" lon="5.084287667">
        <time>2024-08-19T10:37:53.000Z</time>
      </trkpt>
      <trkpt lat="43.316552333" lon="5.067706167">
        <time>2024-08-19T10:46:02.000Z</time>
      </trkpt>
      <trkpt lat="43.317220667" lon="5.062493333">
        <time>2024-08-19T10:48:27.000Z</time>
      </trkpt>
      <trkpt lat="43.317269" lon="5.056236833">
        <time>2024-08-19T10:51:31.000Z</time>
      </trkpt>
      <trkpt lat="43.316033333" lon="5.023066667">
        <time>2024-08-19T11:08:28.000Z</time>
      </trkpt>
      <trkpt lat="43.317266667" lon="4.998516667">
        <time>2024-08-19T11:22:25.000Z</time>
      </trkpt>
      <trkpt lat="43.318133333" lon="4.999616667">
        <time>2024-08-19T11:24:26.000Z</time>
      </trkpt>
      <trkpt lat="43.329833333" lon="5.005133333">
        <time>2024-08-19T11:36:05.000Z</time>
      </trkpt>
      <trkpt lat="43.340183333" lon="5.006283333">
        <time>2024-08-19T11:44:24.000Z</time>
      </trkpt>
      <trkpt lat="43.3471" lon="5.0081">
        <time>2024-08-19T11:49:46.000Z</time>
      </trkpt>
      <trkpt lat="43.356633333" lon="5.0092">
        <time>2024-08-19T11:57:23.000Z</time>
      </trkpt>
      <trkpt lat="43.356283333" lon="5.007816667">
        <time>2024-08-19T11:58:11.000Z</time>
      </trkpt>
      <trkpt lat="43.355516667" lon="4.984533333">
        <time>2024-08-19T12:08:20.000Z</time>
      </trkpt>
      <trkpt lat="43.35645" lon="4.975733333">
        <time>2024-08-19T12:12:13.000Z</time>
      </trkpt>
      <trkpt lat="43.3592" lon="4.964216667">
        <time>2024-08-19T12:17:26.000Z</time>
      </trkpt>
      <trkpt lat="43.364566667" lon="4.967516667">
        <time>2024-08-19T12:22:07.000Z</time>
      </trkpt>
      <trkpt lat="43.372833333" lon="4.970933333">
        <time>2024-08-19T12:27:36.000Z</time>
      </trkpt>
      <trkpt lat="43.384966667" lon="4.978683333">
        <time>2024-08-19T12:39:15.000Z</time>
      </trkpt>
      <trkpt lat="43.38525" lon="4.979233333">
        <time>2024-08-19T12:40:19.000Z</time>
      </trkpt>
      <trkpt lat="43.3802" lon="4.9855">
        <time>2024-08-19T12:45:25.000Z</time>
      </trkpt>
      <trkpt lat="43.383083333" lon="4.983416667">
        <time>2024-08-19T12:47:59.000Z</time>
      </trkpt>
      <trkpt lat="43.386616667" lon="4.981916667">
        <time>2024-08-19T12:50:24.000Z</time>
      </trkpt>
      <trkpt lat="43.39085" lon="4.9816">
        <time>2024-08-19T12:53:13.000Z</time>
      </trkpt>
      <trkpt lat="43.396133333" lon="4.985866667">
        <time>2024-08-19T12:57:45.000Z</time>
      </trkpt>
      <trkpt lat="43.401316667" lon="4.98425">
        <time>2024-08-19T13:04:28.000Z</time>
      </trkpt>
      <trkpt lat="43.40205" lon="4.983233333">
        <time>2024-08-19T13:08:30.000Z</time>
      </trkpt>
      <trkpt lat="43.401166667" lon="4.987516667">
        <time>2024-08-19T13:11:02.000Z</time>
      </trkpt>
      <trkpt lat="43.402866667" lon="4.9944">
        <time>2024-08-19T13:15:20.000Z</time>
      </trkpt>
      <trkpt lat="43.403066667" lon="4.998433333">
        <time>2024-08-19T13:17:29.000Z</time>
      </trkpt>
      <trkpt lat="43.40245" lon="5.023233333">
        <time>2024-08-19T13:29:33.000Z</time>
      </trkpt>
      <trkpt lat="43.401816667" lon="5.03355">
        <time>2024-08-19T13:35:34.000Z</time>
      </trkpt>
      <trkpt lat="43.400231667" lon="5.035590667">
        <time>2024-08-19T15:45:06.000Z</time>
      </trkpt>
    </trkseg>
  </trk>
  <trk>
    <trkseg>
      <trkpt lat="43.4002" lon="5.0356">
        <time>2024-08-25T07:56:02.000Z</time>
      </trkpt>
      <trkpt lat="43.40165" lon="5.033883333">
        <time>2024-08-25T08:27:51.000Z</time>
      </trkpt>
      <trkpt lat="43.402066667" lon="5.03115">
        <time>2024-08-25T08:29:04.000Z</time>
      </trkpt>
      <trkpt lat="43.403183333" lon="5.000583333">
        <time>2024-08-25T08:41:49.000Z</time>
      </trkpt>
      <trkpt lat="43.40305" lon="4.994266667">
        <time>2024-08-25T08:44:21.000Z</time>
      </trkpt>
      <trkpt lat="43.400833333" lon="4.98855">
        <time>2024-08-25T08:46:55.000Z</time>
      </trkpt>
      <trkpt lat="43.398233333" lon="4.986566667">
        <time>2024-08-25T08:48:33.000Z</time>
      </trkpt>
      <trkpt lat="43.396333333" lon="4.985966667">
        <time>2024-08-25T08:49:39.000Z</time>
      </trkpt>
      <trkpt lat="43.392833333" lon="4.982233333">
        <time>2024-08-25T08:52:16.000Z</time>
      </trkpt>
      <trkpt lat="43.3904" lon="4.98155">
        <time>2024-08-25T08:53:38.000Z</time>
      </trkpt>
      <trkpt lat="43.383283333" lon="4.98375">
        <time>2024-08-25T08:58:18.000Z</time>
      </trkpt>
      <trkpt lat="43.376933333" lon="4.986666667">
        <time>2024-08-25T09:03:24.000Z</time>
      </trkpt>
      <trkpt lat="43.367833333" lon="4.991733333">
        <time>2024-08-25T09:09:51.000Z</time>
      </trkpt>
      <trkpt lat="43.358233333" lon="4.99815">
        <time>2024-08-25T09:16:28.000Z</time>
      </trkpt>
      <trkpt lat="43.32865" lon="5.018716667">
        <time>2024-08-25T09:37:59.000Z</time>
      </trkpt>
      <trkpt lat="43.32305" lon="5.02485">
        <time>2024-08-25T09:42:15.000Z</time>
      </trkpt>
      <trkpt lat="43.320733333" lon="5.02925">
        <time>2024-08-25T09:44:57.000Z</time>
      </trkpt>
      <trkpt lat="43.318316667" lon="5.038416667">
        <time>2024-08-25T09:49:30.000Z</time>
      </trkpt>
      <trkpt lat="43.315483333" lon="5.065216667">
        <time>2024-08-25T10:02:28.000Z</time>
      </trkpt>
      <trkpt lat="43.309183333" lon="5.129366667">
        <time>2024-08-25T10:39:35.000Z</time>
      </trkpt>
      <trkpt lat="43.3043" lon="5.1901">
        <time>2024-08-25T11:11:12.000Z</time>
      </trkpt>
      <trkpt lat="43.30335" lon="5.2758">
        <time>2024-08-25T11:55:25.000Z</time>
      </trkpt>
      <trkpt lat="43.302116667" lon="5.302916667">
        <time>2024-08-25T12:11:04.000Z</time>
      </trkpt>
      <trkpt lat="43.300116667" lon="5.326233333">
        <time>2024-08-25T12:24:52.000Z</time>
      </trkpt>
      <trkpt lat="43.2988" lon="5.334533333">
        <time>2024-08-25T12:29:16.000Z</time>
      </trkpt>
      <trkpt lat="43.2994" lon="5.338316667">
        <time>2024-08-25T12:32:20.000Z</time>
      </trkpt>
      <trkpt lat="43.296383333" lon="5.347183333">
        <time>2024-08-25T12:36:37.000Z</time>
      </trkpt>
      <trkpt lat="43.296066667" lon="5.356433333">
        <time>2024-08-25T12:40:46.000Z</time>
      </trkpt>
      <trkpt lat="43.294216667" lon="5.36195">
        <time>2024-08-25T12:43:52.000Z</time>
      </trkpt>
      <trkpt lat="43.29415" lon="5.3654">
        <time>2024-08-25T12:46:49.000Z</time>
      </trkpt>
      <trkpt lat="43.293733333" lon="5.364133333">
        <time>2024-08-25T12:57:23.000Z</time>
      </trkpt>
      <trkpt lat="43.29415" lon="5.364133333">
        <time>2024-08-25T13:00:21.000Z</time>
      </trkpt>
      <trkpt lat="43.293406667" lon="5.364078333">
        <time>2024-08-25T13:40:35.000Z</time>
      </trkpt>
    </trkseg>
  </trk>
  <trk>
    <trkseg>
      <trkpt lat="43.293406667" lon="5.364073333">
        <time>2024-08-25T13:40:37.000Z</time>
      </trkpt>
      <trkpt lat="43.293406667" lon="5.364078333">
        <time>2024-08-25T13:40:39.000Z</time>
      </trkpt>
    </trkseg>
  </trk>
  <trk>
    <trkseg>
      <trkpt lat="43.294288833" lon="5.348070667">
        <time>2024-08-26T09:53:25.000Z</time>
      </trkpt>
      <trkpt lat="43.293255167" lon="5.345850167">
        <time>2024-08-26T09:54:38.000Z</time>
      </trkpt>
      <trkpt lat="43.288243167" lon="5.339709833">
        <time>2024-08-26T09:58:31.000Z</time>
      </trkpt>
      <trkpt lat="43.283420667" lon="5.335722">
        <time>2024-08-26T10:02:24.000Z</time>
      </trkpt>
      <trkpt lat="43.280215167" lon="5.334177833">
        <time>2024-08-26T10:05:21.000Z</time>
      </trkpt>
      <trkpt lat="43.244665167" lon="5.325157167">
        <time>2024-08-26T10:29:52.000Z</time>
      </trkpt>
      <trkpt lat="43.218621167" lon="5.316928">
        <time>2024-08-26T10:45:24.000Z</time>
      </trkpt>
      <trkpt lat="43.2155735" lon="5.3175475">
        <time>2024-08-26T10:47:17.000Z</time>
      </trkpt>
      <trkpt lat="43.209965833" lon="5.321720667">
        <time>2024-08-26T10:51:18.000Z</time>
      </trkpt>
      <trkpt lat="43.205611167" lon="5.327287667">
        <time>2024-08-26T10:55:11.000Z</time>
      </trkpt>
      <trkpt lat="43.204694333" lon="5.3313415">
        <time>2024-08-26T10:57:12.000Z</time>
      </trkpt>
      <trkpt lat="43.202202333" lon="5.380408167">
        <time>2024-08-26T11:19:03.000Z</time>
      </trkpt>
      <trkpt lat="43.202721667" lon="5.383957">
        <time>2024-08-26T11:21:35.000Z</time>
      </trkpt>
      <trkpt lat="43.2011415" lon="5.389537833">
        <time>2024-08-26T11:27:20.000Z</time>
      </trkpt>
      <trkpt lat="43.2001895" lon="5.406250833">
        <time>2024-08-26T11:35:06.000Z</time>
      </trkpt>
      <trkpt lat="43.200267667" lon="5.413659167">
        <time>2024-08-26T11:40:07.000Z</time>
      </trkpt>
      <trkpt lat="43.199711" lon="5.415890833">
        <time>2024-08-26T11:41:38.000Z</time>
      </trkpt>
      <trkpt lat="43.199969333" lon="5.418670833">
        <time>2024-08-26T11:43:32.000Z</time>
      </trkpt>
      <trkpt lat="43.202540833" lon="5.427936667">
        <time>2024-08-26T11:49:34.000Z</time>
      </trkpt>
      <trkpt lat="43.2053985" lon="5.427886833">
        <time>2024-08-26T11:51:44.000Z</time>
      </trkpt>
      <trkpt lat="43.208432333" lon="5.4245885">
        <time>2024-08-26T11:55:52.000Z</time>
      </trkpt>
      <trkpt lat="43.208166667" lon="5.425202667">
        <time>2024-08-26T13:00:21.000Z</time>
      </trkpt>
    </trkseg>
  </trk>
  <trk>
    <trkseg>
      <trkpt lat="43.208185" lon="5.425219333">
        <time>2024-08-26T13:00:28.000Z</time>
      </trkpt>
      <trkpt lat="43.208190167" lon="5.425224833">
        <time>2024-08-26T13:00:30.000Z</time>
      </trkpt>
    </trkseg>
  </trk>
  <trk>
    <trkseg>
      <trkpt lat="43.202727167" lon="5.405408667">
        <time>2024-08-27T11:00:30.000Z</time>
      </trkpt>
      <trkpt lat="43.204092" lon="5.3658215">
        <time>2024-08-27T11:17:39.000Z</time>
      </trkpt>
      <trkpt lat="43.206446" lon="5.3577025">
        <time>2024-08-27T11:21:32.000Z</time>
      </trkpt>
      <trkpt lat="43.210517" lon="5.349582167">
        <time>2024-08-27T11:25:42.000Z</time>
      </trkpt>
      <trkpt lat="43.213310833" lon="5.337346167">
        <time>2024-08-27T11:32:30.000Z</time>
      </trkpt>
      <trkpt lat="43.214483" lon="5.335239167">
        <time>2024-08-27T11:33:58.000Z</time>
      </trkpt>
      <trkpt lat="43.215162" lon="5.334923333">
        <time>2024-08-27T11:34:22.000Z</time>
      </trkpt>
      <trkpt lat="43.219693333" lon="5.336220833">
        <time>2024-08-27T11:36:55.000Z</time>
      </trkpt>
      <trkpt lat="43.228126833" lon="5.341756">
        <time>2024-08-27T11:42:25.000Z</time>
      </trkpt>
      <trkpt lat="43.235031667" lon="5.347983667">
        <time>2024-08-27T11:47:14.000Z</time>
      </trkpt>
      <trkpt lat="43.240727167" lon="5.355825833">
        <time>2024-08-27T11:51:55.000Z</time>
      </trkpt>
      <trkpt lat="43.246625833" lon="5.362026667">
        <time>2024-08-27T11:56:12.000Z</time>
      </trkpt>
      <trkpt lat="43.247071667" lon="5.362994">
        <time>2024-08-27T11:56:44.000Z</time>
      </trkpt>
      <trkpt lat="43.246865833" lon="5.364306">
        <time>2024-08-27T11:57:32.000Z</time>
      </trkpt>
      <trkpt lat="43.244833667" lon="5.3639385">
        <time>2024-08-27T12:00:06.000Z</time>
      </trkpt>
      <trkpt lat="43.24604" lon="5.3645895">
        <time>2024-08-27T12:04:08.000Z</time>
      </trkpt>
      <trkpt lat="43.247226333" lon="5.367171167">
        <time>2024-08-27T12:30:33.000Z</time>
      </trkpt>
    </trkseg>
  </trk>
  <trk>
    <trkseg>
      <trkpt lat="43.247228667" lon="5.367167">
        <time>2024-08-27T12:30:36.000Z</time>
      </trkpt>
      <trkpt lat="43.247233667" lon="5.367153167">
        <time>2024-08-27T12:30:43.000Z</time>
      </trkpt>
    </trkseg>
  </trk>
  <trk>
    <trkseg>
      <trkpt lat="43.271238833" lon="5.30262">
        <time>2024-08-28T09:40:46.000Z</time>
      </trkpt>
      <trkpt lat="43.270241" lon="5.304162167">
        <time>2024-08-28T09:51:16.000Z</time>
      </trkpt>
      <trkpt lat="43.266736167" lon="5.307294">
        <time>2024-08-28T09:56:14.000Z</time>
      </trkpt>
      <trkpt lat="43.265445167" lon="5.306538">
        <time>2024-08-28T09:57:58.000Z</time>
      </trkpt>
      <trkpt lat="43.262375333" lon="5.301973167">
        <time>2024-08-28T10:00:22.000Z</time>
      </trkpt>
      <trkpt lat="43.259415" lon="5.2960445">
        <time>2024-08-28T10:02:54.000Z</time>
      </trkpt>
      <trkpt lat="43.258501" lon="5.291487167">
        <time>2024-08-28T10:04:39.000Z</time>
      </trkpt>
      <trkpt lat="43.258777667" lon="5.289030167">
        <time>2024-08-28T10:05:35.000Z</time>
      </trkpt>
      <trkpt lat="43.261127167" lon="5.2830115">
        <time>2024-08-28T10:08:07.000Z</time>
      </trkpt>
      <trkpt lat="43.262834333" lon="5.280647167">
        <time>2024-08-28T10:09:35.000Z</time>
      </trkpt>
      <trkpt lat="43.263995667" lon="5.2802385">
        <time>2024-08-28T10:10:23.000Z</time>
      </trkpt>
      <trkpt lat="43.267766333" lon="5.281334833">
        <time>2024-08-28T10:12:24.000Z</time>
      </trkpt>
      <trkpt lat="43.283853" lon="5.291840333">
        <time>2024-08-28T10:22:09.000Z</time>
      </trkpt>
      <trkpt lat="43.284872167" lon="5.2931375">
        <time>2024-08-28T10:23:40.000Z</time>
      </trkpt>
      <trkpt lat="43.2848205" lon="5.295776833">
        <time>2024-08-28T10:27:08.000Z</time>
      </trkpt>
      <trkpt lat="43.283026" lon="5.300411667">
        <time>2024-08-28T10:30:37.000Z</time>
      </trkpt>
      <trkpt lat="43.2825485" lon="5.304491167">
        <time>2024-08-28T10:52:22.000Z</time>
      </trkpt>
      <trkpt lat="43.2826555" lon="5.3037625">
        <time>2024-08-28T11:19:53.000Z</time>
      </trkpt>
      <trkpt lat="43.282234167" lon="5.303382833">
        <time>2024-08-28T11:24:17.000Z</time>
      </trkpt>
      <trkpt lat="43.282628667" lon="5.3027295">
        <time>2024-08-28T11:25:38.000Z</time>
      </trkpt>
      <trkpt lat="43.282824167" lon="5.300975167">
        <time>2024-08-28T11:28:26.000Z</time>
      </trkpt>
      <trkpt lat="43.282519" lon="5.2994445">
        <time>2024-08-28T11:29:54.000Z</time>
      </trkpt>
      <trkpt lat="43.282968833" lon="5.299957">
        <time>2024-08-28T17:37:09.000Z</time>
      </trkpt>
      <trkpt lat="43.282894667" lon="5.299816667">
        <time>2024-08-29T07:03:00.000Z</time>
      </trkpt>
    </trkseg>
  </trk>
  <trk>
    <trkseg>
      <trkpt lat="43.282906667" lon="5.299846">
        <time>2024-08-29T07:04:37.000Z</time>
      </trkpt>
      <trkpt lat="43.282419" lon="5.304327667">
        <time>2024-08-29T07:23:05.000Z</time>
      </trkpt>
      <trkpt lat="43.282554667" lon="5.3031975">
        <time>2024-08-29T07:25:38.000Z</time>
      </trkpt>
    </trkseg>
  </trk>
  <trk>
    <trkseg>
      <trkpt lat="43.2825445" lon="5.303530833">
        <time>2024-08-30T13:02:51.000Z</time>
      </trkpt>
      <trkpt lat="43.283560333" lon="5.294113">
        <time>2024-08-30T13:36:01.000Z</time>
      </trkpt>
      <trkpt lat="43.282844667" lon="5.291693">
        <time>2024-08-30T13:37:45.000Z</time>
      </trkpt>
      <trkpt lat="43.276150667" lon="5.286713667">
        <time>2024-08-30T13:42:39.000Z</time>
      </trkpt>
      <trkpt lat="43.267221333" lon="5.283436333">
        <time>2024-08-30T13:49:28.000Z</time>
      </trkpt>
      <trkpt lat="43.264311333" lon="5.283630167">
        <time>2024-08-30T13:51:04.000Z</time>
      </trkpt>
      <trkpt lat="43.2607015" lon="5.286146333">
        <time>2024-08-30T13:53:45.000Z</time>
      </trkpt>
      <trkpt lat="43.2591385" lon="5.2909605">
        <time>2024-08-30T13:57:14.000Z</time>
      </trkpt>
      <trkpt lat="43.248079667" lon="5.345175167">
        <time>2024-08-30T14:40:18.000Z</time>
      </trkpt>
      <trkpt lat="43.247421333" lon="5.356588333">
        <time>2024-08-30T14:48:00.000Z</time>
      </trkpt>
      <trkpt lat="43.247692333" lon="5.366028667">
        <time>2024-08-30T14:55:39.000Z</time>
      </trkpt>
      <trkpt lat="43.247166167" lon="5.365828333">
        <time>2024-08-30T14:56:59.000Z</time>
      </trkpt>
      <trkpt lat="43.247102667" lon="5.367210167">
        <time>2024-08-30T15:03:00.000Z</time>
      </trkpt>
      <trkpt lat="43.24734" lon="5.365595333">
        <time>2024-08-30T16:11:50.000Z</time>
      </trkpt>
      <trkpt lat="43.24842" lon="5.363986167">
        <time>2024-08-30T16:13:02.000Z</time>
      </trkpt>
      <trkpt lat="43.266199333" lon="5.314693">
        <time>2024-08-30T16:37:44.000Z</time>
      </trkpt>
      <trkpt lat="43.265610167" lon="5.313799">
        <time>2024-08-30T16:38:32.000Z</time>
      </trkpt>
      <trkpt lat="43.265064333" lon="5.314028167">
        <time>2024-08-30T16:40:00.000Z</time>
      </trkpt>
      <trkpt lat="43.271041167" lon="5.303388">
        <time>2024-08-30T16:48:53.000Z</time>
      </trkpt>
      <trkpt lat="43.271704833" lon="5.304084">
        <time>2024-08-30T16:51:25.000Z</time>
      </trkpt>
      <trkpt lat="43.270745667" lon="5.3025085">
        <time>2024-08-30T17:17:59.000Z</time>
      </trkpt>
    </trkseg>
  </trk>
  <trk>
    <trkseg>
      <trkpt lat="43.2707" lon="5.3025">
        <time>2024-08-31T14:35:55.000Z</time>
      </trkpt>
      <trkpt lat="43.2707" lon="5.3025">
        <time>2024-08-31T14:35:59.000Z</time>
      </trkpt>
    </trkseg>
  </trk>
  <trk>
    <trkseg>
      <trkpt lat="43.2707" lon="5.3025">
        <time>2024-08-31T14:36:00.000Z</time>
      </trkpt>
      <trkpt lat="43.2707" lon="5.3025">
        <time>2024-08-31T14:37:55.000Z</time>
      </trkpt>
    </trkseg>
  </trk>
  <trk>
    <trkseg>
      <trkpt lat="43.2707" lon="5.3025">
        <time>2024-08-31T14:40:39.000Z</time>
      </trkpt>
      <trkpt lat="43.268133333" lon="5.310016667">
        <time>2024-08-31T14:42:28.000Z</time>
      </trkpt>
    </trkseg>
  </trk>
  <trk>
    <trkseg>
      <trkpt lat="43.267616667" lon="5.311266667">
        <time>2024-08-31T14:43:02.000Z</time>
      </trkpt>
      <trkpt lat="43.2594" lon="5.332283333">
        <time>2024-08-31T14:52:38.000Z</time>
      </trkpt>
      <trkpt lat="43.256133333" lon="5.341683333">
        <time>2024-08-31T14:56:47.000Z</time>
      </trkpt>
      <trkpt lat="43.2522" lon="5.355266667">
        <time>2024-08-31T15:02:40.000Z</time>
      </trkpt>
      <trkpt lat="43.246816667" lon="5.366033333">
        <time>2024-08-31T15:08:18.000Z</time>
      </trkpt>
      <trkpt lat="43.247015" lon="5.366956667">
        <time>2024-08-31T16:51:18.000Z</time>
      </trkpt>
    </trkseg>
  </trk>
  <trk>
    <trkseg>
      <trkpt lat="43.248483333" lon="5.357983333">
        <time>2024-09-02T07:43:16.000Z</time>
      </trkpt>
      <trkpt lat="43.253916667" lon="5.322116667">
        <time>2024-09-02T07:58:47.000Z</time>
      </trkpt>
      <trkpt lat="43.25675" lon="5.293783333">
        <time>2024-09-02T08:11:05.000Z</time>
      </trkpt>
      <trkpt lat="43.25975" lon="5.280383333">
        <time>2024-09-02T08:17:00.000Z</time>
      </trkpt>
      <trkpt lat="43.282566667" lon="5.193483333">
        <time>2024-09-02T08:55:09.000Z</time>
      </trkpt>
      <trkpt lat="43.308966667" lon="5.0751">
        <time>2024-09-02T09:46:13.000Z</time>
      </trkpt>
      <trkpt lat="43.309533333" lon="5.067966667">
        <time>2024-09-02T09:49:17.000Z</time>
      </trkpt>
      <trkpt lat="43.320366667" lon="5.036033333">
        <time>2024-09-02T10:04:27.000Z</time>
      </trkpt>
      <trkpt lat="43.3228" lon="5.030466667">
        <time>2024-09-02T10:08:01.000Z</time>
      </trkpt>
      <trkpt lat="43.326416667" lon="5.0255">
        <time>2024-09-02T10:10:53.000Z</time>
      </trkpt>
      <trkpt lat="43.33525" lon="5.016833333">
        <time>2024-09-02T10:16:51.000Z</time>
      </trkpt>
      <trkpt lat="43.348033333" lon="5.00735">
        <time>2024-09-02T10:24:36.000Z</time>
      </trkpt>
      <trkpt lat="43.353333333" lon="5.004383333">
        <time>2024-09-02T10:27:34.000Z</time>
      </trkpt>
      <trkpt lat="43.366766667" lon="4.998583333">
        <time>2024-09-02T10:34:56.000Z</time>
      </trkpt>
      <trkpt lat="43.382833333" lon="4.987116667">
        <time>2024-09-02T10:44:36.000Z</time>
      </trkpt>
      <trkpt lat="43.38325" lon="4.985833333">
        <time>2024-09-02T10:45:49.000Z</time>
      </trkpt>
      <trkpt lat="43.390916667" lon="4.982333333">
        <time>2024-09-02T10:50:54.000Z</time>
      </trkpt>
      <trkpt lat="43.393033333" lon="4.983183333">
        <time>2024-09-02T10:52:14.000Z</time>
      </trkpt>
      <trkpt lat="43.399666667" lon="4.9889">
        <time>2024-09-02T10:56:49.000Z</time>
      </trkpt>
      <trkpt lat="43.4021" lon="4.99205">
        <time>2024-09-02T10:58:42.000Z</time>
      </trkpt>
      <trkpt lat="43.402966667" lon="4.995066667">
        <time>2024-09-02T11:00:11.000Z</time>
      </trkpt>
      <trkpt lat="43.4032" lon="4.99915">
        <time>2024-09-02T11:02:04.000Z</time>
      </trkpt>
      <trkpt lat="43.402033333" lon="5.03255">
        <time>2024-09-02T11:18:08.000Z</time>
      </trkpt>
      <trkpt lat="43.401783333" lon="5.03385">
        <time>2024-09-02T11:19:37.000Z</time>
      </trkpt>
      <trkpt lat="43.40021" lon="5.035541667">
        <time>2024-09-02T11:46:00.000Z</time>
      </trkpt>
    </trkseg>
  </trk>
 
</gpx>
