<?xml version="1.0" encoding="UTF-8"?>
<gpx version="1.1" creator="OpenCPN" schemaLocation="http://www.topografix.com/GPX/1/1 http://www.topografix.com/GPX/1/1/gpx.xsd http://www.garmin.com/xmlschemas/GpxExtensions/v3 http://www8.garmin.com/xmlschemas/GpxExtensionsv3.xsd" xmlns="http://www.topografix.com/GPX/1/1" xmlns:xsi="http://www.w3.org/2001/XMLSchema-instance" xsi:schemaLocation="http://www.topografix.com/GPX/1/1 http://www.topografix.com/GPX/1/1/gpx.xsd http://www.garmin.com/xmlschemas/GpxExtensions/v3 http://www.garmin.com/xmlschemas/GpxExtensionsv3.xsd http://www.garmin.com/xmlschemas/TrackPointExtension/v1 http://www.garmin.com/xmlschemas/TrackPointExtensionv1.xsd http://www.garmin.com/xmlschemas/PowerExtension/v1 http://www.garmin.com/xmlschemas/PowerExtensionv1.xsd http://www.topografix.com/GPX/gpx_style/0/2 http://www.topografix.com/GPX/gpx_style/0/2/gpx_style.xsd" xmlns:gpxtpx="http://www.garmin.com/xmlschemas/TrackPointExtension/v1" xmlns:gpxx="http://www.garmin.com/xmlschemas/GpxExtensions/v3" xmlns:gpxpx="http://www.garmin.com/xmlschemas/PowerExtension/v1" xmlns:gpx_style="http://www.topografix.com/GPX/gpx_style/0/2">
  <metadata>
    <name>2025</name>
    <author>
      <name>gpx.studio</name>
      <link href="https://gpx.studio"/>
    </author>
  </metadata>
  <trk>
    <trkseg>
      <trkpt lat="43.4002" lon="5.0323">
        <time>2025-07-30T07:15:08.000Z</time>
      </trkpt>
      <trkpt lat="43.400240833" lon="5.0352415">
        <time>2025-07-30T07:16:21.000Z</time>
      </trkpt>
      <trkpt lat="43.401966667" lon="5.033783333">
        <time>2025-07-30T07:19:33.000Z</time>
      </trkpt>
      <trkpt lat="43.40325" lon="4.999316667">
        <time>2025-07-30T07:33:54.000Z</time>
      </trkpt>
      <trkpt lat="43.402983333" lon="4.994283333">
        <time>2025-07-30T07:35:54.000Z</time>
      </trkpt>
      <trkpt lat="43.40065" lon="4.990433333">
        <time>2025-07-30T07:37:54.000Z</time>
      </trkpt>
      <trkpt lat="43.39415" lon="4.98345">
        <time>2025-07-30T07:42:34.000Z</time>
      </trkpt>
      <trkpt lat="43.39225" lon="4.982116667">
        <time>2025-07-30T07:43:46.000Z</time>
      </trkpt>
      <trkpt lat="43.39055" lon="4.981966667">
        <time>2025-07-30T07:44:34.000Z</time>
      </trkpt>
      <trkpt lat="43.384883333" lon="4.983333333">
        <time>2025-07-30T07:47:48.000Z</time>
      </trkpt>
      <trkpt lat="43.36375" lon="4.993066667">
        <time>2025-07-30T07:59:31.000Z</time>
      </trkpt>
      <trkpt lat="43.343766667" lon="5.002383333">
        <time>2025-07-30T08:10:23.000Z</time>
      </trkpt>
      <trkpt lat="43.336666667" lon="5.006416667">
        <time>2025-07-30T08:14:16.000Z</time>
      </trkpt>
      <trkpt lat="43.333716667" lon="5.0093">
        <time>2025-07-30T08:16:06.000Z</time>
      </trkpt>
    </trkseg>
  </trk>
  <trk>
    <trkseg>
      <trkpt lat="43.3337" lon="5.0093">
        <time>2025-07-30T08:16:25.000Z</time>
      </trkpt>
      <trkpt lat="43.3312" lon="5.011666667">
        <time>2025-07-30T08:17:34.000Z</time>
      </trkpt>
    </trkseg>
  </trk>
  <trk>
    <trkseg>
      <trkpt lat="43.327483333" lon="5.014816667">
        <time>2025-07-30T08:19:42.000Z</time>
      </trkpt>
      <trkpt lat="43.318983333" lon="5.024016667">
        <time>2025-07-30T08:25:03.000Z</time>
      </trkpt>
      <trkpt lat="43.312883333" lon="5.034366667">
        <time>2025-07-30T08:30:15.000Z</time>
      </trkpt>
      <trkpt lat="43.29115" lon="5.07915">
        <time>2025-07-30T08:51:19.000Z</time>
      </trkpt>
      <trkpt lat="43.269916667" lon="5.123883333">
        <time>2025-07-30T09:14:34.000Z</time>
      </trkpt>
      <trkpt lat="43.26665" lon="5.131983333">
        <time>2025-07-30T09:18:46.000Z</time>
      </trkpt>
      <trkpt lat="43.249133333" lon="5.167316667">
        <time>2025-07-30T09:40:19.000Z</time>
      </trkpt>
      <trkpt lat="43.23885" lon="5.189333333">
        <time>2025-07-30T09:54:31.000Z</time>
      </trkpt>
      <trkpt lat="43.233" lon="5.206366667">
        <time>2025-07-30T10:04:18.000Z</time>
      </trkpt>
      <trkpt lat="43.2251" lon="5.226816667">
        <time>2025-07-30T10:17:33.000Z</time>
      </trkpt>
      <trkpt lat="43.2043" lon="5.271966667">
        <time>2025-07-30T10:46:33.000Z</time>
      </trkpt>
      <trkpt lat="43.1954" lon="5.290016667">
        <time>2025-07-30T10:59:56.000Z</time>
      </trkpt>
      <trkpt lat="43.188083333" lon="5.307083333">
        <time>2025-07-30T11:11:22.000Z</time>
      </trkpt>
      <trkpt lat="43.176116667" lon="5.352533333">
        <time>2025-07-30T11:39:26.000Z</time>
      </trkpt>
      <trkpt lat="43.164633333" lon="5.39405">
        <time>2025-07-30T12:03:32.000Z</time>
      </trkpt>
      <trkpt lat="43.16105" lon="5.403616667">
        <time>2025-07-30T12:11:43.000Z</time>
      </trkpt>
      <trkpt lat="43.15785" lon="5.4139">
        <time>2025-07-30T12:18:25.000Z</time>
      </trkpt>
      <trkpt lat="43.15365" lon="5.44035">
        <time>2025-07-30T12:33:18.000Z</time>
      </trkpt>
      <trkpt lat="43.15235" lon="5.454683333">
        <time>2025-07-30T12:40:41.000Z</time>
      </trkpt>
      <trkpt lat="43.15055" lon="5.486683333">
        <time>2025-07-30T12:57:11.000Z</time>
      </trkpt>
      <trkpt lat="43.151266667" lon="5.50485">
        <time>2025-07-30T13:06:04.000Z</time>
      </trkpt>
      <trkpt lat="43.1512" lon="5.529716667">
        <time>2025-07-30T13:17:37.000Z</time>
      </trkpt>
      <trkpt lat="43.15155" lon="5.5399">
        <time>2025-07-30T13:22:19.000Z</time>
      </trkpt>
      <trkpt lat="43.152666667" lon="5.549666667">
        <time>2025-07-30T13:26:43.000Z</time>
      </trkpt>
      <trkpt lat="43.151966667" lon="5.552516667">
        <time>2025-07-30T13:28:04.000Z</time>
      </trkpt>
      <trkpt lat="43.152016667" lon="5.555333333">
        <time>2025-07-30T13:29:25.000Z</time>
      </trkpt>
      <trkpt lat="43.152966667" lon="5.565583333">
        <time>2025-07-30T13:34:14.000Z</time>
      </trkpt>
      <trkpt lat="43.15505" lon="5.582216667">
        <time>2025-07-30T13:42:41.000Z</time>
      </trkpt>
      <trkpt lat="43.159866667" lon="5.608166667">
        <time>2025-07-30T13:58:28.000Z</time>
      </trkpt>
      <trkpt lat="43.164083333" lon="5.612883333">
        <time>2025-07-30T14:02:13.000Z</time>
      </trkpt>
      <trkpt lat="43.168516667" lon="5.6166">
        <time>2025-07-30T14:05:34.000Z</time>
      </trkpt>
      <trkpt lat="43.17595" lon="5.621316667">
        <time>2025-07-30T14:13:27.000Z</time>
      </trkpt>
      <trkpt lat="43.1779" lon="5.622266667">
        <time>2025-07-30T14:15:19.000Z</time>
      </trkpt>
      <trkpt lat="43.181266667" lon="5.623083333">
        <time>2025-07-30T14:19:13.000Z</time>
      </trkpt>
      <trkpt lat="43.18115" lon="5.6227">
        <time>2025-07-30T14:20:33.000Z</time>
      </trkpt>
      <trkpt lat="43.181166667" lon="5.623116667">
        <time>2025-07-30T14:39:55.000Z</time>
      </trkpt>
    </trkseg>
  </trk>
  <trk>
    <trkseg>
      <trkpt lat="43.1812" lon="5.6231">
        <time>2025-07-30T19:39:30.000Z</time>
      </trkpt>
      <trkpt lat="43.181021333" lon="5.622807">
        <time>2025-07-31T08:51:49.000Z</time>
      </trkpt>
    </trkseg>
  </trk>
  <trk>
    <trkseg>
      <trkpt lat="43.1813" lon="5.6229">
        <time>2025-08-01T07:06:59.000Z</time>
      </trkpt>
      <trkpt lat="43.177006667" lon="5.629076667">
        <time>2025-08-01T08:02:14.000Z</time>
      </trkpt>
      <trkpt lat="43.174281667" lon="5.631455">
        <time>2025-08-01T08:04:14.000Z</time>
      </trkpt>
      <trkpt lat="43.16901" lon="5.634128333">
        <time>2025-08-01T08:08:09.000Z</time>
      </trkpt>
      <trkpt lat="43.164058333" lon="5.639368333">
        <time>2025-08-01T08:12:41.000Z</time>
      </trkpt>
      <trkpt lat="43.162735" lon="5.639886667">
        <time>2025-08-01T08:13:45.000Z</time>
      </trkpt>
      <trkpt lat="43.159981667" lon="5.639756667">
        <time>2025-08-01T08:17:41.000Z</time>
      </trkpt>
      <trkpt lat="43.155265" lon="5.643991667">
        <time>2025-08-01T08:20:47.000Z</time>
      </trkpt>
      <trkpt lat="43.143648333" lon="5.658943333">
        <time>2025-08-01T08:28:28.000Z</time>
      </trkpt>
      <trkpt lat="43.13302" lon="5.673863333">
        <time>2025-08-01T08:35:47.000Z</time>
      </trkpt>
      <trkpt lat="43.11269" lon="5.696463333">
        <time>2025-08-01T08:48:07.000Z</time>
      </trkpt>
      <trkpt lat="43.09347" lon="5.721943333">
        <time>2025-08-01T09:01:15.000Z</time>
      </trkpt>
      <trkpt lat="43.091535" lon="5.723665">
        <time>2025-08-01T09:02:27.000Z</time>
      </trkpt>
      <trkpt lat="43.088831667" lon="5.724723333">
        <time>2025-08-01T09:03:55.000Z</time>
      </trkpt>
      <trkpt lat="43.08575" lon="5.727376667">
        <time>2025-08-01T09:05:47.000Z</time>
      </trkpt>
      <trkpt lat="43.077536667" lon="5.741868333">
        <time>2025-08-01T09:13:01.000Z</time>
      </trkpt>
      <trkpt lat="43.072908333" lon="5.74793">
        <time>2025-08-01T09:16:24.000Z</time>
      </trkpt>
      <trkpt lat="43.06603" lon="5.76096">
        <time>2025-08-01T09:22:37.000Z</time>
      </trkpt>
      <trkpt lat="43.060105" lon="5.773695">
        <time>2025-08-01T09:28:09.000Z</time>
      </trkpt>
      <trkpt lat="43.056965" lon="5.779416667">
        <time>2025-08-01T09:30:42.000Z</time>
      </trkpt>
      <trkpt lat="43.055698333" lon="5.780355">
        <time>2025-08-01T09:31:22.000Z</time>
      </trkpt>
      <trkpt lat="43.05057" lon="5.790623333">
        <time>2025-08-01T09:35:48.000Z</time>
      </trkpt>
      <trkpt lat="43.044531667" lon="5.808228333">
        <time>2025-08-01T09:43:02.000Z</time>
      </trkpt>
      <trkpt lat="43.040228333" lon="5.818915">
        <time>2025-08-01T09:47:19.000Z</time>
      </trkpt>
      <trkpt lat="43.028766667" lon="5.856278333">
        <time>2025-08-01T10:01:46.000Z</time>
      </trkpt>
      <trkpt lat="43.028603333" lon="5.861328333">
        <time>2025-08-01T10:03:55.000Z</time>
      </trkpt>
      <trkpt lat="43.029038333" lon="5.865068333">
        <time>2025-08-01T10:05:23.000Z</time>
      </trkpt>
      <trkpt lat="43.02865" lon="5.881125">
        <time>2025-08-01T10:11:46.000Z</time>
      </trkpt>
      <trkpt lat="43.027013333" lon="5.895293333">
        <time>2025-08-01T10:17:14.000Z</time>
      </trkpt>
      <trkpt lat="43.025951667" lon="5.919391667">
        <time>2025-08-01T10:26:10.000Z</time>
      </trkpt>
      <trkpt lat="43.02598" lon="5.944923333">
        <time>2025-08-01T10:35:13.000Z</time>
      </trkpt>
      <trkpt lat="43.028196667" lon="5.976945">
        <time>2025-08-01T10:46:25.000Z</time>
      </trkpt>
      <trkpt lat="43.02761" lon="5.980663333">
        <time>2025-08-01T10:47:45.000Z</time>
      </trkpt>
      <trkpt lat="43.02665" lon="5.996065">
        <time>2025-08-01T10:53:15.000Z</time>
      </trkpt>
      <trkpt lat="43.025916667" lon="6.020468333">
        <time>2025-08-01T11:01:36.000Z</time>
      </trkpt>
      <trkpt lat="43.020348333" lon="6.064796667">
        <time>2025-08-01T11:17:55.000Z</time>
      </trkpt>
      <trkpt lat="43.018213333" lon="6.087101667">
        <time>2025-08-01T11:26:39.000Z</time>
      </trkpt>
      <trkpt lat="43.01655" lon="6.097273333">
        <time>2025-08-01T11:30:51.000Z</time>
      </trkpt>
      <trkpt lat="43.014701667" lon="6.128075">
        <time>2025-08-01T11:43:45.000Z</time>
      </trkpt>
      <trkpt lat="43.013395" lon="6.136996667">
        <time>2025-08-01T11:47:22.000Z</time>
      </trkpt>
      <trkpt lat="43.0132" lon="6.141588333">
        <time>2025-08-01T11:49:08.000Z</time>
      </trkpt>
      <trkpt lat="43.013666667" lon="6.14655">
        <time>2025-08-01T11:51:00.000Z</time>
      </trkpt>
      <trkpt lat="43.017648333" lon="6.155833333">
        <time>2025-08-01T11:55:00.000Z</time>
      </trkpt>
      <trkpt lat="43.027115" lon="6.172656667">
        <time>2025-08-01T12:02:40.000Z</time>
      </trkpt>
      <trkpt lat="43.028723333" lon="6.175035">
        <time>2025-08-01T12:03:53.000Z</time>
      </trkpt>
      <trkpt lat="43.031778333" lon="6.177716667">
        <time>2025-08-01T12:05:39.000Z</time>
      </trkpt>
      <trkpt lat="43.033811667" lon="6.177535">
        <time>2025-08-01T12:06:52.000Z</time>
      </trkpt>
      <trkpt lat="43.036428333" lon="6.176066667">
        <time>2025-08-01T12:09:51.000Z</time>
      </trkpt>
      <trkpt lat="43.038221667" lon="6.171268333">
        <time>2025-08-01T12:13:05.000Z</time>
      </trkpt>
      <trkpt lat="43.03857" lon="6.1684">
        <time>2025-08-01T12:14:50.000Z</time>
      </trkpt>
      <trkpt lat="43.038065" lon="6.164531667">
        <time>2025-08-01T12:17:17.000Z</time>
      </trkpt>
      <trkpt lat="43.035948333" lon="6.161383333">
        <time>2025-08-01T12:57:04.000Z</time>
      </trkpt>
    </trkseg>
  </trk>
  <trk>
    <trkseg>
      <trkpt lat="43.040466667" lon="6.17965">
        <time>2025-08-02T07:36:33.000Z</time>
      </trkpt>
      <trkpt lat="43.045783333" lon="6.2151">
        <time>2025-08-02T07:50:25.000Z</time>
      </trkpt>
      <trkpt lat="43.049933333" lon="6.2352">
        <time>2025-08-02T07:57:52.000Z</time>
      </trkpt>
      <trkpt lat="43.062916667" lon="6.2925">
        <time>2025-08-02T08:19:17.000Z</time>
      </trkpt>
      <trkpt lat="43.06905" lon="6.315183333">
        <time>2025-08-02T08:28:15.000Z</time>
      </trkpt>
      <trkpt lat="43.079216667" lon="6.3464">
        <time>2025-08-02T08:41:58.000Z</time>
      </trkpt>
      <trkpt lat="43.081933333" lon="6.359266667">
        <time>2025-08-02T08:47:35.000Z</time>
      </trkpt>
      <trkpt lat="43.084833333" lon="6.369333333">
        <time>2025-08-02T08:52:20.000Z</time>
      </trkpt>
      <trkpt lat="43.085816667" lon="6.371483333">
        <time>2025-08-02T08:53:25.000Z</time>
      </trkpt>
      <trkpt lat="43.08915" lon="6.374516667">
        <time>2025-08-02T08:55:59.000Z</time>
      </trkpt>
      <trkpt lat="43.098933333" lon="6.376683333">
        <time>2025-08-02T09:02:53.000Z</time>
      </trkpt>
      <trkpt lat="43.10085" lon="6.376483333">
        <time>2025-08-02T09:04:22.000Z</time>
      </trkpt>
      <trkpt lat="43.104916667" lon="6.372866667">
        <time>2025-08-02T09:08:19.000Z</time>
      </trkpt>
      <trkpt lat="43.106666667" lon="6.364383333">
        <time>2025-08-02T09:14:09.000Z</time>
      </trkpt>
      <trkpt lat="43.107166667" lon="6.36415">
        <time>2025-08-02T09:22:08.000Z</time>
      </trkpt>
    </trkseg>
  </trk>
  <trk>
    <trkseg>
      <trkpt lat="43.1072" lon="6.3642">
        <time>2025-08-02T09:22:28.000Z</time>
      </trkpt>
      <trkpt lat="43.106938667" lon="6.364011167">
        <time>2025-08-02T09:45:39.000Z</time>
      </trkpt>
      <trkpt lat="43.10754" lon="6.364138333">
        <time>2025-08-02T11:33:54.000Z</time>
      </trkpt>
      <trkpt lat="43.107496167" lon="6.364228">
        <time>2025-08-02T14:22:39.000Z</time>
      </trkpt>
      <trkpt lat="43.1073595" lon="6.364317">
        <time>2025-08-02T14:43:54.000Z</time>
      </trkpt>
    </trkseg>
  </trk>
  <trk>
    <trkseg>
      <trkpt lat="43.1074" lon="6.3643">
        <time>2025-08-02T14:44:05.000Z</time>
      </trkpt>
      <trkpt lat="43.1073085" lon="6.364305">
        <time>2025-08-02T14:45:09.000Z</time>
      </trkpt>
    </trkseg>
  </trk>
  <trk>
    <trkseg>
      <trkpt lat="43.10735" lon="6.364333333">
        <time>2025-08-02T14:47:38.000Z</time>
      </trkpt>
      <trkpt lat="43.107133333" lon="6.364316667">
        <time>2025-08-02T18:39:42.000Z</time>
      </trkpt>
    </trkseg>
  </trk>
  <trk>
    <trkseg>
      <trkpt lat="43.10725" lon="6.363566667">
        <time>2025-08-04T07:50:19.000Z</time>
      </trkpt>
      <trkpt lat="43.106316667" lon="6.368366667">
        <time>2025-08-04T07:59:44.000Z</time>
      </trkpt>
      <trkpt lat="43.107466667" lon="6.3731">
        <time>2025-08-04T08:02:50.000Z</time>
      </trkpt>
      <trkpt lat="43.107233333" lon="6.3739">
        <time>2025-08-04T08:03:22.000Z</time>
      </trkpt>
      <trkpt lat="43.10025" lon="6.3778">
        <time>2025-08-04T08:10:20.000Z</time>
      </trkpt>
      <trkpt lat="43.092516667" lon="6.3797">
        <time>2025-08-04T08:17:26.000Z</time>
      </trkpt>
      <trkpt lat="43.067833333" lon="6.379516667">
        <time>2025-08-04T08:37:28.000Z</time>
      </trkpt>
      <trkpt lat="43.04845" lon="6.377166667">
        <time>2025-08-04T08:53:04.000Z</time>
      </trkpt>
      <trkpt lat="43.028283333" lon="6.3705">
        <time>2025-08-04T09:10:52.000Z</time>
      </trkpt>
      <trkpt lat="43.022616667" lon="6.37035">
        <time>2025-08-04T09:15:01.000Z</time>
      </trkpt>
      <trkpt lat="43.019166667" lon="6.370683333">
        <time>2025-08-04T09:17:34.000Z</time>
      </trkpt>
      <trkpt lat="43.0177" lon="6.371416667">
        <time>2025-08-04T09:19:26.000Z</time>
      </trkpt>
      <trkpt lat="43.011866667" lon="6.371316667">
        <time>2025-08-04T09:24:09.000Z</time>
      </trkpt>
      <trkpt lat="43.008633333" lon="6.3734">
        <time>2025-08-04T09:26:35.000Z</time>
      </trkpt>
      <trkpt lat="43.0072" lon="6.376066667">
        <time>2025-08-04T09:28:44.000Z</time>
      </trkpt>
      <trkpt lat="43.006933333" lon="6.375033333">
        <time>2025-08-04T09:29:41.000Z</time>
      </trkpt>
      <trkpt lat="43.007433333" lon="6.375016667">
        <time>2025-08-04T11:04:18.000Z</time>
      </trkpt>
    </trkseg>
  </trk>
  <trk>
    <trkseg>
      <trkpt lat="43.005" lon="6.3716">
        <time>2025-08-05T15:05:22.000Z</time>
      </trkpt>
      <trkpt lat="43.005283333" lon="6.37245">
        <time>2025-08-05T15:28:10.000Z</time>
      </trkpt>
      <trkpt lat="43.01435" lon="6.37925">
        <time>2025-08-05T15:36:08.000Z</time>
      </trkpt>
      <trkpt lat="43.01545" lon="6.380816667">
        <time>2025-08-05T15:37:28.000Z</time>
      </trkpt>
      <trkpt lat="43.017616667" lon="6.387233333">
        <time>2025-08-05T15:41:38.000Z</time>
      </trkpt>
      <trkpt lat="43.02155" lon="6.405583333">
        <time>2025-08-05T15:51:57.000Z</time>
      </trkpt>
      <trkpt lat="43.021733333" lon="6.408683333">
        <time>2025-08-05T15:53:33.000Z</time>
      </trkpt>
      <trkpt lat="43.02115" lon="6.41285">
        <time>2025-08-05T15:55:58.000Z</time>
      </trkpt>
      <trkpt lat="43.018283333" lon="6.416816667">
        <time>2025-08-05T15:59:23.000Z</time>
      </trkpt>
      <trkpt lat="43.016416667" lon="6.41725">
        <time>2025-08-05T16:01:38.000Z</time>
      </trkpt>
      <trkpt lat="43.013083333" lon="6.414283333">
        <time>2025-08-05T16:06:39.000Z</time>
      </trkpt>
      <trkpt lat="43.013388333" lon="6.414405">
        <time>2025-08-05T16:14:50.000Z</time>
      </trkpt>
    </trkseg>
  </trk>
  <trk>
    <trkseg>
      <trkpt lat="43.01332" lon="6.414449667">
        <time>2025-08-05T19:05:28.000Z</time>
      </trkpt>
      <trkpt lat="43.012711833" lon="6.414039167">
        <time>2025-08-05T23:59:36.000Z</time>
      </trkpt>
    </trkseg>
  </trk>
  <trk>
    <trkseg>
      <trkpt lat="43.01275" lon="6.41385">
        <time>2025-08-06T08:10:38.000Z</time>
      </trkpt>
      <trkpt lat="43.014583333" lon="6.415766667">
        <time>2025-08-06T09:06:20.000Z</time>
      </trkpt>
      <trkpt lat="43.016483333" lon="6.416166667">
        <time>2025-08-06T09:08:20.000Z</time>
      </trkpt>
      <trkpt lat="43.02155" lon="6.413766667">
        <time>2025-08-06T09:12:20.000Z</time>
      </trkpt>
      <trkpt lat="43.022283333" lon="6.412766667">
        <time>2025-08-06T09:13:16.000Z</time>
      </trkpt>
      <trkpt lat="43.023316667" lon="6.40855">
        <time>2025-08-06T09:16:04.000Z</time>
      </trkpt>
      <trkpt lat="43.024483333" lon="6.386133333">
        <time>2025-08-06T09:32:28.000Z</time>
      </trkpt>
      <trkpt lat="43.0254" lon="6.353183333">
        <time>2025-08-06T09:54:33.000Z</time>
      </trkpt>
      <trkpt lat="43.02865" lon="6.2947">
        <time>2025-08-06T10:29:59.000Z</time>
      </trkpt>
      <trkpt lat="43.029866667" lon="6.281966667">
        <time>2025-08-06T10:38:18.000Z</time>
      </trkpt>
      <trkpt lat="43.03235" lon="6.240683333">
        <time>2025-08-06T11:05:04.000Z</time>
      </trkpt>
      <trkpt lat="43.030766667" lon="6.237083333">
        <time>2025-08-06T11:07:20.000Z</time>
      </trkpt>
      <trkpt lat="43.022833333" lon="6.230933333">
        <time>2025-08-06T11:16:03.000Z</time>
      </trkpt>
      <trkpt lat="43.013383333" lon="6.228183333">
        <time>2025-08-06T11:24:02.000Z</time>
      </trkpt>
      <trkpt lat="43.011966667" lon="6.229283333">
        <time>2025-08-06T11:26:36.000Z</time>
      </trkpt>
      <trkpt lat="43.012295667" lon="6.228177833">
        <time>2025-08-06T12:50:22.000Z</time>
      </trkpt>
    </trkseg>
  </trk>
  <trk>
    <trkseg>
      <trkpt lat="43.012066667" lon="6.22805">
        <time>2025-08-07T07:11:03.000Z</time>
      </trkpt>
      <trkpt lat="43.014066667" lon="6.226666667">
        <time>2025-08-07T07:17:36.000Z</time>
      </trkpt>
      <trkpt lat="43.015466667" lon="6.224783333">
        <time>2025-08-07T07:19:13.000Z</time>
      </trkpt>
      <trkpt lat="43.016416667" lon="6.220333333">
        <time>2025-08-07T07:21:37.000Z</time>
      </trkpt>
      <trkpt lat="43.016433333" lon="6.2159">
        <time>2025-08-07T07:23:45.000Z</time>
      </trkpt>
      <trkpt lat="43.01535" lon="6.213533333">
        <time>2025-08-07T07:25:05.000Z</time>
      </trkpt>
      <trkpt lat="43.013416667" lon="6.211266667">
        <time>2025-08-07T07:26:41.000Z</time>
      </trkpt>
      <trkpt lat="43.0079" lon="6.206566667">
        <time>2025-08-07T07:31:05.000Z</time>
      </trkpt>
      <trkpt lat="43.004483333" lon="6.20605">
        <time>2025-08-07T07:33:37.000Z</time>
      </trkpt>
      <trkpt lat="43.00355" lon="6.208533333">
        <time>2025-08-07T09:32:10.000Z</time>
      </trkpt>
    </trkseg>
  </trk>
  <trk>
    <trkseg>
      <trkpt lat="43.00385" lon="6.208816667">
        <time>2025-08-09T15:08:57.000Z</time>
      </trkpt>
      <trkpt lat="43.0054" lon="6.20785">
        <time>2025-08-09T15:17:53.000Z</time>
      </trkpt>
      <trkpt lat="43.00665" lon="6.20615">
        <time>2025-08-09T15:19:38.000Z</time>
      </trkpt>
      <trkpt lat="43.006316667" lon="6.205116667">
        <time>2025-08-09T15:21:00.000Z</time>
      </trkpt>
      <trkpt lat="43.009333333" lon="6.203883333">
        <time>2025-08-09T15:23:49.000Z</time>
      </trkpt>
      <trkpt lat="43.012283333" lon="6.201316667">
        <time>2025-08-09T15:26:06.000Z</time>
      </trkpt>
      <trkpt lat="43.033416667" lon="6.17855">
        <time>2025-08-09T15:41:00.000Z</time>
      </trkpt>
      <trkpt lat="43.038033333" lon="6.171416667">
        <time>2025-08-09T15:44:56.000Z</time>
      </trkpt>
      <trkpt lat="43.0406" lon="6.163633333">
        <time>2025-08-09T15:49:53.000Z</time>
      </trkpt>
      <trkpt lat="43.04045" lon="6.159533333">
        <time>2025-08-09T15:54:12.000Z</time>
      </trkpt>
      <trkpt lat="43.04235" lon="6.1567">
        <time>2025-08-09T15:56:37.000Z</time>
      </trkpt>
      <trkpt lat="43.04235" lon="6.155466667">
        <time>2025-08-09T16:59:04.000Z</time>
      </trkpt>
    </trkseg>
  </trk>
  <trk>
    <trkseg>
      <trkpt lat="43.018466667" lon="6.174166667">
        <time>2025-08-10T12:46:41.000Z</time>
      </trkpt>
      <trkpt lat="43.018383333" lon="6.17415">
        <time>2025-08-10T12:46:45.000Z</time>
      </trkpt>
    </trkseg>
  </trk>
  <trk>
    <trkseg>
      <trkpt lat="43.018283333" lon="6.174133333">
        <time>2025-08-10T12:46:49.000Z</time>
      </trkpt>
      <trkpt lat="43.0118" lon="6.1719">
        <time>2025-08-10T12:51:54.000Z</time>
      </trkpt>
      <trkpt lat="43.017266667" lon="6.150416667">
        <time>2025-08-10T13:05:37.000Z</time>
      </trkpt>
      <trkpt lat="43.008383333" lon="6.1472">
        <time>2025-08-10T13:12:13.000Z</time>
      </trkpt>
      <trkpt lat="43.02395" lon="6.099266667">
        <time>2025-08-10T13:43:43.000Z</time>
      </trkpt>
      <trkpt lat="43.0278" lon="6.09065">
        <time>2025-08-10T13:49:38.000Z</time>
      </trkpt>
      <trkpt lat="43.030866667" lon="6.081733333">
        <time>2025-08-10T13:54:30.000Z</time>
      </trkpt>
      <trkpt lat="43.034333333" lon="6.069733333">
        <time>2025-08-10T14:00:48.000Z</time>
      </trkpt>
      <trkpt lat="43.04" lon="6.0411">
        <time>2025-08-10T14:16:19.000Z</time>
      </trkpt>
      <trkpt lat="43.053816667" lon="5.980416667">
        <time>2025-08-10T14:46:25.000Z</time>
      </trkpt>
      <trkpt lat="43.055516667" lon="5.968916667">
        <time>2025-08-10T14:51:33.000Z</time>
      </trkpt>
      <trkpt lat="43.05765" lon="5.94165">
        <time>2025-08-10T15:03:34.000Z</time>
      </trkpt>
      <trkpt lat="43.0617" lon="5.915033333">
        <time>2025-08-10T15:15:23.000Z</time>
      </trkpt>
      <trkpt lat="43.063483333" lon="5.8983">
        <time>2025-08-10T15:22:39.000Z</time>
      </trkpt>
      <trkpt lat="43.06395" lon="5.888616667">
        <time>2025-08-10T15:26:57.000Z</time>
      </trkpt>
      <trkpt lat="43.0633" lon="5.874966667">
        <time>2025-08-10T15:34:06.000Z</time>
      </trkpt>
      <trkpt lat="43.062083333" lon="5.874183333">
        <time>2025-08-10T15:35:51.000Z</time>
      </trkpt>
      <trkpt lat="43.056566667" lon="5.864316667">
        <time>2025-08-10T15:44:26.000Z</time>
      </trkpt>
      <trkpt lat="43.056883333" lon="5.86475">
        <time>2025-08-10T15:59:35.000Z</time>
      </trkpt>
    </trkseg>
  </trk>
  <trk>
    <trkseg>
      <trkpt lat="43.057383333" lon="5.864416667">
        <time>2025-08-11T09:26:14.000Z</time>
      </trkpt>
      <trkpt lat="43.057166667" lon="5.86485">
        <time>2025-08-11T09:33:49.000Z</time>
      </trkpt>
    </trkseg>
  </trk>
  <trk>
    <trkseg>
      <trkpt lat="43.057166667" lon="5.86485">
        <time>2025-08-11T09:33:58.000Z</time>
      </trkpt>
      <trkpt lat="43.057166667" lon="5.864866667">
        <time>2025-08-11T09:34:05.000Z</time>
      </trkpt>
    </trkseg>
  </trk>
  <trk>
    <trkseg>
      <trkpt lat="43.057166667" lon="5.864866667">
        <time>2025-08-11T09:34:06.000Z</time>
      </trkpt>
      <trkpt lat="43.050266667" lon="5.8651">
        <time>2025-08-11T09:43:50.000Z</time>
      </trkpt>
      <trkpt lat="43.046066667" lon="5.862283333">
        <time>2025-08-11T09:46:54.000Z</time>
      </trkpt>
      <trkpt lat="43.043383333" lon="5.858066667">
        <time>2025-08-11T09:49:34.000Z</time>
      </trkpt>
      <trkpt lat="43.042816667" lon="5.8556">
        <time>2025-08-11T09:50:47.000Z</time>
      </trkpt>
      <trkpt lat="43.042833333" lon="5.8527">
        <time>2025-08-11T09:52:07.000Z</time>
      </trkpt>
      <trkpt lat="43.044266667" lon="5.836033333">
        <time>2025-08-11T10:00:24.000Z</time>
      </trkpt>
      <trkpt lat="43.046816667" lon="5.82585">
        <time>2025-08-11T10:05:23.000Z</time>
      </trkpt>
      <trkpt lat="43.053316667" lon="5.809983333">
        <time>2025-08-11T10:13:58.000Z</time>
      </trkpt>
      <trkpt lat="43.05725" lon="5.803516667">
        <time>2025-08-11T10:17:52.000Z</time>
      </trkpt>
      <trkpt lat="43.06735" lon="5.779233333">
        <time>2025-08-11T10:31:10.000Z</time>
      </trkpt>
      <trkpt lat="43.070083333" lon="5.775333333">
        <time>2025-08-11T10:33:42.000Z</time>
      </trkpt>
      <trkpt lat="43.074433333" lon="5.772616667">
        <time>2025-08-11T10:36:47.000Z</time>
      </trkpt>
      <trkpt lat="43.076866667" lon="5.77245">
        <time>2025-08-11T10:38:23.000Z</time>
      </trkpt>
      <trkpt lat="43.080833333" lon="5.773516667">
        <time>2025-08-11T10:41:03.000Z</time>
      </trkpt>
      <trkpt lat="43.08485" lon="5.7726">
        <time>2025-08-11T10:43:28.000Z</time>
      </trkpt>
      <trkpt lat="43.110033333" lon="5.76405">
        <time>2025-08-11T10:58:34.000Z</time>
      </trkpt>
      <trkpt lat="43.115983333" lon="5.761333333">
        <time>2025-08-11T11:02:11.000Z</time>
      </trkpt>
      <trkpt lat="43.1207" lon="5.762066667">
        <time>2025-08-11T11:04:54.000Z</time>
      </trkpt>
      <trkpt lat="43.135416667" lon="5.770866667">
        <time>2025-08-11T12:52:07.000Z</time>
      </trkpt>
    </trkseg>
  </trk>
  <trk>
    <trkseg>
      <trkpt lat="43.1354" lon="5.7708">
        <time>2025-08-11T15:48:18.000Z</time>
      </trkpt>
      <trkpt lat="43.1354" lon="5.7708">
        <time>2025-08-11T15:50:07.000Z</time>
      </trkpt>
    </trkseg>
  </trk>
  <trk>
    <trkseg>
      <trkpt lat="43.1354" lon="5.7708">
        <time>2025-08-11T15:50:09.000Z</time>
      </trkpt>
      <trkpt lat="43.135383333" lon="5.7708">
        <time>2025-08-11T15:50:13.000Z</time>
      </trkpt>
    </trkseg>
  </trk>
  <trk>
    <trkseg>
      <trkpt lat="43.135383333" lon="5.7708">
        <time>2025-08-11T15:50:15.000Z</time>
      </trkpt>
      <trkpt lat="43.12665" lon="5.755516667">
        <time>2025-08-11T16:02:46.000Z</time>
      </trkpt>
      <trkpt lat="43.124966667" lon="5.750216667">
        <time>2025-08-11T16:05:42.000Z</time>
      </trkpt>
      <trkpt lat="43.125483333" lon="5.746366667">
        <time>2025-08-11T16:07:34.000Z</time>
      </trkpt>
      <trkpt lat="43.131766667" lon="5.724883333">
        <time>2025-08-11T16:17:59.000Z</time>
      </trkpt>
      <trkpt lat="43.140633333" lon="5.699883333">
        <time>2025-08-11T16:30:22.000Z</time>
      </trkpt>
      <trkpt lat="43.142283333" lon="5.694116667">
        <time>2025-08-11T16:33:03.000Z</time>
      </trkpt>
      <trkpt lat="43.143266667" lon="5.691766667">
        <time>2025-08-11T16:34:15.000Z</time>
      </trkpt>
      <trkpt lat="43.150266667" lon="5.68355">
        <time>2025-08-11T16:39:52.000Z</time>
      </trkpt>
      <trkpt lat="43.15615" lon="5.680066667">
        <time>2025-08-11T16:43:46.000Z</time>
      </trkpt>
      <trkpt lat="43.160783333" lon="5.680133333">
        <time>2025-08-11T16:46:34.000Z</time>
      </trkpt>
      <trkpt lat="43.163" lon="5.681666667">
        <time>2025-08-11T16:48:02.000Z</time>
      </trkpt>
      <trkpt lat="43.166666667" lon="5.6863">
        <time>2025-08-11T16:50:58.000Z</time>
      </trkpt>
      <trkpt lat="43.168066667" lon="5.6898">
        <time>2025-08-11T16:52:44.000Z</time>
      </trkpt>
      <trkpt lat="43.167716667" lon="5.691783333">
        <time>2025-08-11T16:54:04.000Z</time>
      </trkpt>
      <trkpt lat="43.168" lon="5.691716667">
        <time>2025-08-11T17:16:46.000Z</time>
      </trkpt>
    </trkseg>
  </trk>
  <trk>
    <trkseg>
      <trkpt lat="43.1681" lon="5.691833333">
        <time>2025-08-12T10:35:48.000Z</time>
      </trkpt>
      <trkpt lat="43.167266667" lon="5.685066667">
        <time>2025-08-12T11:09:33.000Z</time>
      </trkpt>
      <trkpt lat="43.1657" lon="5.6794">
        <time>2025-08-12T11:13:34.000Z</time>
      </trkpt>
      <trkpt lat="43.164633333" lon="5.668916667">
        <time>2025-08-12T11:21:35.000Z</time>
      </trkpt>
      <trkpt lat="43.163383333" lon="5.6638">
        <time>2025-08-12T11:26:07.000Z</time>
      </trkpt>
      <trkpt lat="43.156916667" lon="5.642666667">
        <time>2025-08-12T11:46:40.000Z</time>
      </trkpt>
      <trkpt lat="43.157233333" lon="5.634766667">
        <time>2025-08-12T11:52:40.000Z</time>
      </trkpt>
      <trkpt lat="43.15855" lon="5.62755">
        <time>2025-08-12T11:57:05.000Z</time>
      </trkpt>
      <trkpt lat="43.149566667" lon="5.6264">
        <time>2025-08-12T12:06:50.000Z</time>
      </trkpt>
      <trkpt lat="43.155733333" lon="5.611033333">
        <time>2025-08-12T12:20:22.000Z</time>
      </trkpt>
      <trkpt lat="43.159" lon="5.60515">
        <time>2025-08-12T12:25:51.000Z</time>
      </trkpt>
      <trkpt lat="43.1501" lon="5.598033333">
        <time>2025-08-12T12:35:24.000Z</time>
      </trkpt>
      <trkpt lat="43.156483333" lon="5.58895">
        <time>2025-08-12T12:46:40.000Z</time>
      </trkpt>
      <trkpt lat="43.172416667" lon="5.571766667">
        <time>2025-08-12T13:13:20.000Z</time>
      </trkpt>
      <trkpt lat="43.17015" lon="5.569716667">
        <time>2025-08-12T13:17:56.000Z</time>
      </trkpt>
      <trkpt lat="43.1618" lon="5.565566667">
        <time>2025-08-12T13:32:00.000Z</time>
      </trkpt>
      <trkpt lat="43.164083333" lon="5.562866667">
        <time>2025-08-12T13:38:42.000Z</time>
      </trkpt>
      <trkpt lat="43.1663" lon="5.558166667">
        <time>2025-08-12T13:47:01.000Z</time>
      </trkpt>
      <trkpt lat="43.170333333" lon="5.54385">
        <time>2025-08-12T14:09:08.000Z</time>
      </trkpt>
      <trkpt lat="43.190633333" lon="5.502516667">
        <time>2025-08-12T14:33:03.000Z</time>
      </trkpt>
      <trkpt lat="43.196683333" lon="5.488016667">
        <time>2025-08-12T14:40:51.000Z</time>
      </trkpt>
      <trkpt lat="43.200833333" lon="5.4762">
        <time>2025-08-12T14:46:57.000Z</time>
      </trkpt>
      <trkpt lat="43.202816667" lon="5.464283333">
        <time>2025-08-12T14:52:39.000Z</time>
      </trkpt>
      <trkpt lat="43.2071" lon="5.44875">
        <time>2025-08-12T15:02:37.000Z</time>
      </trkpt>
      <trkpt lat="43.206783333" lon="5.44875">
        <time>2025-08-12T16:09:27.000Z</time>
      </trkpt>
    </trkseg>
  </trk>
  <trk>
    <trkseg>
      <trkpt lat="43.2066" lon="5.448866667">
        <time>2025-08-13T16:55:02.000Z</time>
      </trkpt>
      <trkpt lat="43.2067" lon="5.44885">
        <time>2025-08-13T16:57:22.000Z</time>
      </trkpt>
    </trkseg>
  </trk>
  <trk>
    <trkseg>
      <trkpt lat="43.2067" lon="5.448833333">
        <time>2025-08-13T16:57:25.000Z</time>
      </trkpt>
      <trkpt lat="43.206683333" lon="5.448833333">
        <time>2025-08-13T16:57:26.000Z</time>
      </trkpt>
    </trkseg>
  </trk>
  <trk>
    <trkseg>
      <trkpt lat="43.206683333" lon="5.448833333">
        <time>2025-08-13T16:57:28.000Z</time>
      </trkpt>
      <trkpt lat="43.206983333" lon="5.449483333">
        <time>2025-08-13T17:02:45.000Z</time>
      </trkpt>
      <trkpt lat="43.205233333" lon="5.453333333">
        <time>2025-08-13T17:05:36.000Z</time>
      </trkpt>
      <trkpt lat="43.2033" lon="5.455583333">
        <time>2025-08-13T17:07:14.000Z</time>
      </trkpt>
      <trkpt lat="43.201916667" lon="5.455133333">
        <time>2025-08-13T17:08:10.000Z</time>
      </trkpt>
      <trkpt lat="43.200266667" lon="5.452166667">
        <time>2025-08-13T17:09:55.000Z</time>
      </trkpt>
      <trkpt lat="43.200233333" lon="5.445783333">
        <time>2025-08-13T17:12:53.000Z</time>
      </trkpt>
      <trkpt lat="43.20095" lon="5.439433333">
        <time>2025-08-13T17:15:52.000Z</time>
      </trkpt>
      <trkpt lat="43.202316667" lon="5.415066667">
        <time>2025-08-13T17:27:09.000Z</time>
      </trkpt>
      <trkpt lat="43.204333333" lon="5.369066667">
        <time>2025-08-13T17:48:40.000Z</time>
      </trkpt>
      <trkpt lat="43.205816667" lon="5.360766667">
        <time>2025-08-13T17:53:05.000Z</time>
      </trkpt>
      <trkpt lat="43.207633333" lon="5.354183333">
        <time>2025-08-13T17:56:28.000Z</time>
      </trkpt>
      <trkpt lat="43.212933333" lon="5.339633333">
        <time>2025-08-13T18:04:28.000Z</time>
      </trkpt>
      <trkpt lat="43.21355" lon="5.335983333">
        <time>2025-08-13T18:07:11.000Z</time>
      </trkpt>
      <trkpt lat="43.215583333" lon="5.333366667">
        <time>2025-08-13T18:09:13.000Z</time>
      </trkpt>
      <trkpt lat="43.217733333" lon="5.332">
        <time>2025-08-13T18:10:49.000Z</time>
      </trkpt>
      <trkpt lat="43.227366667" lon="5.339183333">
        <time>2025-08-13T18:17:34.000Z</time>
      </trkpt>
      <trkpt lat="43.244583333" lon="5.357166667">
        <time>2025-08-13T18:30:27.000Z</time>
      </trkpt>
      <trkpt lat="43.2461" lon="5.359466667">
        <time>2025-08-13T18:31:49.000Z</time>
      </trkpt>
      <trkpt lat="43.2473" lon="5.362783333">
        <time>2025-08-13T18:33:27.000Z</time>
      </trkpt>
      <trkpt lat="43.247083333" lon="5.366466667">
        <time>2025-08-13T18:35:21.000Z</time>
      </trkpt>
      <trkpt lat="43.246616667" lon="5.36685">
        <time>2025-08-13T18:36:50.000Z</time>
      </trkpt>
      <trkpt lat="43.24705" lon="5.3674">
        <time>2025-08-13T19:50:53.000Z</time>
      </trkpt>
      <trkpt lat="43.2469" lon="5.3654">
        <time>2025-08-13T19:53:11.000Z</time>
      </trkpt>
      <trkpt lat="43.244816667" lon="5.363966667">
        <time>2025-08-13T19:56:24.000Z</time>
      </trkpt>
      <trkpt lat="43.246816667" lon="5.36535">
        <time>2025-08-13T20:19:35.000Z</time>
      </trkpt>
      <trkpt lat="43.24685" lon="5.367016667">
        <time>2025-08-13T20:23:45.000Z</time>
      </trkpt>
    </trkseg>
  </trk>
  <trk>
    <trkseg>
      <trkpt lat="43.247099167" lon="5.366840667">
        <time>2025-08-14T10:04:52.000Z</time>
      </trkpt>
      <trkpt lat="43.247135333" lon="5.367315167">
        <time>2025-08-14T10:10:12.000Z</time>
      </trkpt>
      <trkpt lat="43.248031167" lon="5.364563">
        <time>2025-08-14T10:12:04.000Z</time>
      </trkpt>
      <trkpt lat="43.249765" lon="5.347445">
        <time>2025-08-14T10:20:38.000Z</time>
      </trkpt>
      <trkpt lat="43.252306667" lon="5.330448333">
        <time>2025-08-14T10:27:59.000Z</time>
      </trkpt>
      <trkpt lat="43.252311667" lon="5.32404">
        <time>2025-08-14T10:30:15.000Z</time>
      </trkpt>
      <trkpt lat="43.254066667" lon="5.307783333">
        <time>2025-08-14T10:36:16.000Z</time>
      </trkpt>
      <trkpt lat="43.25525" lon="5.301248333">
        <time>2025-08-14T10:40:56.000Z</time>
      </trkpt>
      <trkpt lat="43.257611667" lon="5.292795">
        <time>2025-08-14T10:46:48.000Z</time>
      </trkpt>
      <trkpt lat="43.258078333" lon="5.288903333">
        <time>2025-08-14T10:48:49.000Z</time>
      </trkpt>
      <trkpt lat="43.267006667" lon="5.276531667">
        <time>2025-08-14T10:59:30.000Z</time>
      </trkpt>
      <trkpt lat="43.278433333" lon="5.255426667">
        <time>2025-08-14T11:12:29.000Z</time>
      </trkpt>
    </trkseg>
  </trk>
  <trk>
    <trkseg>
      <trkpt lat="43.283666667" lon="5.246316667">
        <time>2025-08-14T11:19:44.000Z</time>
      </trkpt>
      <trkpt lat="43.298183333" lon="5.220183333">
        <time>2025-08-14T11:40:27.000Z</time>
      </trkpt>
      <trkpt lat="43.3002" lon="5.215233333">
        <time>2025-08-14T11:45:56.000Z</time>
      </trkpt>
      <trkpt lat="43.306966667" lon="5.210866667">
        <time>2025-08-14T11:57:22.000Z</time>
      </trkpt>
      <trkpt lat="43.321216667" lon="5.1924">
        <time>2025-08-14T12:11:24.000Z</time>
      </trkpt>
      <trkpt lat="43.3286" lon="5.178266667">
        <time>2025-08-14T12:19:56.000Z</time>
      </trkpt>
      <trkpt lat="43.331433333" lon="5.176283333">
        <time>2025-08-14T12:33:04.000Z</time>
      </trkpt>
    </trkseg>
  </trk>
  <trk>
    <trkseg>
      <trkpt lat="43.330866667" lon="5.176091667">
        <time>2025-08-14T21:16:45.000Z</time>
      </trkpt>
      <trkpt lat="43.330843333" lon="5.176028333">
        <time>2025-08-15T07:09:10.000Z</time>
      </trkpt>
    </trkseg>
  </trk>
  <trk>
    <trkseg>
      <trkpt lat="43.330828333" lon="5.176028333">
        <time>2025-08-16T07:21:47.000Z</time>
      </trkpt>
      <trkpt lat="43.331166667" lon="5.17641">
        <time>2025-08-16T07:40:50.000Z</time>
      </trkpt>
      <trkpt lat="43.326583333" lon="5.17208">
        <time>2025-08-16T07:45:15.000Z</time>
      </trkpt>
      <trkpt lat="43.323546667" lon="5.16344">
        <time>2025-08-16T07:53:37.000Z</time>
      </trkpt>
      <trkpt lat="43.323148333" lon="5.127601667">
        <time>2025-08-16T08:22:51.000Z</time>
      </trkpt>
    </trkseg>
  </trk>
  <trk>
    <trkseg>
      <trkpt lat="43.323146667" lon="5.127443333">
        <time>2025-08-16T08:22:56.000Z</time>
      </trkpt>
      <trkpt lat="43.323148333" lon="5.127348333">
        <time>2025-08-16T08:22:59.000Z</time>
      </trkpt>
    </trkseg>
  </trk>
  <trk>
    <trkseg>
      <trkpt lat="43.323148333" lon="5.127285">
        <time>2025-08-16T08:23:01.000Z</time>
      </trkpt>
      <trkpt lat="43.322625" lon="5.08841">
        <time>2025-08-16T08:43:29.000Z</time>
      </trkpt>
      <trkpt lat="43.321113333" lon="5.061353333">
        <time>2025-08-16T08:55:58.000Z</time>
      </trkpt>
      <trkpt lat="43.32185" lon="5.044151667">
        <time>2025-08-16T09:04:15.000Z</time>
      </trkpt>
      <trkpt lat="43.319298333" lon="5.034043333">
        <time>2025-08-16T09:11:12.000Z</time>
      </trkpt>
      <trkpt lat="43.317896667" lon="5.026418333">
        <time>2025-08-16T09:15:31.000Z</time>
      </trkpt>
      <trkpt lat="43.317213333" lon="5.01756">
        <time>2025-08-16T09:20:16.000Z</time>
      </trkpt>
      <trkpt lat="43.31795" lon="5.00563">
        <time>2025-08-16T09:26:09.000Z</time>
      </trkpt>
      <trkpt lat="43.321701667" lon="4.986926667">
        <time>2025-08-16T09:37:56.000Z</time>
      </trkpt>
      <trkpt lat="43.324428333" lon="4.97598">
        <time>2025-08-16T09:46:38.000Z</time>
      </trkpt>
      <trkpt lat="43.324408333" lon="4.967758333">
        <time>2025-08-16T09:54:28.000Z</time>
      </trkpt>
      <trkpt lat="43.328766667" lon="4.968928333">
        <time>2025-08-16T09:58:29.000Z</time>
      </trkpt>
      <trkpt lat="43.351858333" lon="4.971985">
        <time>2025-08-16T10:15:47.000Z</time>
      </trkpt>
      <trkpt lat="43.371538333" lon="4.97568">
        <time>2025-08-16T10:31:02.000Z</time>
      </trkpt>
      <trkpt lat="43.393586667" lon="4.983388333">
        <time>2025-08-16T10:53:24.000Z</time>
      </trkpt>
      <trkpt lat="43.402903333" lon="4.994926667">
        <time>2025-08-16T11:01:55.000Z</time>
      </trkpt>
      <trkpt lat="43.403" lon="5.00499">
        <time>2025-08-16T11:07:03.000Z</time>
      </trkpt>
      <trkpt lat="43.402133333" lon="5.033683333">
        <time>2025-08-16T11:21:24.000Z</time>
      </trkpt>
      <trkpt lat="43.40024" lon="5.035451667">
        <time>2025-08-16T11:32:17.000Z</time>
      </trkpt>
    </trkseg>
  </trk>
</gpx>
