<?xml version="1.0" encoding="UTF-8"?>
<gpx version="1.1" creator="KML2GPX from gpstraces.net" schemaLocation="http://www.topografix.com/GPX/1/1 http://www.topografix.com/GPX/1/1/gpx.xsd" xmlns="http://www.topografix.com/GPX/1/1" xmlns:xsi="http://www.w3.org/2001/XMLSchema-instance" xsi:schemaLocation="http://www.topografix.com/GPX/1/1 http://www.topografix.com/GPX/1/1/gpx.xsd http://www.garmin.com/xmlschemas/GpxExtensions/v3 http://www.garmin.com/xmlschemas/GpxExtensionsv3.xsd http://www.garmin.com/xmlschemas/TrackPointExtension/v1 http://www.garmin.com/xmlschemas/TrackPointExtensionv1.xsd http://www.garmin.com/xmlschemas/PowerExtension/v1 http://www.garmin.com/xmlschemas/PowerExtensionv1.xsd http://www.topografix.com/GPX/gpx_style/0/2 http://www.topografix.com/GPX/gpx_style/0/2/gpx_style.xsd" xmlns:gpxtpx="http://www.garmin.com/xmlschemas/TrackPointExtension/v1" xmlns:gpxx="http://www.garmin.com/xmlschemas/GpxExtensions/v3" xmlns:gpxpx="http://www.garmin.com/xmlschemas/PowerExtension/v1" xmlns:gpx_style="http://www.topografix.com/GPX/gpx_style/0/2">
  <metadata>
    <name>juillet 2022</name>
    <author>
      <name>gpx.studio</name>
      <link href="https://gpx.studio"/>
    </author>
    <link href="https://gpstraces.net/affichage-conversion-trace-kml-gpx-kml2gpx-on-line">
      <text>Fichier créé avec le convertisseur KML2GPX de Gpstraces.net, un site de  partage de traces GPS de randonnées, de photos - Cartes GPS routables avec lignes de niveau gratuites - Création en ligne d&apos;un parcours aux formats GPX/KML avec suivi de route, calcul de l&apos;IBP, horodatage et altitude.</text>
    </link>
  </metadata>
<trk>
    <name>2022-07-11</name>
    <trkseg>
      <trkpt lat="38.340998787" lon="23.723335088">
        <ele>0</ele>
        <time>2022-07-11T06:00:00.000Z</time>
      </trkpt>
      <trkpt lat="38.346534105" lon="23.740723448">
        <ele>0</ele>
        <time>2022-07-11T06:09:49.175Z</time>
      </trkpt>
      <trkpt lat="38.340276758" lon="23.81344771">
        <ele>0</ele>
        <time>2022-07-11T06:48:06.123Z</time>
      </trkpt>
      <trkpt lat="38.303862111" lon="23.963242702">
        <ele>0</ele>
        <time>2022-07-11T08:10:11.130Z</time>
      </trkpt>
      <trkpt lat="38.20317424" lon="24.084993951">
        <ele>0</ele>
        <time>2022-07-11T09:42:49.290Z</time>
      </trkpt>
      <trkpt lat="38.154124351" lon="24.087657259">
        <ele>0</ele>
        <time>2022-07-11T10:15:34.556Z</time>
      </trkpt>
      <trkpt lat="37.767467488" lon="24.108339138">
        <ele>0</ele>
        <time>2022-07-11T14:33:46.277Z</time>
      </trkpt>
      <trkpt lat="37.677614334" lon="24.075566325">
        <ele>0</ele>
        <time>2022-07-11T15:36:09.815Z</time>
      </trkpt>
      <trkpt lat="37.645994049" lon="24.031818998">
        <ele>0</ele>
        <time>2022-07-11T16:07:27.058Z</time>
      </trkpt>
      <trkpt lat="37.649142992" lon="24.017121279">
        <ele>0</ele>
        <time>2022-07-11T16:15:29.659Z</time>
      </trkpt>
      <trkpt lat="37.65325011" lon="24.01954208">
        <ele>0</ele>
        <time>2022-07-11T16:18:31.089Z</time>
      </trkpt>
    </trkseg>
  </trk>
  <trk>
    <name>2022-07-12</name>
    <trkseg>
      <trkpt lat="37.653598" lon="24.017764">
        <ele>0</ele>
        <time>2022-07-12T06:00:00.000Z</time>
      </trkpt>
      <trkpt lat="37.6499734" lon="24.0146375">
        <ele>0</ele>
        <time>2022-07-12T06:02:55.701Z</time>
      </trkpt>
      <trkpt lat="37.6553661" lon="23.9656187">
        <ele>0</ele>
        <time>2022-07-12T06:29:04.183Z</time>
      </trkpt>
      <trkpt lat="37.6604048" lon="23.9486463">
        <ele>0</ele>
        <time>2022-07-12T06:38:38.627Z</time>
      </trkpt>
      <trkpt lat="37.7862815" lon="23.5686976">
        <ele>0</ele>
        <time>2022-07-12T10:16:01.530Z</time>
      </trkpt>
      <trkpt lat="37.8303986" lon="23.3382911">
        <ele>0</ele>
        <time>2022-07-12T12:20:59.429Z</time>
      </trkpt>
      <trkpt lat="37.8873262" lon="23.1349912">
        <ele>0</ele>
        <time>2022-07-12T14:14:36.837Z</time>
      </trkpt>
      <trkpt lat="37.9162569" lon="23.0091758">
        <ele>0</ele>
        <time>2022-07-12T15:23:36.204Z</time>
      </trkpt>
      <trkpt lat="37.9553249" lon="22.9539188">
        <ele>0</ele>
        <time>2022-07-12T16:02:39.128Z</time>
      </trkpt>
      <trkpt lat="37.9416241" lon="22.9359999">
        <ele>0</ele>
        <time>2022-07-12T16:15:46.996Z</time>
      </trkpt>
    </trkseg>
  </trk>
  <trk>
    <name>2022-07-13</name>
    <trkseg>
      <trkpt lat="37.9450258" lon="22.9379446">
        <ele>0</ele>
        <time>2022-07-13T04:00:00.000Z</time>
      </trkpt>
      <trkpt lat="38.1507922" lon="22.6688119">
        <ele>0</ele>
        <time>2022-07-13T07:17:04.681Z</time>
      </trkpt>
      <trkpt lat="38.2957643" lon="22.4736137">
        <ele>0</ele>
        <time>2022-07-13T09:37:52.119Z</time>
      </trkpt>
      <trkpt lat="38.3795902" lon="22.4051587">
        <ele>0</ele>
        <time>2022-07-13T10:44:17.027Z</time>
      </trkpt>
      <trkpt lat="38.384415" lon="22.3966723">
        <ele>0</ele>
        <time>2022-07-13T10:49:45.987Z</time>
      </trkpt>
      <trkpt lat="38.3768089" lon="22.388753">
        <ele>0</ele>
        <time>2022-07-13T10:56:18.998Z</time>
      </trkpt>
    </trkseg>
  </trk>
    <trk>
    <name>2022-07-15</name>
    <trkseg>
      <trkpt lat="38.3761598" lon="22.3877014">
        <ele>0</ele>
        <time>2022-07-15T06:00:00.000Z</time>
      </trkpt>
      <trkpt lat="38.3836776" lon="22.3958517">
        <ele>0</ele>
        <time>2022-07-15T06:06:34.930Z</time>
      </trkpt>
      <trkpt lat="38.3788355" lon="22.404358">
        <ele>0</ele>
        <time>2022-07-15T06:12:04.800Z</time>
      </trkpt>
      <trkpt lat="38.3464673" lon="22.4080509">
        <ele>0</ele>
        <time>2022-07-15T06:33:45.654Z</time>
      </trkpt>
      <trkpt lat="38.3259458" lon="22.3779482">
        <ele>0</ele>
        <time>2022-07-15T06:54:37.917Z</time>
      </trkpt>
      <trkpt lat="38.3050018" lon="22.1806544">
        <ele>0</ele>
        <time>2022-07-15T08:38:50.868Z</time>
      </trkpt>
      <trkpt lat="38.3680511" lon="22.0782668">
        <ele>0</ele>
        <time>2022-07-15T09:46:57.997Z</time>
      </trkpt>
    </trkseg>
  </trk>
  <trk>
    <name>2022-07-16</name>
    <trkseg>
      <trkpt lat="38.3684325" lon="22.0768028">
        <ele>0</ele>
        <time>2022-07-16T08:00:00.000Z</time>
      </trkpt>
      <trkpt lat="38.3673558" lon="22.0817809">
        <ele>0</ele>
        <time>2022-07-16T08:02:42.068Z</time>
      </trkpt>
      <trkpt lat="38.3720663" lon="22.0838409">
        <ele>0</ele>
        <time>2022-07-16T08:06:01.397Z</time>
      </trkpt>
      <trkpt lat="38.3787951" lon="22.0623832">
        <ele>0</ele>
        <time>2022-07-16T08:18:06.626Z</time>
      </trkpt>
      <trkpt lat="38.3643948" lon="21.8781905">
        <ele>0</ele>
        <time>2022-07-16T09:54:55.700Z</time>
      </trkpt>
      <trkpt lat="38.3724028" lon="21.8452316">
        <ele>0</ele>
        <time>2022-07-16T10:12:58.604Z</time>
      </trkpt>
      <trkpt lat="38.3899695" lon="21.8299335">
        <ele>0</ele>
        <time>2022-07-16T10:27:09.998Z</time>
      </trkpt>
    </trkseg>
  </trk>
    <trk>
    <name>2022-07-18</name>
    <trkseg>
      <trkpt lat="38.3882669" lon="21.833646">
        <ele>0</ele>
        <time>2022-07-18T06:00:00.000Z</time>
      </trkpt>
      <trkpt lat="38.325013" lon="21.7699588">
        <ele>0</ele>
        <time>2022-07-18T06:53:46.130Z</time>
      </trkpt>
      <trkpt lat="38.3031856" lon="21.6981546">
        <ele>0</ele>
        <time>2022-07-18T07:34:04.739Z</time>
      </trkpt>
      <trkpt lat="38.2692665" lon="21.555461">
        <ele>0</ele>
        <time>2022-07-18T08:52:09.346Z</time>
      </trkpt>
      <trkpt lat="38.2841081" lon="21.4082661">
        <ele>0</ele>
        <time>2022-07-18T10:09:52.907Z</time>
      </trkpt>
      <trkpt lat="38.2669202" lon="21.0945788">
        <ele>0</ele>
        <time>2022-07-18T12:54:34.590Z</time>
      </trkpt>
      <trkpt lat="38.4199132" lon="20.780149">
        <ele>0</ele>
        <time>2022-07-18T16:08:11.791Z</time>
      </trkpt>
      <trkpt lat="38.4032259" lon="20.7115524">
        <ele>0</ele>
        <time>2022-07-18T16:45:44.720Z</time>
      </trkpt>
      <trkpt lat="38.3900077" lon="20.7066386">
        <ele>0</ele>
        <time>2022-07-18T16:54:55.845Z</time>
      </trkpt>
      <trkpt lat="38.3830445" lon="20.6966822">
        <ele>0</ele>
        <time>2022-07-18T17:01:54.522Z</time>
      </trkpt>
      <trkpt lat="38.374062" lon="20.706424">
        <ele>0</ele>
        <time>2022-07-18T17:09:46.481Z</time>
      </trkpt>
      <trkpt lat="38.3699572" lon="20.712518">
        <ele>0</ele>
        <time>2022-07-18T17:13:58.624Z</time>
      </trkpt>
      <trkpt lat="38.3705965" lon="20.71711">
        <ele>0</ele>
        <time>2022-07-18T17:16:24.994Z</time>
      </trkpt>
    </trkseg>
  </trk>
  <trk>
    <name>2022-07-19</name>
    <trkseg>
      <trkpt lat="38.3687983" lon="20.7140075">
        <ele>0</ele>
        <time>2022-07-19T06:00:00.000Z</time>
      </trkpt>
      <trkpt lat="38.3779497" lon="20.6958114">
        <ele>0</ele>
        <time>2022-07-19T06:11:18.474Z</time>
      </trkpt>
      <trkpt lat="38.3939619" lon="20.6978713">
        <ele>0</ele>
        <time>2022-07-19T06:22:02.719Z</time>
      </trkpt>
      <trkpt lat="38.4345819" lon="20.7232772">
        <ele>0</ele>
        <time>2022-07-19T06:52:13.572Z</time>
      </trkpt>
      <trkpt lat="38.5624795" lon="20.7301437">
        <ele>0</ele>
        <time>2022-07-19T08:17:38.043Z</time>
      </trkpt>
      <trkpt lat="38.6155609" lon="20.6911396">
        <ele>0</ele>
        <time>2022-07-19T08:58:28.524Z</time>
      </trkpt>
      <trkpt lat="38.6207917" lon="20.6887578">
        <ele>0</ele>
        <time>2022-07-19T09:02:10.778Z</time>
      </trkpt>
      <trkpt lat="38.623541" lon="20.6837581">
        <ele>0</ele>
        <time>2022-07-19T09:05:21.996Z</time>
      </trkpt>
    </trkseg>
  </trk>
  <trk>
    <name>2022-07-20</name>
    <trkseg>
      <trkpt lat="38.623874627" lon="20.684595968">
        <ele>0</ele>
        <time>2022-07-20T06:00:00.000Z</time>
      </trkpt>
      <trkpt lat="38.621127804" lon="20.690294019">
        <ele>0</ele>
        <time>2022-07-20T06:03:29.404Z</time>
      </trkpt>
      <trkpt lat="38.607392113" lon="20.6912639">
        <ele>0</ele>
        <time>2022-07-20T06:12:40.101Z</time>
      </trkpt>
      <trkpt lat="38.626810769" lon="20.730422845">
        <ele>0</ele>
        <time>2022-07-20T06:36:50.776Z</time>
      </trkpt>
      <trkpt lat="38.657586228" lon="20.737087907">
        <ele>0</ele>
        <time>2022-07-20T06:57:40.267Z</time>
      </trkpt>
      <trkpt lat="38.663916066" lon="20.736872697">
        <ele>0</ele>
        <time>2022-07-20T07:01:53.749Z</time>
      </trkpt>
      <trkpt lat="38.671701558" lon="20.741392113">
        <ele>0</ele>
        <time>2022-07-20T07:07:35.932Z</time>
      </trkpt>
      <trkpt lat="38.670245344" lon="20.776256178">
        <ele>0</ele>
        <time>2022-07-20T07:25:47.150Z</time>
      </trkpt>
      <trkpt lat="38.702499163" lon="20.760402354">
        <ele>0</ele>
        <time>2022-07-20T07:48:50.096Z</time>
      </trkpt>
      <trkpt lat="38.70277908" lon="20.722740555">
        <ele>0</ele>
        <time>2022-07-20T08:08:26.730Z</time>
      </trkpt>
      <trkpt lat="38.706641828" lon="20.71355825">
        <ele>0</ele>
        <time>2022-07-20T08:13:52.607Z</time>
      </trkpt>
      <trkpt lat="38.702667113" lon="20.710975727">
        <ele>0</ele>
        <time>2022-07-20T08:16:51.005Z</time>
      </trkpt>
      <trkpt lat="38.70216326" lon="20.713486513">
        <ele>0</ele>
        <time>2022-07-20T08:18:11.995Z</time>
      </trkpt>
    </trkseg>
  </trk>
  <trk>
    <name>2022-07-25</name>
    <trkseg>
      <trkpt lat="38.7029806" lon="20.712432">
        <ele>0</ele>
        <time>2022-07-25T09:00:00.000Z</time>
      </trkpt>
      <trkpt lat="38.7053823" lon="20.7115927">
        <ele>0</ele>
        <time>2022-07-25T09:01:39.648Z</time>
      </trkpt>
      <trkpt lat="38.7170982" lon="20.7310835">
        <ele>0</ele>
        <time>2022-07-25T09:14:28.135Z</time>
      </trkpt>
      <trkpt lat="38.7375419" lon="20.7456318">
        <ele>0</ele>
        <time>2022-07-25T09:30:04.130Z</time>
      </trkpt>
      <trkpt lat="38.7930088" lon="20.732692">
        <ele>0</ele>
        <time>2022-07-25T10:07:40.855Z</time>
      </trkpt>
      <trkpt lat="38.7941901" lon="20.7263551">
        <ele>0</ele>
        <time>2022-07-25T10:11:04.136Z</time>
      </trkpt>
      <trkpt lat="38.7995056" lon="20.7272632">
        <ele>0</ele>
        <time>2022-07-25T10:14:38.788Z</time>
      </trkpt>
      <trkpt lat="38.8029838" lon="20.7276303">
        <ele>0</ele>
        <time>2022-07-25T10:16:58.487Z</time>
      </trkpt>
      <trkpt lat="38.8063564" lon="20.7282292">
        <ele>0</ele>
        <time>2022-07-25T10:19:14.775Z</time>
      </trkpt>
      <trkpt lat="38.807862" lon="20.7279974">
        <ele>0</ele>
        <time>2022-07-25T10:20:15.475Z</time>
      </trkpt>
      <trkpt lat="38.8138239" lon="20.7246935">
        <ele>0</ele>
        <time>2022-07-25T10:24:35.424Z</time>
      </trkpt>
      <trkpt lat="38.8213206" lon="20.7204623">
        <ele>0</ele>
        <time>2022-07-25T10:30:03.245Z</time>
      </trkpt>
      <trkpt lat="38.8297798" lon="20.715748">
        <ele>0</ele>
        <time>2022-07-25T10:36:12.397Z</time>
      </trkpt>
      <trkpt lat="38.8343251" lon="20.713217">
        <ele>0</ele>
        <time>2022-07-25T10:39:30.721Z</time>
      </trkpt>
      <trkpt lat="38.8347766" lon="20.712135">
        <ele>0</ele>
        <time>2022-07-25T10:40:08.994Z</time>
      </trkpt>
    </trkseg>
  </trk>
  <trk>
    <name>2022-07-26</name>
    <trkseg>
      <trkpt lat="38.835032497" lon="20.711883823">
        <ele>0</ele>
        <time>2022-07-26T04:00:00.000Z</time>
      </trkpt>
      <trkpt lat="38.838012339" lon="20.714125035">
        <ele>0</ele>
        <time>2022-07-26T04:02:18.253Z</time>
      </trkpt>
      <trkpt lat="38.844573572" lon="20.718163081">
        <ele>0</ele>
        <time>2022-07-26T04:07:09.531Z</time>
      </trkpt>
      <trkpt lat="38.846544833" lon="20.719380291">
        <ele>0</ele>
        <time>2022-07-26T04:08:37.096Z</time>
      </trkpt>
      <trkpt lat="38.845581781" lon="20.723824074">
        <ele>0</ele>
        <time>2022-07-26T04:11:00.909Z</time>
      </trkpt>
      <trkpt lat="38.847011307" lon="20.72471283">
        <ele>0</ele>
        <time>2022-07-26T04:12:04.491Z</time>
      </trkpt>
      <trkpt lat="38.851299712" lon="20.720365652">
        <ele>0</ele>
        <time>2022-07-26T04:15:43.216Z</time>
      </trkpt>
      <trkpt lat="38.931637801" lon="20.725311089">
        <ele>0</ele>
        <time>2022-07-26T05:09:23.009Z</time>
      </trkpt>
      <trkpt lat="38.942722737" lon="20.756431875">
        <ele>0</ele>
        <time>2022-07-26T05:27:08.831Z</time>
      </trkpt>
      <trkpt lat="38.948602431" lon="20.760901627">
        <ele>0</ele>
        <time>2022-07-26T05:31:42.269Z</time>
      </trkpt>
      <trkpt lat="38.963320987" lon="20.763384822">
        <ele>0</ele>
        <time>2022-07-26T05:41:36.533Z</time>
      </trkpt>
      <trkpt lat="38.963835867" lon="20.759246163">
        <ele>0</ele>
        <time>2022-07-26T05:43:46.994Z</time>
      </trkpt>
    </trkseg>
  </trk>
  <trk>
    <name>2022-07-27</name>
    <trkseg>
      <trkpt lat="38.963406801" lon="20.758957518">
        <ele>0</ele>
        <time>2022-07-27T07:00:00.000Z</time>
      </trkpt>
      <trkpt lat="38.959710124" lon="20.763626774">
        <ele>0</ele>
        <time>2022-07-27T07:03:27.254Z</time>
      </trkpt>
      <trkpt lat="38.954494842" lon="20.762735371">
        <ele>0</ele>
        <time>2022-07-27T07:06:57.697Z</time>
      </trkpt>
      <trkpt lat="38.95152394" lon="20.765367133">
        <ele>0</ele>
        <time>2022-07-27T07:09:21.999Z</time>
      </trkpt>
    </trkseg>
  </trk>

</gpx>
